{"type":"FeatureCollection","features":[{"type":"Feature","properties":{"manual_id":"manual-road-1784800829395-g4rrc6","osm_way_id":"manual-road-1784800829395-g4rrc6","highway":"residential","name":null,"barangay_slug":"lunas","barangay_name":"Lunas","length_m":261,"source":"manual-print"},"geometry":{"type":"LineString","coordinates":[[121.203113,17.061648],[121.2034,17.061476],[121.203612,17.061276],[121.203974,17.061089],[121.204306,17.060989],[121.204722,17.060974],[121.204961,17.060894],[121.205183,17.060907],[121.20535,17.060902]]}},{"type":"Feature","properties":{"manual_id":"manual-road-1784829507838-4wpjgp","osm_way_id":"manual-road-1784829507838-4wpjgp","highway":"residential","name":null,"barangay_slug":"fiangtin","barangay_name":"Fiangtin","length_m":195,"source":"manual-print"},"geometry":{"type":"LineString","coordinates":[[121.102659,17.039292],[121.102791,17.039033],[121.10286,17.038981],[121.102868,17.03893],[121.102825,17.038825],[121.102834,17.038663],[121.102868,17.038476],[121.103327,17.038289],[121.10352,17.038309],[121.103641,17.038476]]}},{"type":"Feature","properties":{"manual_id":"manual-road-1784829522636-nervus","osm_way_id":"manual-road-1784829522636-nervus","highway":"residential","name":null,"barangay_slug":"fiangtin","barangay_name":"Fiangtin","length_m":67,"source":"manual-print"},"geometry":{"type":"LineString","coordinates":[[121.102852,17.038499],[121.102707,17.038558],[121.10256,17.038751],[121.102375,17.038869]]}},{"type":"Feature","properties":{"manual_id":"manual-road-1784837217574-yc4emc","osm_way_id":"manual-road-1784837217574-yc4emc","highway":"residential","name":null,"barangay_slug":"gawana","barangay_name":"Gawana","length_m":217,"source":"manual-print"},"geometry":{"type":"LineString","coordinates":[[121.100693,17.040874],[121.100789,17.040692],[121.100762,17.040628],[121.10088,17.040546],[121.100867,17.040505],[121.100746,17.040325],[121.100749,17.040217],[121.100779,17.039994],[121.100738,17.039953],[121.100722,17.039853],[121.100757,17.039764],[121.100913,17.039805],[121.101218,17.039776],[121.101382,17.039828],[121.10147,17.039825]]}}]}
