{"type":"FeatureCollection","features":[{"type":"Feature","properties":{"name":"Kadaclan National High School","kind":"school","kind_label":"School","source":"google_places","google_place_id":"ChIJUwqViUnbjzMRrBlGOAu514o","google_primary_type":"secondary_school","google_primary_type_label":"High school","google_types":["secondary_school","school","educational_institution","point_of_interest","establishment"],"google_maps_uri":"https://maps.google.com/?cid=10004668555066743212&g_mp=Cilnb29nbGUubWFwcy5wbGFjZXMudjEuUGxhY2VzLlNlYXJjaE5lYXJieRACGAQgAA","google_icon_mask_base_uri":"https://maps.gstatic.com/mapfiles/place_api/icons/v2/school_pinlet","google_icon_background_color":"#7B9EB0","formatted_address":"354X+98X, Barlig, Mountain Province, Philippines","business_status":"OPERATIONAL","rating":null,"user_rating_count":null,"barangay_slug":"chupac","barangay_name":"Chupac"},"geometry":{"type":"Point","coordinates":[121.1983528,17.0559907]}},{"type":"Feature","properties":{"name":"Philippine Eagle's Statue, Mauwuy, Lias and Chupac, Barlig","kind":"tourism","kind_label":"Tourism","source":"google_places","google_place_id":"ChIJo4wbfJLdjzMRHwNoP5NVc4s","google_primary_type":"tourist_attraction","google_primary_type_label":"Tourist Attraction","google_types":["tourist_attraction","point_of_interest","establishment"],"google_maps_uri":"https://maps.google.com/?cid=10048469284506043167&g_mp=Cilnb29nbGUubWFwcy5wbGFjZXMudjEuUGxhY2VzLlNlYXJjaE5lYXJieRACGAQgAA","google_icon_mask_base_uri":"https://maps.gstatic.com/mapfiles/place_api/icons/v2/generic_pinlet","google_icon_background_color":"#13B5C7","formatted_address":"35FH+RH6, Paracelis Road, Barlig, Mountain Province, Philippines","business_status":"OPERATIONAL","rating":4.8,"user_rating_count":76,"barangay_slug":"chupac","barangay_name":"Chupac"},"geometry":{"type":"Point","coordinates":[121.1788847,17.074541099999998]}},{"type":"Feature","properties":{"name":"REAPER FARM STAYCATION (Ashkarlyn Enterprises)","kind":"tourism","kind_label":"Tourism","source":"google_places","google_place_id":"ChIJ5SkN_OfdjzMRVvxfOvzKVas","google_primary_type":"lodging","google_primary_type_label":"Lodging","google_types":["coffee_shop","cafe","food_store","lodging","store","point_of_interest","food","establishment"],"google_maps_uri":"https://maps.google.com/?cid=12345997138166021206&g_mp=Cilnb29nbGUubWFwcy5wbGFjZXMudjEuUGxhY2VzLlNlYXJjaE5lYXJieRACGAQgAA","google_icon_mask_base_uri":"https://maps.gstatic.com/mapfiles/place_api/icons/v2/hotel_pinlet","google_icon_background_color":"#909CE1","formatted_address":"Nagabbot, Barlig, 2623 Mountain Province, Philippines","business_status":"OPERATIONAL","rating":null,"user_rating_count":null,"barangay_slug":"chupac","barangay_name":"Chupac"},"geometry":{"type":"Point","coordinates":[121.1970468,17.0583198]}},{"type":"Feature","properties":{"name":"Barangay Fiangtin Health Station","kind":"business","kind_label":"Business","source":"google_places","google_place_id":"ChIJq_IWcgDbjzMRyTjM-4D4mr0","google_primary_type":"community_center","google_primary_type_label":"Community Center","google_types":["community_center","event_venue","service","point_of_interest","establishment"],"google_maps_uri":"https://maps.google.com/?cid=13662505652445788361&g_mp=Cidnb29nbGUubWFwcy5wbGFjZXMudjEuUGxhY2VzLlNlYXJjaFRleHQQAhgEIAA","google_icon_mask_base_uri":"https://maps.gstatic.com/mapfiles/place_api/icons/v2/generic_pinlet","google_icon_background_color":"#7B9EB0","formatted_address":"24Q3+C9P, Barlig, Mountain Province, Philippines","business_status":"OPERATIONAL","rating":null,"user_rating_count":null,"barangay_slug":"fiangtin","barangay_name":"Fiangtin"},"geometry":{"type":"Point","coordinates":[121.1036276,17.0385594]}},{"type":"Feature","properties":{"name":"Barlig Food Hub","kind":"business","kind_label":"Business","source":"google_places","google_place_id":"ChIJx-i5GgDbjzMR3PUP_AoVTkc","google_primary_type":"family_restaurant","google_primary_type_label":"Family Restaurant","google_types":["family_restaurant","restaurant","food","point_of_interest","establishment"],"google_maps_uri":"https://maps.google.com/?cid=5138067361799075292&g_mp=Cilnb29nbGUubWFwcy5wbGFjZXMudjEuUGxhY2VzLlNlYXJjaE5lYXJieRACGAQgAA","google_icon_mask_base_uri":"https://maps.gstatic.com/mapfiles/place_api/icons/v2/restaurant_pinlet","google_icon_background_color":"#FF9E67","formatted_address":"Fiangtin Street, Barlig, 2623 Mountain Province, Philippines","business_status":"OPERATIONAL","rating":null,"user_rating_count":null,"barangay_slug":"fiangtin","barangay_name":"Fiangtin"},"geometry":{"type":"Point","coordinates":[121.105213,17.0400352]}},{"type":"Feature","properties":{"name":"Chuyat Eatery","kind":"business","kind_label":"Business","source":"google_places","google_place_id":"ChIJOaKxBADbjzMRzXGWs69MSkc","google_primary_type":"restaurant","google_primary_type_label":"Restaurant","google_types":["restaurant","food","point_of_interest","establishment"],"google_maps_uri":"https://maps.google.com/?cid=5137002642485440973&g_mp=Cilnb29nbGUubWFwcy5wbGFjZXMudjEuUGxhY2VzLlNlYXJjaE5lYXJieRACGAQgAA","google_icon_mask_base_uri":"https://maps.gstatic.com/mapfiles/place_api/icons/v2/restaurant_pinlet","google_icon_background_color":"#FF9E67","formatted_address":"Barlig, Mountain Province, Philippines","business_status":"OPERATIONAL","rating":5,"user_rating_count":1,"barangay_slug":"fiangtin","barangay_name":"Fiangtin"},"geometry":{"type":"Point","coordinates":[121.1028769,17.0400237]}},{"type":"Feature","properties":{"name":"FAIR HAVENS RESTAURANT","kind":"business","kind_label":"Business","source":"google_places","google_place_id":"ChIJEbGo5FvajzMRFlGZ0IYgrsQ","google_primary_type":"restaurant","google_primary_type_label":"Restaurant","google_types":["restaurant","food","point_of_interest","establishment"],"google_maps_uri":"https://maps.google.com/?cid=14172300840778944790&g_mp=Cilnb29nbGUubWFwcy5wbGFjZXMudjEuUGxhY2VzLlNlYXJjaE5lYXJieRACGAQgAA","google_icon_mask_base_uri":"https://maps.gstatic.com/mapfiles/place_api/icons/v2/restaurant_pinlet","google_icon_background_color":"#FF9E67","formatted_address":"Barlig, Mountain Province, Philippines","business_status":"OPERATIONAL","rating":null,"user_rating_count":null,"barangay_slug":"fiangtin","barangay_name":"Fiangtin"},"geometry":{"type":"Point","coordinates":[121.1087818,17.048019399999998]}},{"type":"Feature","properties":{"name":"Ged Brix Pogi","kind":"business","kind_label":"Business","source":"google_places","google_place_id":"ChIJ0yQVs4nbjzMRas6_XAmLWkM","google_primary_type":"food_court","google_primary_type_label":"Food Court","google_types":["food_court","food","point_of_interest","establishment"],"google_maps_uri":"https://maps.google.com/?cid=4853344420772171370&g_mp=Cidnb29nbGUubWFwcy5wbGFjZXMudjEuUGxhY2VzLlNlYXJjaFRleHQQAhgEIAA","google_icon_mask_base_uri":"https://maps.gstatic.com/mapfiles/place_api/icons/v2/restaurant_pinlet","google_icon_background_color":"#FF9E67","formatted_address":"Barlig, 2623 Mountain Province, Philippines","business_status":"OPERATIONAL","rating":5,"user_rating_count":1,"barangay_slug":"fiangtin","barangay_name":"Fiangtin"},"geometry":{"type":"Point","coordinates":[121.10245609999998,17.041335399999998]}},{"type":"Feature","properties":{"name":"Barangay IP Hall","kind":"govt","kind_label":"Government","source":"google_places","google_place_id":"ChIJx4mXSFrbjzMRTmCVesIFGDk","google_primary_type":"government_office","google_primary_type_label":"Government Office","google_types":["government_office","point_of_interest","establishment"],"google_maps_uri":"https://maps.google.com/?cid=4114044592441352270&g_mp=Cilnb29nbGUubWFwcy5wbGFjZXMudjEuUGxhY2VzLlNlYXJjaE5lYXJieRACGAQgAA","google_icon_mask_base_uri":"https://maps.gstatic.com/mapfiles/place_api/icons/v2/civic-bldg_pinlet","google_icon_background_color":"#7B9EB0","formatted_address":"Fiangtin, Barlig, Mountain Province, Philippines","business_status":"OPERATIONAL","rating":null,"user_rating_count":null,"barangay_slug":"fiangtin","barangay_name":"Fiangtin"},"geometry":{"type":"Point","coordinates":[121.10393880000001,17.0386711]}},{"type":"Feature","properties":{"name":"Barlig Fire station","kind":"govt","kind_label":"Government","source":"google_places","google_place_id":"ChIJyW4_SgDbjzMRnNML8whuiBk","google_primary_type":"government_office","google_primary_type_label":"Government Office","google_types":["government_office","point_of_interest","establishment"],"google_maps_uri":"https://maps.google.com/?cid=1839841432497279900&g_mp=Cilnb29nbGUubWFwcy5wbGFjZXMudjEuUGxhY2VzLlNlYXJjaE5lYXJieRACGAQgAA","google_icon_mask_base_uri":"https://maps.gstatic.com/mapfiles/place_api/icons/v2/civic-bldg_pinlet","google_icon_background_color":"#7B9EB0","formatted_address":"24R3+82R, Talubin - Barlig - Paracelis Rd, Barlig, Mountain Province, Philippines","business_status":"OPERATIONAL","rating":null,"user_rating_count":null,"barangay_slug":"fiangtin","barangay_name":"Fiangtin"},"geometry":{"type":"Point","coordinates":[121.102517,17.0408515]}},{"type":"Feature","properties":{"name":"Barlig Mountain View Inn","kind":"tourism","kind_label":"Tourism","source":"google_places","google_place_id":"ChIJn3DEbADbjzMR_Gv9jj2j02Y","google_primary_type":"private_guest_room","google_primary_type_label":"Homestay","google_types":["private_guest_room","lodging","point_of_interest","establishment"],"google_maps_uri":"https://maps.google.com/?cid=7409445296741903356&g_mp=Cilnb29nbGUubWFwcy5wbGFjZXMudjEuUGxhY2VzLlNlYXJjaE5lYXJieRACGAQgAA","google_icon_mask_base_uri":"https://maps.gstatic.com/mapfiles/place_api/icons/v2/hotel_pinlet","google_icon_background_color":"#909CE1","formatted_address":"24Q4+X3W Sapang, Barlig, Mountain Province, Philippines","business_status":"OPERATIONAL","rating":5,"user_rating_count":1,"barangay_slug":"fiangtin","barangay_name":"Fiangtin"},"geometry":{"type":"Point","coordinates":[121.10520910000001,17.039983]}},{"type":"Feature","properties":{"name":"Barlig-Bontoc Jeepeny Station","kind":"transport","kind_label":"Transport","source":"google_places","google_place_id":"ChIJO-MD8GnajzMRhcqf9bmJoCU","google_primary_type":"bus_station","google_primary_type_label":"Bus Station","google_types":["bus_station","transit_station","transportation_service","point_of_interest","establishment"],"google_maps_uri":"https://maps.google.com/?cid=2711318407459883653&g_mp=Cilnb29nbGUubWFwcy5wbGFjZXMudjEuUGxhY2VzLlNlYXJjaE5lYXJieRACGAQgAA","google_icon_mask_base_uri":"https://maps.gstatic.com/mapfiles/place_api/icons/v2/bus_share_taxi_pinlet","google_icon_background_color":"#10BDFF","formatted_address":"Gawana, Barlig, Mountain Province, Philippines","business_status":"OPERATIONAL","rating":null,"user_rating_count":null,"barangay_slug":"fiangtin","barangay_name":"Fiangtin"},"geometry":{"type":"Point","coordinates":[121.1015546,17.0397163]}},{"type":"Feature","properties":{"name":"Bontoc Jeepney Terminal","kind":"transport","kind_label":"Transport","source":"google_places","google_place_id":"ChIJYTVI5WnajzMRWEa4qv1gdd4","google_primary_type":"bus_station","google_primary_type_label":"Bus Station","google_types":["bus_station","transit_station","transportation_service","point_of_interest","establishment"],"google_maps_uri":"https://maps.google.com/?cid=16029825091302344280&g_mp=Cilnb29nbGUubWFwcy5wbGFjZXMudjEuUGxhY2VzLlNlYXJjaE5lYXJieRACGAQgAA","google_icon_mask_base_uri":"https://maps.gstatic.com/mapfiles/place_api/icons/v2/bus_share_taxi_pinlet","google_icon_background_color":"#10BDFF","formatted_address":"Barlig, Mountain Province, Philippines","business_status":"OPERATIONAL","rating":3,"user_rating_count":1,"barangay_slug":"fiangtin","barangay_name":"Fiangtin"},"geometry":{"type":"Point","coordinates":[121.10166190000001,17.0397471]}},{"type":"Feature","properties":{"name":"CSPI","kind":"worship","kind_label":"Worship","source":"google_places","google_place_id":"ChIJNSXmOQDbjzMRe3gbVVPOyR8","google_primary_type":"church","google_primary_type_label":"Church","google_types":["church","place_of_worship","association_or_organization","point_of_interest","establishment"],"google_maps_uri":"https://maps.google.com/?cid=2290588742800078971&g_mp=Cilnb29nbGUubWFwcy5wbGFjZXMudjEuUGxhY2VzLlNlYXJjaE5lYXJieRACGAQgAA","google_icon_mask_base_uri":"https://maps.gstatic.com/mapfiles/place_api/icons/v2/worship_christian_pinlet","google_icon_background_color":"#7B9EB0","formatted_address":"24Q3+X79, Talubin - Barlig - Paracelis Rd, Barlig, Mountain Province, Philippines","business_status":"OPERATIONAL","rating":null,"user_rating_count":null,"barangay_slug":"fiangtin","barangay_name":"Fiangtin"},"geometry":{"type":"Point","coordinates":[121.10451979999999,17.0383019]}},{"type":"Feature","properties":{"name":"Barlig Coop Bank","kind":"business","kind_label":"Business","source":"google_places","google_place_id":"ChIJqfggIGrajzMRHv7UW7lZnYA","google_primary_type":"bank","google_primary_type_label":"Bank","google_types":["bank","finance","point_of_interest","establishment"],"google_maps_uri":"https://maps.google.com/?cid=9267662260842855966&g_mp=Cilnb29nbGUubWFwcy5wbGFjZXMudjEuUGxhY2VzLlNlYXJjaE5lYXJieRACGAQgAA","google_icon_mask_base_uri":"https://maps.gstatic.com/mapfiles/place_api/icons/v2/bank-intl_pinlet","google_icon_background_color":"#909CE1","formatted_address":"24Q2+J8X, Barlig, Mountain Province, Philippines","business_status":"OPERATIONAL","rating":null,"user_rating_count":null,"barangay_slug":"gawana","barangay_name":"Gawana"},"geometry":{"type":"Point","coordinates":[121.10085189999998,17.0391034]}},{"type":"Feature","properties":{"name":"Eastern Halfway Restaurant","kind":"business","kind_label":"Business","source":"google_places","google_place_id":"ChIJ-R2fGwDbjzMRC5_ID-BRmBE","google_primary_type":"restaurant","google_primary_type_label":"Restaurant","google_types":["restaurant","food","point_of_interest","establishment"],"google_maps_uri":"https://maps.google.com/?cid=1267853317884124939&g_mp=Cilnb29nbGUubWFwcy5wbGFjZXMudjEuUGxhY2VzLlNlYXJjaE5lYXJieRACGAQgAA","google_icon_mask_base_uri":"https://maps.gstatic.com/mapfiles/place_api/icons/v2/restaurant_pinlet","google_icon_background_color":"#FF9E67","formatted_address":"24R2+G59, Paracelis - Natonin Rd, Barlig, Mountain Province, Philippines","business_status":"OPERATIONAL","rating":5,"user_rating_count":1,"barangay_slug":"gawana","barangay_name":"Gawana"},"geometry":{"type":"Point","coordinates":[121.1004952,17.0412526]}},{"type":"Feature","properties":{"name":"Gakiw's Snack Hub","kind":"business","kind_label":"Business","source":"google_places","google_place_id":"ChIJO3VlKQDbjzMRT7J41Nbfshw","google_primary_type":"restaurant","google_primary_type_label":"Restaurant","google_types":["restaurant","food","point_of_interest","establishment"],"google_maps_uri":"https://maps.google.com/?cid=2067961292697154127&g_mp=Cilnb29nbGUubWFwcy5wbGFjZXMudjEuUGxhY2VzLlNlYXJjaE5lYXJieRACGAQgAA","google_icon_mask_base_uri":"https://maps.gstatic.com/mapfiles/place_api/icons/v2/restaurant_pinlet","google_icon_background_color":"#FF9E67","formatted_address":"23RX+GQQ, Barlig, Mountain Province, Philippines","business_status":"OPERATIONAL","rating":null,"user_rating_count":null,"barangay_slug":"gawana","barangay_name":"Gawana"},"geometry":{"type":"Point","coordinates":[121.09947020000001,17.0413389]}},{"type":"Feature","properties":{"name":"Gawana","kind":"business","kind_label":"Business","source":"google_places","google_place_id":"ChIJCb2iBEnajzMRJxCaHZe7XPs","google_primary_type":null,"google_primary_type_label":null,"google_types":["sublocality_level_2","sublocality","political"],"google_maps_uri":"https://maps.google.com/?cid=18112558059088384039&g_mp=Cidnb29nbGUubWFwcy5wbGFjZXMudjEuUGxhY2VzLlNlYXJjaFRleHQQAhgEIAA","google_icon_mask_base_uri":"https://maps.gstatic.com/mapfiles/place_api/icons/v2/generic_pinlet","google_icon_background_color":"#7B9EB0","formatted_address":"Gawana, Barlig, Mountain Province, Philippines","business_status":null,"rating":null,"user_rating_count":null,"barangay_slug":"gawana","barangay_name":"Gawana"},"geometry":{"type":"Point","coordinates":[121.09799629999998,17.0462485]}},{"type":"Feature","properties":{"name":"Lolo Peds' Restaurant","kind":"business","kind_label":"Business","source":"google_places","google_place_id":"ChIJqUM2h0LajzMRjzVFrxG7BgE","google_primary_type":"restaurant","google_primary_type_label":"Restaurant","google_types":["restaurant","food","point_of_interest","establishment"],"google_maps_uri":"https://maps.google.com/?cid=73952128527578511&g_mp=Cilnb29nbGUubWFwcy5wbGFjZXMudjEuUGxhY2VzLlNlYXJjaE5lYXJieRACGAQgAA","google_icon_mask_base_uri":"https://maps.gstatic.com/mapfiles/place_api/icons/v2/restaurant_pinlet","google_icon_background_color":"#FF9E67","formatted_address":"24R2+G4X Talubin-Barlig, Paracelis - Natonin Rd, Barlig, Mountain Province, Philippines","business_status":"OPERATIONAL","rating":null,"user_rating_count":null,"barangay_slug":"gawana","barangay_name":"Gawana"},"geometry":{"type":"Point","coordinates":[121.100353,17.0413678]}},{"type":"Feature","properties":{"name":"QN Variety Store","kind":"business","kind_label":"Business","source":"google_places","google_place_id":"ChIJl6JCDwDbjzMRgcOUPNjBJMo","google_primary_type":"store","google_primary_type_label":"Store","google_types":["store","point_of_interest","establishment"],"google_maps_uri":"https://maps.google.com/?cid=14565980229296505729&g_mp=Cilnb29nbGUubWFwcy5wbGFjZXMudjEuUGxhY2VzLlNlYXJjaE5lYXJieRACGAQgAA","google_icon_mask_base_uri":"https://maps.gstatic.com/mapfiles/place_api/icons/v2/shopping_pinlet","google_icon_background_color":"#4B96F3","formatted_address":"23RX+GQQ, Barlig, Mountain Province, Philippines","business_status":"OPERATIONAL","rating":null,"user_rating_count":null,"barangay_slug":"gawana","barangay_name":"Gawana"},"geometry":{"type":"Point","coordinates":[121.099545,17.041496]}},{"type":"Feature","properties":{"name":"TRK solar/cctv/office/IT/fire safety","kind":"business","kind_label":"Business","source":"google_places","google_place_id":"ChIJOTQwtUfbjzMRHUGgSsiPu3E","google_primary_type":"service","google_primary_type_label":"Services","google_types":["service","point_of_interest","establishment"],"google_maps_uri":"https://maps.google.com/?cid=8195302037338997021&g_mp=Cidnb29nbGUubWFwcy5wbGFjZXMudjEuUGxhY2VzLlNlYXJjaFRleHQQAhgEIAA","google_icon_mask_base_uri":"https://maps.gstatic.com/mapfiles/place_api/icons/v2/generic_pinlet","google_icon_background_color":"#7B9EB0","formatted_address":"National Highway, Gawana, Poblacion, Barlig, 2623 Mountain Province, Philippines","business_status":"OPERATIONAL","rating":null,"user_rating_count":null,"barangay_slug":"gawana","barangay_name":"Gawana"},"geometry":{"type":"Point","coordinates":[121.10034879999998,17.0418519]}},{"type":"Feature","properties":{"name":"Barlig Police Station","kind":"govt","kind_label":"Government","source":"google_places","google_place_id":"ChIJM29wqGnajzMRVRdMGkfpPfg","google_primary_type":"government_office","google_primary_type_label":"Government Office","google_types":["police","government_office","point_of_interest","service","establishment"],"google_maps_uri":"https://maps.google.com/?cid=17887709786578622293&g_mp=Cilnb29nbGUubWFwcy5wbGFjZXMudjEuUGxhY2VzLlNlYXJjaE5lYXJieRACGAQgAA","google_icon_mask_base_uri":"https://maps.gstatic.com/mapfiles/place_api/icons/v2/police_pinlet","google_icon_background_color":"#F88181","formatted_address":"23RX+HRR, Natonin-Paracelis Road, Poblacion, Barlig, Mountain Province, Philippines","business_status":"OPERATIONAL","rating":null,"user_rating_count":null,"barangay_slug":"gawana","barangay_name":"Gawana"},"geometry":{"type":"Point","coordinates":[121.09950809999998,17.041485299999998]}},{"type":"Feature","properties":{"name":"BARLIG RHU","kind":"govt","kind_label":"Government","source":"google_places","google_place_id":"ChIJ34liR4bbjzMR_C0yB6ecbQY","google_primary_type":"government_office","google_primary_type_label":"Government Office","google_types":["government_office","point_of_interest","establishment"],"google_maps_uri":"https://maps.google.com/?cid=463198577883229692&g_mp=Cilnb29nbGUubWFwcy5wbGFjZXMudjEuUGxhY2VzLlNlYXJjaE5lYXJieRACGAQgAA","google_icon_mask_base_uri":"https://maps.gstatic.com/mapfiles/place_api/icons/v2/civic-bldg_pinlet","google_icon_background_color":"#7B9EB0","formatted_address":"23RX+QQR, Paracelis Road, Barlig, Mountain Province, Philippines","business_status":"OPERATIONAL","rating":null,"user_rating_count":null,"barangay_slug":"gawana","barangay_name":"Gawana"},"geometry":{"type":"Point","coordinates":[121.09938199999999,17.0419877]}},{"type":"Feature","properties":{"name":"Gawana (Pob.) Barangay Hall","kind":"govt","kind_label":"Government","source":"google_places","google_place_id":"ChIJIzAnbQDbjzMR64WaumwS0lk","google_primary_type":"government_office","google_primary_type_label":"Government Office","google_types":["government_office","point_of_interest","establishment"],"google_maps_uri":"https://maps.google.com/?cid=6472255872681281003&g_mp=Cilnb29nbGUubWFwcy5wbGFjZXMudjEuUGxhY2VzLlNlYXJjaE5lYXJieRACGAQgAA","google_icon_mask_base_uri":"https://maps.gstatic.com/mapfiles/place_api/icons/v2/civic-bldg_pinlet","google_icon_background_color":"#7B9EB0","formatted_address":"23QX+VRH, Barlig, Mountain Province, Philippines","business_status":"OPERATIONAL","rating":5,"user_rating_count":1,"barangay_slug":"gawana","barangay_name":"Gawana"},"geometry":{"type":"Point","coordinates":[121.09963020000001,17.0396328]}},{"type":"Feature","properties":{"name":"Gawana IP Hall","kind":"govt","kind_label":"Government","source":"google_places","google_place_id":"ChIJMWI7fRHbjzMRMSYycnpyHZw","google_primary_type":"government_office","google_primary_type_label":"Government Office","google_types":["government_office","point_of_interest","establishment"],"google_maps_uri":"https://maps.google.com/?cid=11249273314468832817&g_mp=Cilnb29nbGUubWFwcy5wbGFjZXMudjEuUGxhY2VzLlNlYXJjaE5lYXJieRACGAQgAA","google_icon_mask_base_uri":"https://maps.gstatic.com/mapfiles/place_api/icons/v2/civic-bldg_pinlet","google_icon_background_color":"#7B9EB0","formatted_address":"23QX+VRH, Barlig, Mountain Province, Philippines","business_status":"OPERATIONAL","rating":null,"user_rating_count":null,"barangay_slug":"gawana","barangay_name":"Gawana"},"geometry":{"type":"Point","coordinates":[121.0995942,17.039677299999997]}},{"type":"Feature","properties":{"name":"Municipal Hall","kind":"govt","kind_label":"Government","source":"google_places","google_place_id":"ChIJldnhwGnajzMRrBg49BHpGVI","google_primary_type":"city_hall","google_primary_type_label":"City Hall","google_types":["city_hall","local_government_office","government_office","point_of_interest","service","establishment"],"google_maps_uri":"https://maps.google.com/?cid=5916015848848890028&g_mp=Cilnb29nbGUubWFwcy5wbGFjZXMudjEuUGxhY2VzLlNlYXJjaE5lYXJieRACGAQgAA","google_icon_mask_base_uri":"https://maps.gstatic.com/mapfiles/place_api/icons/v2/civic-bldg_pinlet","google_icon_background_color":"#7B9EB0","formatted_address":"23RX+HR6 Talubin-Barlig, Paracelis - Natonin Rd, Barlig, Mountain Province, Philippines","business_status":"OPERATIONAL","rating":4.3,"user_rating_count":6,"barangay_slug":"gawana","barangay_name":"Gawana"},"geometry":{"type":"Point","coordinates":[121.0995054,17.0414191]}},{"type":"Feature","properties":{"name":"Barlig District Hospital","kind":"hospital","kind_label":"Hospital","source":"google_places","google_place_id":"ChIJ233b42jajzMR7Dc2Ly3YSag","google_primary_type":"hospital","google_primary_type_label":"Hospital","google_types":["hospital","point_of_interest","health","service","establishment"],"google_maps_uri":"https://maps.google.com/?cid=12126461160248981484&g_mp=Cilnb29nbGUubWFwcy5wbGFjZXMudjEuUGxhY2VzLlNlYXJjaE5lYXJieRACGAQgAA","google_icon_mask_base_uri":"https://maps.gstatic.com/mapfiles/place_api/icons/v2/hospital-H_pinlet","google_icon_background_color":"#F88181","formatted_address":"23VW+VVM, Paracelis - Natonin Rd, Barlig, Mountain Province, Philippines","business_status":"OPERATIONAL","rating":3,"user_rating_count":1,"barangay_slug":"gawana","barangay_name":"Gawana"},"geometry":{"type":"Point","coordinates":[121.097168,17.0447058]}},{"type":"Feature","properties":{"name":"Barlig Rural Health Center","kind":"hospital","kind_label":"Hospital","source":"google_places","google_place_id":"ChIJacFrAGnajzMRlMXC8GsPmxY","google_primary_type":"hospital","google_primary_type_label":"Hospital","google_types":["hospital","point_of_interest","health","service","establishment"],"google_maps_uri":"https://maps.google.com/?cid=1628912646499779988&g_mp=Cilnb29nbGUubWFwcy5wbGFjZXMudjEuUGxhY2VzLlNlYXJjaE5lYXJieRACGAQgAA","google_icon_mask_base_uri":"https://maps.gstatic.com/mapfiles/place_api/icons/v2/hospital-H_pinlet","google_icon_background_color":"#F88181","formatted_address":"23RX+QPX, Paracelis Road, Barlig, Mountain Province, Philippines","business_status":"OPERATIONAL","rating":null,"user_rating_count":null,"barangay_slug":"gawana","barangay_name":"Gawana"},"geometry":{"type":"Point","coordinates":[121.09935519999999,17.0419782]}},{"type":"Feature","properties":{"name":"Barlig","kind":"tourism","kind_label":"Tourism","source":"google_places","google_place_id":"ChIJI0eeLk7bjzMRL_qltHfX-nA","google_primary_type":"tourist_attraction","google_primary_type_label":"Tourist Attraction","google_types":["tourist_attraction","point_of_interest","establishment"],"google_maps_uri":"https://maps.google.com/?cid=8141056185557449263&g_mp=Cilnb29nbGUubWFwcy5wbGFjZXMudjEuUGxhY2VzLlNlYXJjaE5lYXJieRACGAQgAA","google_icon_mask_base_uri":"https://maps.gstatic.com/mapfiles/place_api/icons/v2/generic_pinlet","google_icon_background_color":"#13B5C7","formatted_address":"24Q2+W82, Barlig, Mountain Province, Philippines","business_status":"OPERATIONAL","rating":4.6,"user_rating_count":14,"barangay_slug":"gawana","barangay_name":"Gawana"},"geometry":{"type":"Point","coordinates":[121.1007557,17.0397727]}},{"type":"Feature","properties":{"name":"Barlig Open Gym","kind":"tourism","kind_label":"Tourism","source":"google_places","google_place_id":"ChIJb4G3EULajzMRG1HJ6v9zA80","google_primary_type":"athletic_field","google_primary_type_label":"Athletic Field","google_types":["athletic_field","sports_activity_location","point_of_interest","establishment"],"google_maps_uri":"https://maps.google.com/?cid=14772778745698275611&g_mp=Cilnb29nbGUubWFwcy5wbGFjZXMudjEuUGxhY2VzLlNlYXJjaE5lYXJieRACGAQgAA","google_icon_mask_base_uri":"https://maps.gstatic.com/mapfiles/place_api/icons/v2/generic_pinlet","google_icon_background_color":"#7B9EB0","formatted_address":"24R2+6FR Talubin-Barlig, Paracelis - Natonin Rd, Barlig, Mountain Province, Philippines","business_status":"OPERATIONAL","rating":4,"user_rating_count":3,"barangay_slug":"gawana","barangay_name":"Gawana"},"geometry":{"type":"Point","coordinates":[121.10112540000002,17.0406087]}},{"type":"Feature","properties":{"name":"Halfway Inn & Restaurant","kind":"tourism","kind_label":"Tourism","source":"google_places","google_place_id":"ChIJRfEFumnajzMRRonnMQMH9iI","google_primary_type":"motel","google_primary_type_label":"Motel","google_types":["motel","lodging","point_of_interest","establishment"],"google_maps_uri":"https://maps.google.com/?cid=2519208751863925062&g_mp=Cilnb29nbGUubWFwcy5wbGFjZXMudjEuUGxhY2VzLlNlYXJjaE5lYXJieRACGAQgAA","google_icon_mask_base_uri":"https://maps.gstatic.com/mapfiles/place_api/icons/v2/hotel_pinlet","google_icon_background_color":"#909CE1","formatted_address":"24R2+G59, Paracelis Road, Barlig, Mountain Province, Philippines","business_status":"OPERATIONAL","rating":4.8,"user_rating_count":12,"barangay_slug":"gawana","barangay_name":"Gawana"},"geometry":{"type":"Point","coordinates":[121.10048669999999,17.0412769]}},{"type":"Feature","properties":{"name":"Sea World Inn","kind":"tourism","kind_label":"Tourism","source":"google_places","google_place_id":"ChIJK3QJcQDbjzMRbRFT5I6MwKQ","google_primary_type":"private_guest_room","google_primary_type_label":"Homestay","google_types":["private_guest_room","lodging","point_of_interest","establishment"],"google_maps_uri":"https://maps.google.com/?cid=11871643163092521325&g_mp=Cilnb29nbGUubWFwcy5wbGFjZXMudjEuUGxhY2VzLlNlYXJjaE5lYXJieRACGAQgAA","google_icon_mask_base_uri":"https://maps.gstatic.com/mapfiles/place_api/icons/v2/hotel_pinlet","google_icon_background_color":"#909CE1","formatted_address":"23RX+GQQ, Barlig, Mountain Province, Philippines","business_status":"OPERATIONAL","rating":null,"user_rating_count":null,"barangay_slug":"gawana","barangay_name":"Gawana"},"geometry":{"type":"Point","coordinates":[121.0995691,17.0414502]}},{"type":"Feature","properties":{"name":"Saint Michael’s Parish Church","kind":"worship","kind_label":"Worship","source":"google_places","google_place_id":"ChIJ_Vg_9WnajzMRT15PO_VHklE","google_primary_type":"church","google_primary_type_label":"Church","google_types":["church","place_of_worship","association_or_organization","point_of_interest","establishment"],"google_maps_uri":"https://maps.google.com/?cid=5877839582259535439&g_mp=Cilnb29nbGUubWFwcy5wbGFjZXMudjEuUGxhY2VzLlNlYXJjaE5lYXJieRACGAQgAA","google_icon_mask_base_uri":"https://maps.gstatic.com/mapfiles/place_api/icons/v2/worship_christian_pinlet","google_icon_background_color":"#7B9EB0","formatted_address":"Tabra, Barlig Mountain Province, 24Q2+Q8C, Talubin-Barlig-Natonin-Paracelis Road, Barlig, Lalawigang Bulubundukin, Philippines","business_status":"OPERATIONAL","rating":null,"user_rating_count":null,"barangay_slug":"gawana","barangay_name":"Gawana"},"geometry":{"type":"Point","coordinates":[121.1007767,17.0394304]}},{"type":"Feature","properties":{"name":"Kaleo Elementary School","kind":"school","kind_label":"School","source":"google_places","google_place_id":"ChIJUwqViUnbjzMReGtOFXeKG2M","google_primary_type":"primary_school","google_primary_type_label":"Elementary School","google_types":["primary_school","school","educational_institution","point_of_interest","establishment"],"google_maps_uri":"https://maps.google.com/?cid=7141453878189255544&g_mp=Cilnb29nbGUubWFwcy5wbGFjZXMudjEuUGxhY2VzLlNlYXJjaE5lYXJieRACGAQgAA","google_icon_mask_base_uri":"https://maps.gstatic.com/mapfiles/place_api/icons/v2/school_pinlet","google_icon_background_color":"#7B9EB0","formatted_address":"Kaleo, 352W+FMR, Barlig, Mountain Province, Philippines","business_status":"OPERATIONAL","rating":null,"user_rating_count":null,"barangay_slug":"kaleo","barangay_name":"Kaleo"},"geometry":{"type":"Point","coordinates":[121.19663550000001,17.0512467]}},{"type":"Feature","properties":{"name":"Latang Elementary School","kind":"school","kind_label":"School","source":"google_places","google_place_id":"ChIJUZfYQZbbjzMR0TReQ5kqxsQ","google_primary_type":"school","google_primary_type_label":"School","google_types":["school","educational_institution","point_of_interest","establishment"],"google_maps_uri":"https://maps.google.com/?cid=14179067314571195601&g_mp=Cilnb29nbGUubWFwcy5wbGFjZXMudjEuUGxhY2VzLlNlYXJjaE5lYXJieRACGAQgAA","google_icon_mask_base_uri":"https://maps.gstatic.com/mapfiles/place_api/icons/v2/school_pinlet","google_icon_background_color":"#7B9EB0","formatted_address":"23QW+55, Barlig, Mountain Province, Philippines","business_status":"OPERATIONAL","rating":null,"user_rating_count":null,"barangay_slug":"latang","barangay_name":"Latang"},"geometry":{"type":"Point","coordinates":[121.09541039999998,17.0379798]}},{"type":"Feature","properties":{"name":"Posong, Latang Mini Gym (Legacy Of Lamberto L. Llopis)","kind":"tourism","kind_label":"Tourism","source":"google_places","google_place_id":"ChIJifWmQVPbjzMRhpeMu-JEDa4","google_primary_type":"gym","google_primary_type_label":"Gym","google_types":["gym","sports_activity_location","health","point_of_interest","establishment"],"google_maps_uri":"https://maps.google.com/?cid=12541756277896550278&g_mp=Cilnb29nbGUubWFwcy5wbGFjZXMudjEuUGxhY2VzLlNlYXJjaE5lYXJieRACGAQgAA","google_icon_mask_base_uri":"https://maps.gstatic.com/mapfiles/place_api/icons/v2/generic_pinlet","google_icon_background_color":"#7B9EB0","formatted_address":"23QW+5X, Barlig, Mountain Province, Philippines","business_status":"OPERATIONAL","rating":5,"user_rating_count":1,"barangay_slug":"latang","barangay_name":"Latang"},"geometry":{"type":"Point","coordinates":[121.09740300000001,17.037909]}},{"type":"Feature","properties":{"name":"Barlig Rainforest Coffee Farm","kind":"business","kind_label":"Business","source":"google_places","google_place_id":"ChIJdZguEKHbjzMRHsF15U266sU","google_primary_type":"farm","google_primary_type_label":"Farm","google_types":["farm","service","point_of_interest","establishment"],"google_maps_uri":"https://maps.google.com/?cid=14261416013747044638&g_mp=Cidnb29nbGUubWFwcy5wbGFjZXMudjEuUGxhY2VzLlNlYXJjaFRleHQQAhgEIAA","google_icon_mask_base_uri":"https://maps.gstatic.com/mapfiles/place_api/icons/v2/generic_pinlet","google_icon_background_color":"#7B9EB0","formatted_address":"Bontoc-Barlig-Natonin, National Highway, Lias Kanluran, Barlig, 2623 Mountain Province, Philippines","business_status":"OPERATIONAL","rating":4.7,"user_rating_count":3,"barangay_slug":"lias-kanluran","barangay_name":"Lias Kanluran"},"geometry":{"type":"Point","coordinates":[121.1369453,17.070393]}},{"type":"Feature","properties":{"name":"Barangay Hall - Lias Kanluran","kind":"govt","kind_label":"Government","source":"google_places","google_place_id":"ChIJr8gfSQDbjzMRO8DdxHQ42wE","google_primary_type":"government_office","google_primary_type_label":"Government Office","google_types":["government_office","point_of_interest","establishment"],"google_maps_uri":"https://maps.google.com/?cid=133762688107790395&g_mp=Cilnb29nbGUubWFwcy5wbGFjZXMudjEuUGxhY2VzLlNlYXJjaE5lYXJieRACGAQgAA","google_icon_mask_base_uri":"https://maps.gstatic.com/mapfiles/place_api/icons/v2/civic-bldg_pinlet","google_icon_background_color":"#7B9EB0","formatted_address":"34MV+G97, Barlig, Mountain Province, Philippines","business_status":"OPERATIONAL","rating":null,"user_rating_count":null,"barangay_slug":"lias-kanluran","barangay_name":"Lias Kanluran"},"geometry":{"type":"Point","coordinates":[121.14343029999999,17.0837978]}},{"type":"Feature","properties":{"name":"Lias National High School","kind":"school","kind_label":"School","source":"google_places","google_place_id":"ChIJge3eujbbjzMRAQb3i0VirCY","google_primary_type":"secondary_school","google_primary_type_label":"High school","google_types":["secondary_school","school","educational_institution","point_of_interest","establishment"],"google_maps_uri":"https://maps.google.com/?cid=2786710320275981825&g_mp=Cilnb29nbGUubWFwcy5wbGFjZXMudjEuUGxhY2VzLlNlYXJjaE5lYXJieRACGAQgAA","google_icon_mask_base_uri":"https://maps.gstatic.com/mapfiles/place_api/icons/v2/school_pinlet","google_icon_background_color":"#7B9EB0","formatted_address":"34MV+H84, Barlig, Mountain Province, Philippines","business_status":"OPERATIONAL","rating":null,"user_rating_count":null,"barangay_slug":"lias-kanluran","barangay_name":"Lias Kanluran"},"geometry":{"type":"Point","coordinates":[121.1433293,17.0838935]}},{"type":"Feature","properties":{"name":"Ambelino's view poit","kind":"tourism","kind_label":"Tourism","source":"google_places","google_place_id":"ChIJ7Ze0PADFjzMRaPfwURDpopo","google_primary_type":"hiking_area","google_primary_type_label":"Hiking Area","google_types":["hiking_area","sports_activity_location","point_of_interest","establishment"],"google_maps_uri":"https://maps.google.com/?cid=11142724684371523432&g_mp=Cilnb29nbGUubWFwcy5wbGFjZXMudjEuUGxhY2VzLlNlYXJjaE5lYXJieRACGAQgAA","google_icon_mask_base_uri":"https://maps.gstatic.com/mapfiles/place_api/icons/v2/hiking_pinlet","google_icon_background_color":"#4DB546","formatted_address":"448P+4F6 Lias Kanluran, Barlig, Mountain Province, Philippines","business_status":"OPERATIONAL","rating":null,"user_rating_count":null,"barangay_slug":"lias-kanluran","barangay_name":"Lias Kanluran"},"geometry":{"type":"Point","coordinates":[121.13614,17.1152944]}},{"type":"Feature","properties":{"name":"Karanag Falls","kind":"tourism","kind_label":"Tourism","source":"google_places","google_place_id":"ChIJIfKkLgDbjzMRnhe37SLJu0I","google_primary_type":"tourist_attraction","google_primary_type_label":"Tourist Attraction","google_types":["tourist_attraction","point_of_interest","establishment"],"google_maps_uri":"https://maps.google.com/?cid=4808658179002406814&g_mp=Cilnb29nbGUubWFwcy5wbGFjZXMudjEuUGxhY2VzLlNlYXJjaE5lYXJieRACGAQgAA","google_icon_mask_base_uri":"https://maps.gstatic.com/mapfiles/place_api/icons/v2/generic_pinlet","google_icon_background_color":"#13B5C7","formatted_address":"34JR+V4W Lias Kanluran, Barlig, Mountain Province, Philippines","business_status":"OPERATIONAL","rating":5,"user_rating_count":2,"barangay_slug":"lias-kanluran","barangay_name":"Lias Kanluran"},"geometry":{"type":"Point","coordinates":[121.1403327,17.0822482]}},{"type":"Feature","properties":{"name":"Kasapli","kind":"tourism","kind_label":"Tourism","source":"google_places","google_place_id":"ChIJMfB7BADFjzMRBCjCl9bmHjc","google_primary_type":"hiking_area","google_primary_type_label":"Hiking Area","google_types":["hiking_area","sports_activity_location","point_of_interest","establishment"],"google_maps_uri":"https://maps.google.com/?cid=3971865730730829828&g_mp=Cilnb29nbGUubWFwcy5wbGFjZXMudjEuUGxhY2VzLlNlYXJjaE5lYXJieRACGAQgAA","google_icon_mask_base_uri":"https://maps.gstatic.com/mapfiles/place_api/icons/v2/hiking_pinlet","google_icon_background_color":"#4DB546","formatted_address":"34RR+78X Lias Kanluran, Barlig, Mountain Province, Philippines","business_status":"OPERATIONAL","rating":null,"user_rating_count":null,"barangay_slug":"lias-kanluran","barangay_name":"Lias Kanluran"},"geometry":{"type":"Point","coordinates":[121.14087149999999,17.090742799999997]}},{"type":"Feature","properties":{"name":"Lias brook","kind":"tourism","kind_label":"Tourism","source":"google_places","google_place_id":"ChIJ__49UgDbjzMRUqBB_s8ruZ0","google_primary_type":"hiking_area","google_primary_type_label":"Hiking Area","google_types":["hiking_area","sports_activity_location","point_of_interest","establishment"],"google_maps_uri":"https://maps.google.com/?cid=11365163306970095698&g_mp=Cilnb29nbGUubWFwcy5wbGFjZXMudjEuUGxhY2VzLlNlYXJjaE5lYXJieRACGAQgAA","google_icon_mask_base_uri":"https://maps.gstatic.com/mapfiles/place_api/icons/v2/hiking_pinlet","google_icon_background_color":"#4DB546","formatted_address":"34PV+CJ2 Lias Kanluran, Barlig, Mountain Province, Philippines","business_status":"OPERATIONAL","rating":null,"user_rating_count":null,"barangay_slug":"lias-kanluran","barangay_name":"Lias Kanluran"},"geometry":{"type":"Point","coordinates":[121.1440281,17.086002399999998]}},{"type":"Feature","properties":{"name":"Maligcong","kind":"tourism","kind_label":"Tourism","source":"google_places","google_place_id":"ChIJsYBGeQDbjzMRShche_y3GfQ","google_primary_type":"hiking_area","google_primary_type_label":"Hiking Area","google_types":["hiking_area","sports_activity_location","point_of_interest","establishment"],"google_maps_uri":"https://maps.google.com/?cid=17589292114697590602&g_mp=Cilnb29nbGUubWFwcy5wbGFjZXMudjEuUGxhY2VzLlNlYXJjaE5lYXJieRACGAQgAA","google_icon_mask_base_uri":"https://maps.gstatic.com/mapfiles/place_api/icons/v2/hiking_pinlet","google_icon_background_color":"#4DB546","formatted_address":"34QV+PRV Lias Kanluran, Barlig, Mountain Province, Philippines","business_status":"OPERATIONAL","rating":null,"user_rating_count":null,"barangay_slug":"lias-kanluran","barangay_name":"Lias Kanluran"},"geometry":{"type":"Point","coordinates":[121.14454439999999,17.0893654]}},{"type":"Feature","properties":{"name":"Centro Carayan Jordan","kind":"worship","kind_label":"Worship","source":"google_places","google_place_id":"ChIJ4dsDMQDbjzMRxGsA2ZuErU8","google_primary_type":"church","google_primary_type_label":"Church","google_types":["church","place_of_worship","association_or_organization","point_of_interest","establishment"],"google_maps_uri":"https://maps.google.com/?cid=5741390904862731204&g_mp=Cilnb29nbGUubWFwcy5wbGFjZXMudjEuUGxhY2VzLlNlYXJjaE5lYXJieRACGAQgAA","google_icon_mask_base_uri":"https://maps.gstatic.com/mapfiles/place_api/icons/v2/worship_christian_pinlet","google_icon_background_color":"#7B9EB0","formatted_address":"34MV+G5Q, Barlig, Mountain Province, Philippines","business_status":"OPERATIONAL","rating":null,"user_rating_count":null,"barangay_slug":"lias-kanluran","barangay_name":"Lias Kanluran"},"geometry":{"type":"Point","coordinates":[121.1429837,17.083839299999998]}},{"type":"Feature","properties":{"name":"Kay-a Chin Bocalan","kind":"business","kind_label":"Business","source":"google_places","google_place_id":"ChIJxSYAFwDbjzMR_08CAcjGBZI","google_primary_type":"restaurant","google_primary_type_label":"Restaurant","google_types":["restaurant","food","point_of_interest","establishment"],"google_maps_uri":"https://maps.google.com/?cid=10522034666733719551&g_mp=Cilnb29nbGUubWFwcy5wbGFjZXMudjEuUGxhY2VzLlNlYXJjaE5lYXJieRACGAQgAA","google_icon_mask_base_uri":"https://maps.gstatic.com/mapfiles/place_api/icons/v2/restaurant_pinlet","google_icon_background_color":"#FF9E67","formatted_address":"35H2+8V4, Barlig, Mountain Province, Philippines","business_status":"OPERATIONAL","rating":null,"user_rating_count":null,"barangay_slug":"lias-silangan","barangay_name":"Lias Silangan"},"geometry":{"type":"Point","coordinates":[121.152202,17.078264000000004]}},{"type":"Feature","properties":{"name":"MAMULCO","kind":"business","kind_label":"Business","source":"google_places","google_place_id":"ChIJS0sPRrnbjzMR_DGcf--AC0o","google_primary_type":"store","google_primary_type_label":"Store","google_types":["store","point_of_interest","establishment"],"google_maps_uri":"https://maps.google.com/?cid=5335499949676966396&g_mp=Cilnb29nbGUubWFwcy5wbGFjZXMudjEuUGxhY2VzLlNlYXJjaE5lYXJieRACGAQgAA","google_icon_mask_base_uri":"https://maps.gstatic.com/mapfiles/place_api/icons/v2/shopping_pinlet","google_icon_background_color":"#4B96F3","formatted_address":"34MV+FMM, Lias Silangan, Barlig, Mountain Province, Philippines","business_status":"OPERATIONAL","rating":null,"user_rating_count":null,"barangay_slug":"lias-silangan","barangay_name":"Lias Silangan"},"geometry":{"type":"Point","coordinates":[121.144176,17.0837087]}},{"type":"Feature","properties":{"name":"Barangay Hall - Lias Silangan","kind":"govt","kind_label":"Government","source":"google_places","google_place_id":"ChIJmzQOlzbbjzMRGalH8rbRHiQ","google_primary_type":"government_office","google_primary_type_label":"Government Office","google_types":["government_office","local_government_office","point_of_interest","establishment"],"google_maps_uri":"https://maps.google.com/?cid=2602748218345761049&g_mp=Cilnb29nbGUubWFwcy5wbGFjZXMudjEuUGxhY2VzLlNlYXJjaE5lYXJieRACGAQgAA","google_icon_mask_base_uri":"https://maps.gstatic.com/mapfiles/place_api/icons/v2/civic-bldg_pinlet","google_icon_background_color":"#7B9EB0","formatted_address":"34MV+HJ7, Barlig, Mountain Province, Philippines","business_status":"OPERATIONAL","rating":5,"user_rating_count":6,"barangay_slug":"lias-silangan","barangay_name":"Lias Silangan"},"geometry":{"type":"Point","coordinates":[121.14404689999999,17.0839029]}},{"type":"Feature","properties":{"name":"Chogsayan store","kind":"market","kind_label":"Market","source":"google_places","google_place_id":"ChIJAUsWzc7bjzMRxGZDNnLralU","google_primary_type":"grocery_store","google_primary_type_label":"Grocery Store","google_types":["grocery_store","food_store","store","point_of_interest","food","establishment"],"google_maps_uri":"https://maps.google.com/?cid=6154990716524390084&g_mp=Cilnb29nbGUubWFwcy5wbGFjZXMudjEuUGxhY2VzLlNlYXJjaE5lYXJieRACGAQgAA","google_icon_mask_base_uri":"https://maps.gstatic.com/mapfiles/place_api/icons/v2/shoppingcart_pinlet","google_icon_background_color":"#4B96F3","formatted_address":"34GX+443, Talubin - Barlig - Paracelis Rd, Barlig, Mountain Province, Philippines","business_status":"OPERATIONAL","rating":5,"user_rating_count":1,"barangay_slug":"lias-silangan","barangay_name":"Lias Silangan"},"geometry":{"type":"Point","coordinates":[121.14778779999997,17.0752716]}},{"type":"Feature","properties":{"name":"Latang Primary School","kind":"school","kind_label":"School","source":"google_places","google_place_id":"ChIJUwqViUnbjzMRluk5YaW84Jw","google_primary_type":"primary_school","google_primary_type_label":"Elementary School","google_types":["primary_school","school","educational_institution","point_of_interest","establishment"],"google_maps_uri":"https://maps.google.com/?cid=11304242483186755990&g_mp=Cilnb29nbGUubWFwcy5wbGFjZXMudjEuUGxhY2VzLlNlYXJjaE5lYXJieRACGAQgAA","google_icon_mask_base_uri":"https://maps.gstatic.com/mapfiles/place_api/icons/v2/school_pinlet","google_icon_background_color":"#7B9EB0","formatted_address":"Latang, 35M2+82J, Barlig, Mountain Province, Philippines","business_status":"OPERATIONAL","rating":null,"user_rating_count":null,"barangay_slug":"lias-silangan","barangay_name":"Lias Silangan"},"geometry":{"type":"Point","coordinates":[121.15000149999999,17.083334]}},{"type":"Feature","properties":{"name":"Lias Elementary School","kind":"school","kind_label":"School","source":"google_places","google_place_id":"ChIJI3NmmDbbjzMRWYthB-i4aIE","google_primary_type":"primary_school","google_primary_type_label":"Elementary School","google_types":["primary_school","school","educational_institution","point_of_interest","establishment"],"google_maps_uri":"https://maps.google.com/?cid=9324906335166368601&g_mp=Cilnb29nbGUubWFwcy5wbGFjZXMudjEuUGxhY2VzLlNlYXJjaE5lYXJieRACGAQgAA","google_icon_mask_base_uri":"https://maps.gstatic.com/mapfiles/place_api/icons/v2/school_pinlet","google_icon_background_color":"#7B9EB0","formatted_address":"34MV+HH7, Barlig, Mountain Province, Philippines","business_status":"OPERATIONAL","rating":null,"user_rating_count":null,"barangay_slug":"lias-silangan","barangay_name":"Lias Silangan"},"geometry":{"type":"Point","coordinates":[121.14391219999999,17.0839127]}},{"type":"Feature","properties":{"name":"Agkangan","kind":"tourism","kind_label":"Tourism","source":"google_places","google_place_id":"ChIJu9WJEQDbjzMRYWle-zo0OR8","google_primary_type":"tourist_attraction","google_primary_type_label":"Tourist Attraction","google_types":["tourist_attraction","point_of_interest","establishment"],"google_maps_uri":"https://maps.google.com/?cid=2249886916778289505&g_mp=Cilnb29nbGUubWFwcy5wbGFjZXMudjEuUGxhY2VzLlNlYXJjaE5lYXJieRACGAQgAA","google_icon_mask_base_uri":"https://maps.gstatic.com/mapfiles/place_api/icons/v2/generic_pinlet","google_icon_background_color":"#13B5C7","formatted_address":"34PW+52H, Barlig, Mountain Province, Philippines","business_status":"OPERATIONAL","rating":null,"user_rating_count":null,"barangay_slug":"lias-silangan","barangay_name":"Lias Silangan"},"geometry":{"type":"Point","coordinates":[121.1450983,17.0854335]}},{"type":"Feature","properties":{"name":"Agoggo Brook","kind":"tourism","kind_label":"Tourism","source":"google_places","google_place_id":"ChIJfRMOTwDbjzMRTnwxvhQdGgk","google_primary_type":"hiking_area","google_primary_type_label":"Hiking Area","google_types":["hiking_area","sports_activity_location","point_of_interest","establishment"],"google_maps_uri":"https://maps.google.com/?cid=655868670663294030&g_mp=Cilnb29nbGUubWFwcy5wbGFjZXMudjEuUGxhY2VzLlNlYXJjaE5lYXJieRACGAQgAA","google_icon_mask_base_uri":"https://maps.gstatic.com/mapfiles/place_api/icons/v2/hiking_pinlet","google_icon_background_color":"#4DB546","formatted_address":"35F6+8GV, Lias Silangan, Barlig, Mountain Province, Philippines","business_status":"OPERATIONAL","rating":null,"user_rating_count":null,"barangay_slug":"lias-silangan","barangay_name":"Lias Silangan"},"geometry":{"type":"Point","coordinates":[121.16129819999999,17.073359699999997]}},{"type":"Feature","properties":{"name":"Chelat Arangyaw","kind":"tourism","kind_label":"Tourism","source":"google_places","google_place_id":"ChIJp7jyYADbjzMR7vTZSUUaUOw","google_primary_type":"tourist_attraction","google_primary_type_label":"Tourist Attraction","google_types":["tourist_attraction","point_of_interest","establishment"],"google_maps_uri":"https://maps.google.com/?cid=17028139075981931758&g_mp=Cilnb29nbGUubWFwcy5wbGFjZXMudjEuUGxhY2VzLlNlYXJjaE5lYXJieRACGAQgAA","google_icon_mask_base_uri":"https://maps.gstatic.com/mapfiles/place_api/icons/v2/generic_pinlet","google_icon_background_color":"#13B5C7","formatted_address":"34GR+J2P, Barlig, Mountain Province, Philippines","business_status":"OPERATIONAL","rating":null,"user_rating_count":null,"barangay_slug":"lias-silangan","barangay_name":"Lias Silangan"},"geometry":{"type":"Point","coordinates":[121.1400661,17.076592599999998]}},{"type":"Feature","properties":{"name":"Fatak Waiting Shed","kind":"tourism","kind_label":"Tourism","source":"google_places","google_place_id":"ChIJxVzeOQDbjzMRo-m2Kgjeg3o","google_primary_type":"park","google_primary_type_label":"Park","google_types":["park","point_of_interest","establishment"],"google_maps_uri":"https://maps.google.com/?cid=8828143821234039203&g_mp=Cilnb29nbGUubWFwcy5wbGFjZXMudjEuUGxhY2VzLlNlYXJjaE5lYXJieRACGAQgAA","google_icon_mask_base_uri":"https://maps.gstatic.com/mapfiles/place_api/icons/v2/tree_pinlet","google_icon_background_color":"#4DB546","formatted_address":"34CQ+RPJ, Talubin - Barlig - Paracelis Rd, Barlig, Mountain Province, Philippines","business_status":"OPERATIONAL","rating":null,"user_rating_count":null,"barangay_slug":"lias-silangan","barangay_name":"Lias Silangan"},"geometry":{"type":"Point","coordinates":[121.1392755,17.0720812]}},{"type":"Feature","properties":{"name":"Kangao Hiking Area","kind":"tourism","kind_label":"Tourism","source":"google_places","google_place_id":"ChIJIVaLbADDjzMRx1mfxjTqmtc","google_primary_type":"hiking_area","google_primary_type_label":"Hiking Area","google_types":["hiking_area","sports_activity_location","point_of_interest","establishment"],"google_maps_uri":"https://maps.google.com/?cid=15535987376959478215&g_mp=Cilnb29nbGUubWFwcy5wbGFjZXMudjEuUGxhY2VzLlNlYXJjaE5lYXJieRACGAQgAA","google_icon_mask_base_uri":"https://maps.gstatic.com/mapfiles/place_api/icons/v2/hiking_pinlet","google_icon_background_color":"#4DB546","formatted_address":"35XF+G26, Barlig, Mountain Province, Philippines","business_status":"OPERATIONAL","rating":null,"user_rating_count":null,"barangay_slug":"lias-silangan","barangay_name":"Lias Silangan"},"geometry":{"type":"Point","coordinates":[121.1725192,17.0987926]}},{"type":"Feature","properties":{"name":"Kudchu Hill","kind":"tourism","kind_label":"Tourism","source":"google_places","google_place_id":"ChIJZ_RPPgDbjzMR4EZeKTWM1Ko","google_primary_type":"tourist_attraction","google_primary_type_label":"Tourist Attraction","google_types":["tourist_attraction","point_of_interest","establishment"],"google_maps_uri":"https://maps.google.com/?cid=12309617841465607904&g_mp=Cilnb29nbGUubWFwcy5wbGFjZXMudjEuUGxhY2VzLlNlYXJjaE5lYXJieRACGAQgAA","google_icon_mask_base_uri":"https://maps.gstatic.com/mapfiles/place_api/icons/v2/generic_pinlet","google_icon_background_color":"#13B5C7","formatted_address":"34MW+PJ3, Lias Silangan, Barlig, Mountain Province, Philippines","business_status":"OPERATIONAL","rating":null,"user_rating_count":null,"barangay_slug":"lias-silangan","barangay_name":"Lias Silangan"},"geometry":{"type":"Point","coordinates":[121.1465473,17.0842647]}},{"type":"Feature","properties":{"name":"Lias Barangay Road","kind":"tourism","kind_label":"Tourism","source":"google_places","google_place_id":"ChIJv7gHQADbjzMRGurCZJflG_E","google_primary_type":"hiking_area","google_primary_type_label":"Hiking Area","google_types":["hiking_area","sports_activity_location","point_of_interest","establishment"],"google_maps_uri":"https://maps.google.com/?cid=17373732425905138202&g_mp=Cilnb29nbGUubWFwcy5wbGFjZXMudjEuUGxhY2VzLlNlYXJjaE5lYXJieRACGAQgAA","google_icon_mask_base_uri":"https://maps.gstatic.com/mapfiles/place_api/icons/v2/hiking_pinlet","google_icon_background_color":"#4DB546","formatted_address":"34HW+HRQ, Lias Silangan, Barlig, Mountain Province, Philippines","business_status":"OPERATIONAL","rating":null,"user_rating_count":null,"barangay_slug":"lias-silangan","barangay_name":"Lias Silangan"},"geometry":{"type":"Point","coordinates":[121.1471217,17.078951099999998]}},{"type":"Feature","properties":{"name":"LIAS SILANGAN","kind":"tourism","kind_label":"Tourism","source":"google_places","google_place_id":"ChIJjdaoRADDjzMRu-7iRnY7-fo","google_primary_type":"hiking_area","google_primary_type_label":"Hiking Area","google_types":["hiking_area","sports_activity_location","point_of_interest","establishment"],"google_maps_uri":"https://maps.google.com/?cid=18084551157864394427&g_mp=Cilnb29nbGUubWFwcy5wbGFjZXMudjEuUGxhY2VzLlNlYXJjaE5lYXJieRACGAQgAA","google_icon_mask_base_uri":"https://maps.gstatic.com/mapfiles/place_api/icons/v2/hiking_pinlet","google_icon_background_color":"#4DB546","formatted_address":"35VM+8MH, Lias Silangan, Barlig, Mountain Province, Philippines","business_status":"OPERATIONAL","rating":5,"user_rating_count":1,"barangay_slug":"lias-silangan","barangay_name":"Lias Silangan"},"geometry":{"type":"Point","coordinates":[121.18422939999999,17.0933117]}},{"type":"Feature","properties":{"name":"Mali Waiting Shade","kind":"tourism","kind_label":"Tourism","source":"google_places","google_place_id":"ChIJTWLkBgDbjzMRdpX-Dbo8e-4","google_primary_type":"park","google_primary_type_label":"Park","google_types":["park","point_of_interest","establishment"],"google_maps_uri":"https://maps.google.com/?cid=17184395572958631286&g_mp=Cilnb29nbGUubWFwcy5wbGFjZXMudjEuUGxhY2VzLlNlYXJjaE5lYXJieRACGAQgAA","google_icon_mask_base_uri":"https://maps.gstatic.com/mapfiles/place_api/icons/v2/tree_pinlet","google_icon_background_color":"#4DB546","formatted_address":"34GV+29R, Talubin - Barlig - Paracelis Rd, Lias Silangan, Barlig, Mountain Province, Philippines","business_status":"OPERATIONAL","rating":null,"user_rating_count":null,"barangay_slug":"lias-silangan","barangay_name":"Lias Silangan"},"geometry":{"type":"Point","coordinates":[121.14339269999998,17.0751122]}},{"type":"Feature","properties":{"name":"roman catholic church","kind":"worship","kind_label":"Worship","source":"google_places","google_place_id":"ChIJ3f7xkzbbjzMRyxyVAfta-wo","google_primary_type":"church","google_primary_type_label":"Church","google_types":["church","place_of_worship","association_or_organization","point_of_interest","establishment"],"google_maps_uri":"https://maps.google.com/?cid=791326193643494603&g_mp=Cilnb29nbGUubWFwcy5wbGFjZXMudjEuUGxhY2VzLlNlYXJjaE5lYXJieRACGAQgAA","google_icon_mask_base_uri":"https://maps.gstatic.com/mapfiles/place_api/icons/v2/worship_christian_pinlet","google_icon_background_color":"#7B9EB0","formatted_address":"34MV+GJ6, Barlig, Mountain Province, Philippines","business_status":"OPERATIONAL","rating":5,"user_rating_count":2,"barangay_slug":"lias-silangan","barangay_name":"Lias Silangan"},"geometry":{"type":"Point","coordinates":[121.1440279,17.0837946]}},{"type":"Feature","properties":{"name":"The Galley (Barlig)","kind":"business","kind_label":"Business","source":"google_places","google_place_id":"ChIJhdiiOrfbjzMRFbStByQG7MM","google_primary_type":"cafe","google_primary_type_label":"Cafe","google_types":["cafe","food","point_of_interest","establishment"],"google_maps_uri":"https://maps.google.com/?cid=14117665683717075989&g_mp=Cilnb29nbGUubWFwcy5wbGFjZXMudjEuUGxhY2VzLlNlYXJjaE5lYXJieRACGAQgAA","google_icon_mask_base_uri":"https://maps.gstatic.com/mapfiles/place_api/icons/v2/cafe_pinlet","google_icon_background_color":"#FF9E67","formatted_address":"Lingoy, Chatol, Barlig, 2623 Mountain Province, Philippines","business_status":"OPERATIONAL","rating":5,"user_rating_count":8,"barangay_slug":"lingoy-upper","barangay_name":"Lingoy (Upper)"},"geometry":{"type":"Point","coordinates":[121.0826166,17.0557878]}},{"type":"Feature","properties":{"name":"Lingoy Barangay Hall","kind":"govt","kind_label":"Government","source":"google_places","google_place_id":"ChIJTxqfVADbjzMRsk6JdhTN-tg","google_primary_type":"government_office","google_primary_type_label":"Government Office","google_types":["government_office","point_of_interest","establishment"],"google_maps_uri":"https://maps.google.com/?cid=15635034544141848242&g_mp=Cilnb29nbGUubWFwcy5wbGFjZXMudjEuUGxhY2VzLlNlYXJjaE5lYXJieRACGAQgAA","google_icon_mask_base_uri":"https://maps.gstatic.com/mapfiles/place_api/icons/v2/civic-bldg_pinlet","google_icon_background_color":"#7B9EB0","formatted_address":"335M+5VF, Barlig, Mountain Province, Philippines","business_status":"OPERATIONAL","rating":null,"user_rating_count":null,"barangay_slug":"lingoy-upper","barangay_name":"Lingoy (Upper)"},"geometry":{"type":"Point","coordinates":[121.08468089999998,17.0579428]}},{"type":"Feature","properties":{"name":"Masadao","kind":"market","kind_label":"Market","source":"google_places","google_place_id":"ChIJI82UDADbjzMR4c7AxU-JdBs","google_primary_type":"general_store","google_primary_type_label":"General Store","google_types":["general_store","food_store","store","point_of_interest","food","establishment"],"google_maps_uri":"https://maps.google.com/?cid=1978357112035659489&g_mp=Cilnb29nbGUubWFwcy5wbGFjZXMudjEuUGxhY2VzLlNlYXJjaE5lYXJieRACGAQgAA","google_icon_mask_base_uri":"https://maps.gstatic.com/mapfiles/place_api/icons/v2/shopping_pinlet","google_icon_background_color":"#4B96F3","formatted_address":"334M+85, Barlig, Mountain Province, Philippines","business_status":"OPERATIONAL","rating":null,"user_rating_count":null,"barangay_slug":"lingoy-upper","barangay_name":"Lingoy (Upper)"},"geometry":{"type":"Point","coordinates":[121.08289080000002,17.0557618]}},{"type":"Feature","properties":{"name":"Acay-ay Falls","kind":"tourism","kind_label":"Tourism","source":"google_places","google_place_id":"ChIJKwhXFQDFjzMRj2LovV2RS30","google_primary_type":"tourist_attraction","google_primary_type_label":"Tourist Attraction","google_types":["tourist_attraction","point_of_interest","establishment"],"google_maps_uri":"https://maps.google.com/?cid=9028469709798400655&g_mp=Cilnb29nbGUubWFwcy5wbGFjZXMudjEuUGxhY2VzLlNlYXJjaE5lYXJieRACGAQgAA","google_icon_mask_base_uri":"https://maps.gstatic.com/mapfiles/place_api/icons/v2/generic_pinlet","google_icon_background_color":"#13B5C7","formatted_address":"Sadanga, Mountain Province, Philippines","business_status":"OPERATIONAL","rating":null,"user_rating_count":null,"barangay_slug":"lingoy-upper","barangay_name":"Lingoy (Upper)"},"geometry":{"type":"Point","coordinates":[121.11542700000001,17.137846]}},{"type":"Feature","properties":{"name":"Ho-Ho Park","kind":"tourism","kind_label":"Tourism","source":"google_places","google_place_id":"ChIJaxHXGADFjzMRCzUJa93rm14","google_primary_type":"park","google_primary_type_label":"Park","google_types":["park","point_of_interest","establishment"],"google_maps_uri":"https://maps.google.com/?cid=6817301797171442955&g_mp=Cilnb29nbGUubWFwcy5wbGFjZXMudjEuUGxhY2VzLlNlYXJjaE5lYXJieRACGAQgAA","google_icon_mask_base_uri":"https://maps.gstatic.com/mapfiles/place_api/icons/v2/tree_pinlet","google_icon_background_color":"#4DB546","formatted_address":"54F4+H86, Barlig, Mountain Province, Philippines","business_status":"OPERATIONAL","rating":2,"user_rating_count":1,"barangay_slug":"lingoy-upper","barangay_name":"Lingoy (Upper)"},"geometry":{"type":"Point","coordinates":[121.10576,17.173906199999998]}},{"type":"Feature","properties":{"name":"Lake Tufub","kind":"tourism","kind_label":"Tourism","source":"google_places","google_place_id":"ChIJjw5rkE3RjzMRxKVt9oMbwtE","google_primary_type":"park","google_primary_type_label":"Park","google_types":["park","point_of_interest","establishment"],"google_maps_uri":"https://maps.google.com/?cid=15114673552997852612&g_mp=Cilnb29nbGUubWFwcy5wbGFjZXMudjEuUGxhY2VzLlNlYXJjaE5lYXJieRACGAQgAA","google_icon_mask_base_uri":"https://maps.gstatic.com/mapfiles/place_api/icons/v2/tree_pinlet","google_icon_background_color":"#4DB546","formatted_address":"334G+RVM, Barlig, Mountain Province, Philippines","business_status":"OPERATIONAL","rating":4.7,"user_rating_count":25,"barangay_slug":"lingoy-upper","barangay_name":"Lingoy (Upper)"},"geometry":{"type":"Point","coordinates":[121.0771671,17.0570868]}},{"type":"Feature","properties":{"name":"Langfia Llopis Farm- Pennantiw","kind":"tourism","kind_label":"Tourism","source":"google_places","google_place_id":"ChIJL6AW-XDbjzMR7g5LREs34hY","google_primary_type":"lodging","google_primary_type_label":"Lodging","google_types":["lodging","point_of_interest","establishment"],"google_maps_uri":"https://maps.google.com/?cid=1648941209978867438&g_mp=Cilnb29nbGUubWFwcy5wbGFjZXMudjEuUGxhY2VzLlNlYXJjaE5lYXJieRACGAQgAA","google_icon_mask_base_uri":"https://maps.gstatic.com/mapfiles/place_api/icons/v2/hotel_pinlet","google_icon_background_color":"#909CE1","formatted_address":"336C+JGQ, Barlig, Mountain Province, Philippines","business_status":"OPERATIONAL","rating":4.8,"user_rating_count":4,"barangay_slug":"lingoy-upper","barangay_name":"Lingoy (Upper)"},"geometry":{"type":"Point","coordinates":[121.07136799999999,17.0615925]}},{"type":"Feature","properties":{"name":"NK Fuel station","kind":"transport","kind_label":"Transport","source":"google_places","google_place_id":"ChIJJ5DnGADRjzMRH6I3S7EdhbQ","google_primary_type":"gas_station","google_primary_type_label":"Gas Station","google_types":["gas_station","service","point_of_interest","establishment"],"google_maps_uri":"https://maps.google.com/?cid=13007835746037899807&g_mp=Cilnb29nbGUubWFwcy5wbGFjZXMudjEuUGxhY2VzLlNlYXJjaE5lYXJieRACGAQgAA","google_icon_mask_base_uri":"https://maps.gstatic.com/mapfiles/place_api/icons/v2/gas_pinlet","google_icon_background_color":"#909CE1","formatted_address":"336C+3FP, Talubin - Barlig - Paracelis Rd, Barlig, Mountain Province, Philippines","business_status":"OPERATIONAL","rating":null,"user_rating_count":null,"barangay_slug":"lingoy-upper","barangay_name":"Lingoy (Upper)"},"geometry":{"type":"Point","coordinates":[121.0711903,17.0602219]}},{"type":"Feature","properties":{"name":"Church","kind":"worship","kind_label":"Worship","source":"google_places","google_place_id":"ChIJcUvd3X3ajzMRW5-YXw5fB4w","google_primary_type":"church","google_primary_type_label":"Church","google_types":["church","place_of_worship","association_or_organization","point_of_interest","establishment"],"google_maps_uri":"https://maps.google.com/?cid=10090138005484904283&g_mp=Cilnb29nbGUubWFwcy5wbGFjZXMudjEuUGxhY2VzLlNlYXJjaE5lYXJieRACGAQgAA","google_icon_mask_base_uri":"https://maps.gstatic.com/mapfiles/place_api/icons/v2/worship_christian_pinlet","google_icon_background_color":"#7B9EB0","formatted_address":"334P+F66, Talubin - Barlig - Paracelis Rd, Barlig, Mountain Province, Philippines","business_status":"OPERATIONAL","rating":5,"user_rating_count":1,"barangay_slug":"lingoy-upper","barangay_name":"Lingoy (Upper)"},"geometry":{"type":"Point","coordinates":[121.0855043,17.0561589]}},{"type":"Feature","properties":{"name":"angharafuy","kind":"market","kind_label":"Market","source":"google_places","google_place_id":"ChIJcwnNT_LdjzMRj9Y3Oko6tMk","google_primary_type":"ice_cream_shop","google_primary_type_label":"Ice Cream Shop","google_types":["ice_cream_shop","dessert_shop","confectionery","food_store","store","point_of_interest","food","establishment"],"google_maps_uri":"https://maps.google.com/?cid=14534305987910162063&g_mp=Cilnb29nbGUubWFwcy5wbGFjZXMudjEuUGxhY2VzLlNlYXJjaE5lYXJieRACGAQgAA","google_icon_mask_base_uri":"https://maps.gstatic.com/mapfiles/place_api/icons/v2/shopping_pinlet","google_icon_background_color":"#4B96F3","formatted_address":"26VH+G8V, Barlig, Mountain Province, Philippines","business_status":"OPERATIONAL","rating":null,"user_rating_count":null,"barangay_slug":"lunas","barangay_name":"Lunas"},"geometry":{"type":"Point","coordinates":[121.2282958,17.0438659]}},{"type":"Feature","properties":{"name":"Pora","kind":"market","kind_label":"Market","source":"google_places","google_place_id":"ChIJoyDFXDDdjzMR89JnGJnhK9A","google_primary_type":"ice_cream_shop","google_primary_type_label":"Ice Cream Shop","google_types":["ice_cream_shop","dessert_shop","confectionery","food_store","store","point_of_interest","food","establishment"],"google_maps_uri":"https://maps.google.com/?cid=15000331031543272179&g_mp=Cilnb29nbGUubWFwcy5wbGFjZXMudjEuUGxhY2VzLlNlYXJjaE5lYXJieRACGAQgAA","google_icon_mask_base_uri":"https://maps.gstatic.com/mapfiles/place_api/icons/v2/shopping_pinlet","google_icon_background_color":"#4B96F3","formatted_address":"26VH+G8V, Barlig, Mountain Province, Philippines","business_status":"OPERATIONAL","rating":null,"user_rating_count":null,"barangay_slug":"lunas","barangay_name":"Lunas"},"geometry":{"type":"Point","coordinates":[121.2282958,17.0438659]}},{"type":"Feature","properties":{"name":"Lunas Primary School","kind":"school","kind_label":"School","source":"google_places","google_place_id":"ChIJp8ZXmZbdjzMR_OuC1s2hwV4","google_primary_type":"primary_school","google_primary_type_label":"Elementary School","google_types":["primary_school","school","educational_institution","point_of_interest","establishment"],"google_maps_uri":"https://maps.google.com/?cid=6827916415509654524&g_mp=Cilnb29nbGUubWFwcy5wbGFjZXMudjEuUGxhY2VzLlNlYXJjaE5lYXJieRACGAQgAA","google_icon_mask_base_uri":"https://maps.gstatic.com/mapfiles/place_api/icons/v2/school_pinlet","google_icon_background_color":"#7B9EB0","formatted_address":"3663+GFR, Paracelis Road, Barlig, Mountain Province, Philippines","business_status":"OPERATIONAL","rating":null,"user_rating_count":null,"barangay_slug":"lunas","barangay_name":"Lunas"},"geometry":{"type":"Point","coordinates":[121.20362610000001,17.061368599999998]}},{"type":"Feature","properties":{"name":"ABS-CBN / ZOE TV Channel 32 Mt. Province Digital Transmitter Site","kind":"business","kind_label":"Business","source":"google_places","google_place_id":"ChIJkeOaQgDbjzMR0nRF3x_34cE","google_primary_type":"television_studio","google_primary_type_label":"Television studio","google_types":["television_studio","point_of_interest","establishment"],"google_maps_uri":"https://maps.google.com/?cid=13970719235341907154&g_mp=Cidnb29nbGUubWFwcy5wbGFjZXMudjEuUGxhY2VzLlNlYXJjaFRleHQQAhgEIAA","google_icon_mask_base_uri":"https://maps.gstatic.com/mapfiles/place_api/icons/v2/generic_pinlet","google_icon_background_color":"#7B9EB0","formatted_address":"246H+QVF, mt. amuyao, Barlig, Mountain Province, Philippines","business_status":"OPERATIONAL","rating":5,"user_rating_count":1,"barangay_slug":"macalana","barangay_name":"Macalana"},"geometry":{"type":"Point","coordinates":[121.12970130000001,17.0119281]}},{"type":"Feature","properties":{"name":"ALLTV Channel 11 Mt. Province Transmitter Site","kind":"business","kind_label":"Business","source":"google_places","google_place_id":"ChIJ2bGSdwDbjzMRro_ikzgilWw","google_primary_type":"television_studio","google_primary_type_label":"Television studio","google_types":["television_studio","point_of_interest","establishment"],"google_maps_uri":"https://maps.google.com/?cid=7824197554020716462&g_mp=Cidnb29nbGUubWFwcy5wbGFjZXMudjEuUGxhY2VzLlNlYXJjaFRleHQQAhgEIAA","google_icon_mask_base_uri":"https://maps.gstatic.com/mapfiles/place_api/icons/v2/generic_pinlet","google_icon_background_color":"#7B9EB0","formatted_address":"246H+QVF, mt. amuyao, Barlig, Mountain Province, Philippines","business_status":"OPERATIONAL","rating":null,"user_rating_count":null,"barangay_slug":"macalana","barangay_name":"Macalana"},"geometry":{"type":"Point","coordinates":[121.1297032,17.0119283]}},{"type":"Feature","properties":{"name":"GMA TV-5/DTV-29 Mountain Province Transmitter Site","kind":"business","kind_label":"Business","source":"google_places","google_place_id":"ChIJKcmd6QXbjzMRTR5MFDTMv3g","google_primary_type":"television_studio","google_primary_type_label":"Television studio","google_types":["television_studio","point_of_interest","establishment"],"google_maps_uri":"https://maps.google.com/?cid=8700897529153986125&g_mp=Cidnb29nbGUubWFwcy5wbGFjZXMudjEuUGxhY2VzLlNlYXJjaFRleHQQAhgEIAA","google_icon_mask_base_uri":"https://maps.gstatic.com/mapfiles/place_api/icons/v2/generic_pinlet","google_icon_background_color":"#7B9EB0","formatted_address":"246H+RWM, mt. amuyao, Barlig, Mountain Province, Philippines","business_status":"OPERATIONAL","rating":5,"user_rating_count":2,"barangay_slug":"macalana","barangay_name":"Macalana"},"geometry":{"type":"Point","coordinates":[121.1297832,17.0120783]}},{"type":"Feature","properties":{"name":"Macalana","kind":"business","kind_label":"Business","source":"google_places","google_place_id":"ChIJs_pYO2rajzMRLB5oRUK_SMI","google_primary_type":null,"google_primary_type_label":null,"google_types":["sublocality_level_2","sublocality","political"],"google_maps_uri":"https://maps.google.com/?cid=13999649733034384940&g_mp=Cidnb29nbGUubWFwcy5wbGFjZXMudjEuUGxhY2VzLlNlYXJjaFRleHQQAhgEIAA","google_icon_mask_base_uri":"https://maps.gstatic.com/mapfiles/place_api/icons/v2/generic_pinlet","google_icon_background_color":"#7B9EB0","formatted_address":"Macalana, Barlig, Mountain Province, Philippines","business_status":null,"rating":null,"user_rating_count":null,"barangay_slug":"macalana","barangay_name":"Macalana"},"geometry":{"type":"Point","coordinates":[121.1366715,17.038392899999998]}},{"type":"Feature","properties":{"name":"Macalana IP Hall","kind":"govt","kind_label":"Government","source":"google_places","google_place_id":"ChIJ-5lNdADbjzMRSe14OIR6zKw","google_primary_type":"government_office","google_primary_type_label":"Government Office","google_types":["government_office","point_of_interest","establishment"],"google_maps_uri":"https://maps.google.com/?cid=12451461778074299721&g_mp=Cilnb29nbGUubWFwcy5wbGFjZXMudjEuUGxhY2VzLlNlYXJjaE5lYXJieRACGAQgAA","google_icon_mask_base_uri":"https://maps.gstatic.com/mapfiles/place_api/icons/v2/civic-bldg_pinlet","google_icon_background_color":"#7B9EB0","formatted_address":"24Q2+88C, Macalana, Barlig, Mountain Province, Philippines","business_status":"OPERATIONAL","rating":null,"user_rating_count":null,"barangay_slug":"macalana","barangay_name":"Macalana"},"geometry":{"type":"Point","coordinates":[121.10075970000001,17.0383119]}},{"type":"Feature","properties":{"name":"St. Vincent's School","kind":"school","kind_label":"School","source":"google_places","google_place_id":"ChIJ5WCYVVXajzMRLeuZHmRR_Eg","google_primary_type":"school","google_primary_type_label":"School","google_types":["school","educational_institution","point_of_interest","establishment"],"google_maps_uri":"https://maps.google.com/?cid=5259167955313879853&g_mp=Cilnb29nbGUubWFwcy5wbGFjZXMudjEuUGxhY2VzLlNlYXJjaE5lYXJieRACGAQgAA","google_icon_mask_base_uri":"https://maps.gstatic.com/mapfiles/place_api/icons/v2/school_pinlet","google_icon_background_color":"#7B9EB0","formatted_address":"Barlig, Mountain Province, Philippines","business_status":"OPERATIONAL","rating":null,"user_rating_count":null,"barangay_slug":"macalana","barangay_name":"Macalana"},"geometry":{"type":"Point","coordinates":[121.125,17.0508003]}},{"type":"Feature","properties":{"name":"Barlig Quicksand","kind":"tourism","kind_label":"Tourism","source":"google_places","google_place_id":"ChIJA0aibQDbjzMR33cO0DVNHAk","google_primary_type":"tourist_attraction","google_primary_type_label":"Tourist Attraction","google_types":["tourist_attraction","point_of_interest","establishment"],"google_maps_uri":"https://maps.google.com/?cid=656484539208464351&g_mp=Cilnb29nbGUubWFwcy5wbGFjZXMudjEuUGxhY2VzLlNlYXJjaE5lYXJieRACGAQgAA","google_icon_mask_base_uri":"https://maps.gstatic.com/mapfiles/place_api/icons/v2/generic_pinlet","google_icon_background_color":"#13B5C7","formatted_address":"24QV+XCR Siblaw taraw, Barlig, Mountain Province, Philippines","business_status":"OPERATIONAL","rating":5,"user_rating_count":1,"barangay_slug":"macalana","barangay_name":"Macalana"},"geometry":{"type":"Point","coordinates":[121.1435274,17.0399912]}},{"type":"Feature","properties":{"name":"Macalana, Barangay Open Gym","kind":"tourism","kind_label":"Tourism","source":"google_places","google_place_id":"ChIJNdcxmszbjzMRHhUO9yIlYPs","google_primary_type":"museum","google_primary_type_label":"Museum","google_types":["museum","point_of_interest","establishment"],"google_maps_uri":"https://maps.google.com/?cid=18113518533388145950&g_mp=Cilnb29nbGUubWFwcy5wbGFjZXMudjEuUGxhY2VzLlNlYXJjaE5lYXJieRACGAQgAA","google_icon_mask_base_uri":"https://maps.gstatic.com/mapfiles/place_api/icons/v2/museum_pinlet","google_icon_background_color":"#13B5C7","formatted_address":"24Q2+C76, Barlig, Mountain Province, Philippines","business_status":"OPERATIONAL","rating":5,"user_rating_count":1,"barangay_slug":"macalana","barangay_name":"Macalana"},"geometry":{"type":"Point","coordinates":[121.10063489999999,17.038531199999998]}},{"type":"Feature","properties":{"name":"Mt. Amuyao","kind":"tourism","kind_label":"Tourism","source":"google_places","google_place_id":"ChIJS-NEbQDbjzMRS-k62wuGHws","google_primary_type":"hiking_area","google_primary_type_label":"Hiking Area","google_types":["hiking_area","sports_activity_location","point_of_interest","establishment"],"google_maps_uri":"https://maps.google.com/?cid=801506644176070987&g_mp=Cilnb29nbGUubWFwcy5wbGFjZXMudjEuUGxhY2VzLlNlYXJjaE5lYXJieRACGAQgAA","google_icon_mask_base_uri":"https://maps.gstatic.com/mapfiles/place_api/icons/v2/hiking_pinlet","google_icon_background_color":"#4DB546","formatted_address":"246H+MV2, Barlig, Mountain Province, Philippines","business_status":"OPERATIONAL","rating":5,"user_rating_count":6,"barangay_slug":"macalana","barangay_name":"Macalana"},"geometry":{"type":"Point","coordinates":[121.1296386,17.0116262]}},{"type":"Feature","properties":{"name":"All Saints' Mission Elem. School","kind":"worship","kind_label":"Worship","source":"google_places","google_place_id":"ChIJ5WCYVVXajzMR1wjP_UwV0Qw","google_primary_type":"church","google_primary_type_label":"Church","google_types":["church","place_of_worship","association_or_organization","point_of_interest","establishment"],"google_maps_uri":"https://maps.google.com/?cid=923542819007563991&g_mp=Cilnb29nbGUubWFwcy5wbGFjZXMudjEuUGxhY2VzLlNlYXJjaE5lYXJieRACGAQgAA","google_icon_mask_base_uri":"https://maps.gstatic.com/mapfiles/place_api/icons/v2/worship_christian_pinlet","google_icon_background_color":"#7B9EB0","formatted_address":"342F+8XH, Bontoc, Mountain Province, Philippines","business_status":"OPERATIONAL","rating":null,"user_rating_count":null,"barangay_slug":"macalana","barangay_name":"Macalana"},"geometry":{"type":"Point","coordinates":[121.125,17.0508003]}},{"type":"Feature","properties":{"name":"Baptist Church","kind":"worship","kind_label":"Worship","source":"google_places","google_place_id":"ChIJ56uZh8vbjzMR_W9Xm34csuY","google_primary_type":"church","google_primary_type_label":"Church","google_types":["church","place_of_worship","association_or_organization","point_of_interest","establishment"],"google_maps_uri":"https://maps.google.com/?cid=16623380504675577853&g_mp=Cilnb29nbGUubWFwcy5wbGFjZXMudjEuUGxhY2VzLlNlYXJjaE5lYXJieRACGAQgAA","google_icon_mask_base_uri":"https://maps.gstatic.com/mapfiles/place_api/icons/v2/worship_christian_pinlet","google_icon_background_color":"#7B9EB0","formatted_address":"24Q2+M63, Barlig, Mountain Province, Philippines","business_status":"OPERATIONAL","rating":null,"user_rating_count":null,"barangay_slug":"macalana","barangay_name":"Macalana"},"geometry":{"type":"Point","coordinates":[121.10055179999999,17.0391303]}},{"type":"Feature","properties":{"name":"Amfitayok Waterfall","kind":"tourism","kind_label":"Tourism","source":"google_places","google_place_id":"ChIJhyCDcADdjzMREn7B2WKomG4","google_primary_type":"tourist_attraction","google_primary_type_label":"Tourist Attraction","google_types":["tourist_attraction","point_of_interest","establishment"],"google_maps_uri":"https://maps.google.com/?cid=7969304683145690642&g_mp=Cilnb29nbGUubWFwcy5wbGFjZXMudjEuUGxhY2VzLlNlYXJjaE5lYXJieRACGAQgAA","google_icon_mask_base_uri":"https://maps.gstatic.com/mapfiles/place_api/icons/v2/generic_pinlet","google_icon_background_color":"#13B5C7","formatted_address":"25RV+HC, Barlig, Mountain Province, Philippines","business_status":"OPERATIONAL","rating":5,"user_rating_count":3,"barangay_slug":"ogo-og","barangay_name":"Ogo-og"},"geometry":{"type":"Point","coordinates":[121.19360999999999,17.0414133]}},{"type":"Feature","properties":{"name":"Ago-og Christian Baptist Church","kind":"worship","kind_label":"Worship","source":"google_places","google_place_id":"ChIJP1aTXQDdjzMR2ZDRFcUEePk","google_primary_type":"church","google_primary_type_label":"Church","google_types":["church","place_of_worship","association_or_organization","point_of_interest","establishment"],"google_maps_uri":"https://maps.google.com/?cid=17976123157170458841&g_mp=Cilnb29nbGUubWFwcy5wbGFjZXMudjEuUGxhY2VzLlNlYXJjaE5lYXJieRACGAQgAA","google_icon_mask_base_uri":"https://maps.gstatic.com/mapfiles/place_api/icons/v2/worship_christian_pinlet","google_icon_background_color":"#7B9EB0","formatted_address":"25VQ+M5, Barlig, Mountain Province, Philippines","business_status":"OPERATIONAL","rating":null,"user_rating_count":null,"barangay_slug":"ogo-og","barangay_name":"Ogo-og"},"geometry":{"type":"Point","coordinates":[121.1879161,17.044181299999998]}}]}
