{"type":"FeatureCollection","name":"dxf_municipality","features":[{"type":"Feature","properties":{"boundary_type":"municipality","source":"dxf","source_layer":"MBM","area_m2":163027765.95},"geometry":{"type":"Polygon","coordinates":[[[120.8995986840554,16.84669618973097],[120.86264734348723,16.838783904929084],[120.86264702084212,16.839213332426368],[120.86264694749629,16.839310951013157],[120.86153634143616,16.839310174110874],[120.84932107005254,16.859720039827415],[120.85069987215847,16.859721086526662],[120.85069983765511,16.859763416996937],[120.85069884685444,16.86097893046525],[120.85069876727943,16.861076548794987],[120.84929110621262,16.861075480008687],[120.84929114406441,16.861029463340024],[120.84929213854637,16.859820415452674],[120.84927127355486,16.85980323160762],[120.84847172250694,16.861138977897536],[120.84877258849785,16.86113920834851],[120.84877255356255,16.861181538808857],[120.84877155035889,16.862397051981226],[120.8487714697877,16.86249467031005],[120.84736379835049,16.8624935882127],[120.8473638366719,16.862447571554842],[120.84736393203762,16.862333054995336],[120.83143851154408,16.874049431589],[120.83143750228055,16.875149813527546],[120.83143741274226,16.87524743161978],[120.83082364490508,16.87524690878937],[120.83542036463321,16.909349274982677],[120.83621821734845,16.909349937504498],[120.83621817950821,16.90939226774107],[120.83621709288609,16.910607774484493],[120.83621709288606,16.91060777451305],[120.83621700561525,16.910705392304934],[120.83585789685833,16.910705094470483],[120.84618359861602,16.93093107111836],[120.84723622837699,16.93093189005559],[120.84723619295016,16.930974220230215],[120.84723517563143,16.93218972511141],[120.84723509392666,16.932287342739862],[120.84647253655135,16.93228674997339],[120.8452259742034,16.947069181713715],[120.83173036398065,16.955172263822963],[120.83172943920357,16.95617725215161],[120.83172934937407,16.95627486949149],[120.83069026767217,16.956273981164752],[120.82903785356325,16.9596297338796],[120.82941105167012,16.959630056616533],[120.8294110121899,16.959672386625723],[120.82940987847343,16.960887887030076],[120.82940978742027,16.9609855043164],[120.82899206300615,16.960985143001064],[120.84003486390438,16.987008003614413],[120.84407858357802,17.000770803331967],[120.84407861185815,17.000770826606367],[120.84743253519292,17.015538667953816],[120.85651624800477,17.033108440969876],[120.86157774394142,17.044477032420577],[120.86258643525215,17.044477745296863],[120.86258640303755,17.044520075028192],[120.86258547796147,17.04573556727683],[120.8625854036651,17.045833183902342],[120.86134506370263,17.045832306540206],[120.8545021541588,17.054505966379583],[120.85467485940804,17.054506094869385],[120.85467482539177,17.054548424542233],[120.85467393638717,17.055654656221847],[120.86033085282223,17.059432332502386],[120.86033093690922,17.059323654709065],[120.8603310145876,17.05922325898513],[120.86174015280318,17.059224262857214],[120.86174015280292,17.059224263166747],[120.8617401532483,17.05922426316706],[120.86174012081507,17.059266592125784],[120.86173981152295,17.059670246349874],[120.88991185342853,17.05045504767265],[120.88991235078744,17.049647527823257],[120.88991235078747,17.04964752780526],[120.88991241262045,17.049547131867968],[120.89061917277826,17.049547533422103],[120.89069396651011,17.038334881943285],[120.88999546048859,17.038334485566644],[120.88999548879005,17.038288469616806],[120.88999623235577,17.037079440622595],[120.8899962940978,17.03697904455441],[120.89070665777255,17.036979447609582],[120.8907254543355,17.035420560564738],[120.89003061154854,17.03542016643673],[120.89003063983647,17.035374150474375],[120.89003138304746,17.034165121209337],[120.89003138304751,17.034165121122133],[120.89003144476007,17.034064725036753],[120.891420885708,17.0340655107226],[120.89346600007646,17.032050343002815],[120.89345055858226,17.032050334479493],[120.89345058602821,17.03200431849618],[120.89345130711708,17.03079528861962],[120.89345136699275,17.030694892478774],[120.8940149424025,17.03069520277618],[120.89346249923592,17.027994292600223],[120.89262085471371,17.02799382640052],[120.89262088235589,17.027947810408584],[120.89262160860063,17.02673878008627],[120.89262166890441,17.026638383899545],[120.89364293682763,17.02663894910296],[120.89844853497166,17.01643696665117],[120.89806482942826,17.016436764064654],[120.89806485572149,17.01639074800396],[120.8980655465239,17.015181716102248],[120.89806560388473,17.01508131979609],[120.89879589338813,17.015081704719815],[120.89926773368596,17.00372309997607],[120.89860048328228,17.003722750122854],[120.89860050942487,17.003676734004426],[120.89860051648107,17.003664313643036],[120.89860119627104,17.00246770058609],[120.89860125330334,17.00236730414943],[120.89934273760652,17.00236769276144],[120.90020995808744,16.989868337002214],[120.89955417365536,16.98986799644339],[120.89955419954389,16.98982198026281],[120.89955487971423,16.98861294516909],[120.8995549361922,16.988512548598024],[120.900316869549,16.988512944054214],[120.90198183599534,16.969673342676625],[120.90133900569761,16.96967301477766],[120.90133903112034,16.96962699850151],[120.90133969905273,16.968417960967958],[120.90133975451455,16.968317564190457],[120.90192708594138,16.96831786383821],[120.8980050554507,16.945133865077437],[120.89718773106593,16.94513343240484],[120.89718775746132,16.945087416025775],[120.89718845094855,16.943878376598374],[120.89718845094906,16.9438783757469],[120.89718850853282,16.94377797875417],[120.89737645480251,16.94377807853086],[120.8934613790305,16.938614085002037],[120.88866357683676,16.93213276454771],[120.8893160438829,16.927048652174314],[120.89108568208898,16.918817959284457],[120.89187510788645,16.917101361482555],[120.88873931369767,16.906409536736522],[120.90654128803467,16.90100348232169],[120.90654170145365,16.900212680033853],[120.90654175393834,16.900112282569033],[120.90794970731632,16.900112959899644],[120.90794968550148,16.90015529029323],[120.90794937462854,16.9007585077277],[120.92140079542077,16.90015413958627],[120.92140106610239,16.899545102327586],[120.92140111072219,16.899444704819956],[120.92262319060696,16.89944520456126],[120.94661437265987,16.868203837369844],[120.9464325237119,16.868203784856902],[120.94643253806649,16.868157768079385],[120.94643291520642,16.86694871733849],[120.94643294652231,16.866848319474695],[120.94676708186326,16.866848415832898],[120.94092743721478,16.856083032773228],[120.93985751229064,16.85608269201217],[120.93985752822559,16.856036675188133],[120.93985794688615,16.854827623173964],[120.93985798164965,16.854727225195],[120.94052043954702,16.854727436824373],[120.93975882203097,16.841575717061378],[120.93901744873834,16.841575477476205],[120.93901746486297,16.84152946058658],[120.93901755550426,16.841270783092476],[120.92543490765615,16.848486241659295],[120.9254345045316,16.84944169907246],[120.92543446334312,16.849539317751027],[120.92402688398592,16.849538762180508],[120.92402690374227,16.84949274533975],[120.92402742280167,16.848283692964973],[120.92402743378143,16.848258116606456],[120.91676238475135,16.842013781605274],[120.91676235115062,16.842085687191453],[120.91651574618922,16.842085580173293],[120.9153548272016,16.842085072394923],[120.91535484904493,16.84203905553166],[120.91535506575926,16.8415825011196],[120.91535528034758,16.841130412283455],[120.91535542293651,16.840830002531334],[120.91535547058965,16.840729604482263],[120.91572501332381,16.840729766818136],[120.91033438568483,16.82972550634353],[120.9093000771149,16.8297250234165],[120.90930010040432,16.82967900650307],[120.90930071228816,16.828469952269817],[120.90930076309597,16.82836955410484],[120.9095832669569,16.828369686515313],[120.90876751152659,16.82705006892058],[120.90764616383838,16.827049536634867],[120.90764618752335,16.82700351971433],[120.90764665868818,16.826088078268178],[120.90517884714465,16.825089563359445],[120.90517869140868,16.825384746533445],[120.90517863990522,16.825482365387963],[120.90377123906318,16.82548167181086],[120.9037712636814,16.825435654885645],[120.90377170475615,16.824611164723102],[120.8984794186397,16.823155747695644],[120.89847920109882,16.82354236854885],[120.89847914617052,16.82363998740113],[120.89784521474364,16.82363965555214],[120.90021346305575,16.84616877289057],[120.90100653181368,16.84616917904847],[120.90100651988944,16.84619085290763],[120.90100650852476,16.84621150965556],[120.90100583975897,16.847427027052625],[120.9010058355609,16.847434656958637],[120.90100578604782,16.84752464569789],[120.8995982225158,16.847523922676057],[120.8995982481752,16.847477905857673],[120.89959825969353,16.847457249113155],[120.8995986840554,16.84669618973097]]]}}]}
