{"type":"FeatureCollection","features":[{"type":"Feature","properties":{"manual_id":"manual-road-1783942579500-j8kt0k","osm_way_id":"manual-road-1783942579500-j8kt0k","highway":"residential","name":null,"barangay_slug":"padangan","barangay_name":"Padangan","length_m":952,"source":"manual-print"},"geometry":{"type":"LineString","coordinates":[[120.855076,17.09488],[120.854952,17.09467],[120.854942,17.094537],[120.855086,17.094429],[120.855129,17.094301],[120.855092,17.094044],[120.855274,17.093783],[120.855414,17.093603],[120.855559,17.093449],[120.855596,17.093378],[120.855805,17.093403],[120.855988,17.093378],[120.856138,17.09326],[120.856272,17.093224],[120.856342,17.093142],[120.856293,17.093034],[120.856208,17.092624],[120.856251,17.092501],[120.856315,17.092439],[120.856336,17.092311],[120.856395,17.092286],[120.856444,17.092086],[120.856395,17.091957],[120.856251,17.09188],[120.856031,17.091865],[120.855886,17.091804],[120.855811,17.091624],[120.855827,17.091542],[120.856175,17.091434],[120.856395,17.091445],[120.856546,17.09144],[120.856782,17.091368],[120.857028,17.091183],[120.857302,17.091065],[120.857441,17.09106],[120.85786,17.091332],[120.857935,17.091322],[120.858042,17.091245],[120.858203,17.090752],[120.858273,17.090645],[120.858332,17.090522],[120.85845,17.090445],[120.858552,17.090414],[120.858691,17.090301],[120.858954,17.090024]]}},{"type":"Feature","properties":{"manual_id":"manual-road-1783956509403-rnhrgh","osm_way_id":"manual-road-1783956509403-rnhrgh","highway":"residential","name":null,"barangay_slug":"suquib","barangay_name":"Suquib","length_m":595,"source":"manual-print"},"geometry":{"type":"LineString","coordinates":[[120.870726,17.083481],[120.870866,17.083522],[120.870903,17.08363],[120.870987,17.083658],[120.871107,17.083689],[120.871263,17.083653],[120.87152,17.083551],[120.871673,17.083528],[120.871775,17.083512],[120.871826,17.083522],[120.871848,17.083566],[120.871826,17.083617],[120.871713,17.08374],[120.871636,17.083874],[120.871628,17.08403],[120.871689,17.084148],[120.871751,17.084166],[120.871858,17.084135],[120.872041,17.08414],[120.872121,17.084202],[120.872159,17.084315],[120.872239,17.084469],[120.872298,17.084535],[120.872376,17.084581],[120.87266,17.084674],[120.872827,17.084871],[120.872915,17.084948],[120.87303,17.085025],[120.873063,17.085151],[120.873106,17.085315],[120.873162,17.085379],[120.873232,17.085404],[120.873312,17.085407],[120.873502,17.085379],[120.873722,17.085427],[120.873857,17.085471],[120.874012,17.08543],[120.874095,17.085366],[120.874184,17.085374],[120.87431,17.085525],[120.874377,17.085571],[120.874473,17.085561]]}},{"type":"Feature","properties":{"manual_id":"manual-road-1783957098036-rqk97v","osm_way_id":"manual-road-1783957098036-rqk97v","highway":"residential","name":null,"barangay_slug":"payeo","barangay_name":"Payeo","length_m":2001,"source":"manual-print"},"geometry":{"type":"LineString","coordinates":[[120.869774,17.086845],[120.869324,17.086758],[120.869147,17.086784],[120.869061,17.087004],[120.868959,17.087025],[120.868782,17.086989],[120.868744,17.087061],[120.868868,17.087204],[120.868959,17.087261],[120.86913,17.08724],[120.869281,17.087163],[120.869452,17.087199],[120.869629,17.087425],[120.86964,17.087502],[120.869581,17.087763],[120.869688,17.087922],[120.869957,17.088225],[120.869978,17.088383],[120.869871,17.08864],[120.869887,17.088773],[120.869983,17.088968],[120.870101,17.089086],[120.870525,17.089342],[120.870686,17.089527],[120.870783,17.089578],[120.870992,17.089527],[120.871142,17.089547],[120.871282,17.089701],[120.871426,17.089968],[120.87155,17.090137],[120.871689,17.090265],[120.871818,17.090276],[120.872156,17.090229],[120.872392,17.090163],[120.872558,17.090091],[120.872666,17.09004],[120.872757,17.090076],[120.872816,17.090158],[120.872998,17.090399],[120.873465,17.09064],[120.873599,17.090722],[120.873755,17.09084],[120.874071,17.090927],[120.874189,17.090932],[120.874436,17.090804],[120.874656,17.090768],[120.874785,17.090834],[120.87487,17.090937],[120.874919,17.091116],[120.875133,17.091747],[120.874833,17.092065],[120.874672,17.092127],[120.874479,17.092101],[120.874307,17.092091],[120.874076,17.092157],[120.873975,17.092132],[120.873739,17.091962],[120.873626,17.091768],[120.873519,17.091665],[120.873331,17.091609],[120.87317,17.091727],[120.873143,17.09186],[120.87325,17.092096],[120.873427,17.092209],[120.873497,17.092265],[120.873642,17.09247],[120.873776,17.092578],[120.874039,17.092619],[120.874184,17.09265],[120.874377,17.092726],[120.874554,17.092932],[120.874844,17.093285],[120.875031,17.093429],[120.875171,17.093578],[120.875273,17.093706],[120.875428,17.093819],[120.875568,17.09387],[120.876008,17.094347],[120.876281,17.094562],[120.87649,17.094685],[120.876748,17.095029],[120.876882,17.095131]]}},{"type":"Feature","properties":{"manual_id":"manual-road-1783957213916-tr3xtv","osm_way_id":"manual-road-1783957213916-tr3xtv","highway":"residential","name":null,"barangay_slug":"banguitan","barangay_name":"Banguitan","length_m":157,"source":"manual-print"},"geometry":{"type":"LineString","coordinates":[[120.854411,17.07581],[120.854386,17.075977],[120.854459,17.076023],[120.854574,17.075982],[120.854837,17.075936],[120.854896,17.075933],[120.854926,17.075644],[120.85503,17.075574],[120.855132,17.075523],[120.855186,17.075467],[120.855317,17.075428]]}},{"type":"Feature","properties":{"manual_id":"manual-road-1783998830225-st4sqw","osm_way_id":"manual-road-1783998830225-st4sqw","highway":"residential","name":null,"barangay_slug":"agawa","barangay_name":"Agawa","length_m":669,"source":"manual-print"},"geometry":{"type":"LineString","coordinates":[[120.871748,17.12092],[120.871958,17.120905],[120.872242,17.120956],[120.872569,17.120884],[120.872869,17.120792],[120.872993,17.120792],[120.873036,17.1209],[120.872821,17.121402],[120.872682,17.121541],[120.872714,17.121587],[120.872821,17.121612],[120.873224,17.121535],[120.873309,17.121479],[120.873744,17.121141],[120.873969,17.121054],[120.874087,17.121018],[120.87428,17.12092],[120.874468,17.120941],[120.874581,17.121043],[120.874704,17.121043],[120.875037,17.120823],[120.875015,17.120592],[120.874795,17.120059],[120.874355,17.11968]]}},{"type":"Feature","properties":{"manual_id":"manual-road-1784615995226-x6v8ff","osm_way_id":"manual-road-1784615995226-x6v8ff","highway":"residential","name":null,"barangay_slug":"besao-east-besao-proper","barangay_name":"Besao East (Besao Proper)","length_m":10,"source":"manual-print"},"geometry":{"type":"LineString","coordinates":[[120.866782,17.083594],[120.866848,17.083525]]}},{"type":"Feature","properties":{"manual_id":"manual-road-1784776674572-dqvcjs","osm_way_id":"manual-road-1784776674572-dqvcjs","highway":"residential","name":null,"barangay_slug":"gueday","barangay_name":"Gueday","length_m":522,"source":"manual-print"},"geometry":{"type":"LineString","coordinates":[[120.867559,17.120413],[120.867835,17.120631],[120.867966,17.120702],[120.868492,17.12142],[120.868736,17.121538],[120.869018,17.12152],[120.869275,17.121425],[120.870262,17.121323],[120.870555,17.121202],[120.871054,17.120843],[120.871376,17.120777],[120.871558,17.120859],[120.871719,17.120946]]}},{"type":"Feature","properties":{"manual_id":"manual-road-1784776747214-q41x04","osm_way_id":"manual-road-1784776747214-q41x04","highway":"residential","name":null,"barangay_slug":"gueday","barangay_name":"Gueday","length_m":1059,"source":"manual-print"},"geometry":{"type":"LineString","coordinates":[[120.870533,17.121225],[120.870388,17.121371],[120.870225,17.12153],[120.869922,17.121987],[120.869828,17.122251],[120.86993,17.122463],[120.869865,17.122576],[120.869651,17.122638],[120.869278,17.122553],[120.869173,17.12262],[120.869195,17.122771],[120.869195,17.123027],[120.86938,17.123189],[120.869463,17.123338],[120.869407,17.123468],[120.869216,17.123602],[120.868983,17.12405],[120.868884,17.124473],[120.868908,17.124706],[120.86909,17.125129],[120.869388,17.12526],[120.869753,17.125265],[120.869879,17.125145],[120.869938,17.12495],[120.870053,17.124868],[120.870187,17.124888],[120.870812,17.12466],[120.871064,17.124214],[120.871215,17.123691],[120.871394,17.123607],[120.871746,17.12365],[120.872387,17.123937],[120.872599,17.123994]]}},{"type":"Feature","properties":{"manual_id":"manual-road-1784777308203-2q0pn6","osm_way_id":"manual-road-1784777308203-2q0pn6","highway":"residential","name":null,"barangay_slug":"ambagiw","barangay_name":"Ambagiw","length_m":311,"source":"manual-print"},"geometry":{"type":"LineString","coordinates":[[120.847759,17.12112],[120.847383,17.120608],[120.847045,17.120423],[120.846643,17.12049],[120.846401,17.120474],[120.846123,17.120638],[120.845892,17.120413],[120.845565,17.120197],[120.845398,17.120136]]}},{"type":"Feature","properties":{"manual_id":"manual-road-1784777391849-emaypz","osm_way_id":"manual-road-1784777391849-emaypz","highway":"residential","name":null,"barangay_slug":"ambagiw","barangay_name":"Ambagiw","length_m":2327,"source":"manual-print"},"geometry":{"type":"LineString","coordinates":[[120.844926,17.119941],[120.844631,17.119982],[120.844578,17.119905],[120.844476,17.119649],[120.844465,17.119475],[120.844535,17.119213],[120.844535,17.11909],[120.844867,17.118865],[120.845012,17.118634],[120.844916,17.11848],[120.844663,17.118357],[120.844486,17.118208],[120.844164,17.118234],[120.844122,17.118152],[120.844272,17.117757],[120.844363,17.117511],[120.844004,17.117265],[120.843934,17.117152],[120.84403,17.116947],[120.84447,17.116916],[120.844921,17.116645],[120.845071,17.11666],[120.845221,17.116886],[120.845538,17.116998],[120.84601,17.116978],[120.846337,17.116711],[120.846369,17.116455],[120.846262,17.115968],[120.846283,17.115635],[120.846369,17.115378],[120.846342,17.115096],[120.846235,17.114748],[120.846262,17.114625],[120.846385,17.114604],[120.846766,17.114948],[120.847174,17.115266],[120.847426,17.115609],[120.847737,17.115763],[120.847989,17.115676],[120.848231,17.115553],[120.848376,17.115604],[120.84881,17.115932],[120.849175,17.116009],[120.849545,17.115983],[120.849786,17.115942],[120.84999,17.116327],[120.850049,17.116327],[120.850323,17.116004],[120.850521,17.116029],[120.850639,17.11627],[120.851154,17.116665],[120.851546,17.116778],[120.851508,17.117214],[120.851583,17.11746],[120.851691,17.11746],[120.85182,17.117229],[120.851991,17.117029],[120.852436,17.116845],[120.852528,17.116891],[120.852753,17.117198],[120.852892,17.117255],[120.853043,17.117127],[120.853434,17.117106],[120.853472,17.117255],[120.85367,17.117327],[120.853692,17.117475],[120.853928,17.117562],[120.854056,17.117491],[120.854153,17.117214],[120.85448,17.117065],[120.854539,17.116993],[120.854727,17.116983],[120.855349,17.117327]]}}]}