{"type":"FeatureCollection","features":[{"type":"Feature","properties":{"name":"Agawa Barangay Hall","kind":"govt","kind_label":"Government","source":"google_places","google_place_id":"ChIJdXqPTQAtjjMR3DKGsRwz190","google_primary_type":"government_office","google_primary_type_label":"Government Office","google_types":["government_office","point_of_interest","establishment"],"google_maps_uri":"https://maps.google.com/?cid=15985301600705327836&g_mp=Cilnb29nbGUubWFwcy5wbGFjZXMudjEuUGxhY2VzLlNlYXJjaE5lYXJieRACGAQgAA","google_icon_mask_base_uri":"https://maps.gstatic.com/mapfiles/place_api/icons/v2/civic-bldg_pinlet","google_icon_background_color":"#7B9EB0","formatted_address":"4V67+MX5, Besao, Mountain Province, Philippines","business_status":"OPERATIONAL","rating":null,"user_rating_count":null,"barangay_slug":"agawa","barangay_name":"Agawa"},"geometry":{"type":"Point","coordinates":[120.86519299999999,17.112297]}},{"type":"Feature","properties":{"name":"Agawa Elementary School","kind":"school","kind_label":"School","source":"google_places","google_place_id":"ChIJK43rhRMtjjMRDrDnar7ml5M","google_primary_type":"primary_school","google_primary_type_label":"Elementary School","google_types":["primary_school","school","educational_institution","point_of_interest","establishment"],"google_maps_uri":"https://maps.google.com/?cid=10635222750570459150&g_mp=Cilnb29nbGUubWFwcy5wbGFjZXMudjEuUGxhY2VzLlNlYXJjaE5lYXJieRACGAQgAA","google_icon_mask_base_uri":"https://maps.gstatic.com/mapfiles/place_api/icons/v2/school_pinlet","google_icon_background_color":"#7B9EB0","formatted_address":"4V68+XMM, Besao, Mountain Province, Philippines","business_status":"OPERATIONAL","rating":null,"user_rating_count":null,"barangay_slug":"agawa","barangay_name":"Agawa"},"geometry":{"type":"Point","coordinates":[120.8666691,17.1124556]}},{"type":"Feature","properties":{"name":"Masameyeo Primary School","kind":"school","kind_label":"School","source":"google_places","google_place_id":"ChIJeahs90EtjjMRZMBOKFVPbRY","google_primary_type":"primary_school","google_primary_type_label":"Primary School","google_types":["primary_school","school","educational_institution","point_of_interest","establishment"],"google_maps_uri":"https://maps.google.com/?cid=1616035068462940260&g_mp=Cilnb29nbGUubWFwcy5wbGFjZXMudjEuUGxhY2VzLlNlYXJjaE5lYXJieRACGAQgAA","google_icon_mask_base_uri":"https://maps.gstatic.com/mapfiles/place_api/icons/v2/school_pinlet","google_icon_background_color":"#7B9EB0","formatted_address":"4V9F+PFM, Agawa Rd, Besao, Mountain Province, Philippines","business_status":"OPERATIONAL","rating":null,"user_rating_count":null,"barangay_slug":"agawa","barangay_name":"Agawa"},"geometry":{"type":"Point","coordinates":[120.87366879999999,17.1193454]}},{"type":"Feature","properties":{"name":"Ambaon Bato","kind":"tourism","kind_label":"Tourism","source":"google_places","google_place_id":"ChIJKRTFWN8tjjMRDK4iskQkj_g","google_primary_type":"hiking_area","google_primary_type_label":"Hiking Area","google_types":["hiking_area","sports_activity_location","point_of_interest","establishment"],"google_maps_uri":"https://maps.google.com/?cid=17910574120540745228&g_mp=Cilnb29nbGUubWFwcy5wbGFjZXMudjEuUGxhY2VzLlNlYXJjaE5lYXJieRACGAQgAA","google_icon_mask_base_uri":"https://maps.gstatic.com/mapfiles/place_api/icons/v2/hiking_pinlet","google_icon_background_color":"#4DB546","formatted_address":"4V8M+R54, Besao, Mountain Province, Philippines","business_status":"OPERATIONAL","rating":null,"user_rating_count":null,"barangay_slug":"agawa","barangay_name":"Agawa"},"geometry":{"type":"Point","coordinates":[120.8829574,17.1170084]}},{"type":"Feature","properties":{"name":"St. Augustine's Church","kind":"worship","kind_label":"Worship","source":"google_places","google_place_id":"ChIJnTQqxhMtjjMROquiXM80lAM","google_primary_type":"church","google_primary_type_label":"Church","google_types":["church","place_of_worship","association_or_organization","point_of_interest","establishment"],"google_maps_uri":"https://maps.google.com/?cid=257889143884000058&g_mp=Cilnb29nbGUubWFwcy5wbGFjZXMudjEuUGxhY2VzLlNlYXJjaE5lYXJieRACGAQgAA","google_icon_mask_base_uri":"https://maps.gstatic.com/mapfiles/place_api/icons/v2/worship_christian_pinlet","google_icon_background_color":"#7B9EB0","formatted_address":"4V67+MX5, Besao, Mountain Province, Philippines","business_status":"OPERATIONAL","rating":3,"user_rating_count":1,"barangay_slug":"agawa","barangay_name":"Agawa"},"geometry":{"type":"Point","coordinates":[120.86498949999998,17.1116484]}},{"type":"Feature","properties":{"name":"St. Basil (anglican)","kind":"worship","kind_label":"Worship","source":"google_places","google_place_id":"ChIJl1chQQAtjjMRJQigG0DW8ec","google_primary_type":"church","google_primary_type_label":"Church","google_types":["church","place_of_worship","association_or_organization","point_of_interest","establishment"],"google_maps_uri":"https://maps.google.com/?cid=16713375262978344997&g_mp=Cilnb29nbGUubWFwcy5wbGFjZXMudjEuUGxhY2VzLlNlYXJjaE5lYXJieRACGAQgAA","google_icon_mask_base_uri":"https://maps.gstatic.com/mapfiles/place_api/icons/v2/worship_christian_pinlet","google_icon_background_color":"#7B9EB0","formatted_address":"4V9F+MCM, Besao, Mountain Province, Philippines","business_status":"OPERATIONAL","rating":null,"user_rating_count":null,"barangay_slug":"agawa","barangay_name":"Agawa"},"geometry":{"type":"Point","coordinates":[120.8735586,17.119205300000004]}},{"type":"Feature","properties":{"name":"Besao","kind":"business","kind_label":"Business","source":"google_places","google_place_id":"ChIJT5ln-eotjjMRU0_14tm3YEE","google_primary_type":null,"google_primary_type_label":null,"google_types":["locality","political"],"google_maps_uri":"https://maps.google.com/?cid=4710967356673052499&g_mp=Cidnb29nbGUubWFwcy5wbGFjZXMudjEuUGxhY2VzLlNlYXJjaFRleHQQAhgEIAA","google_icon_mask_base_uri":"https://maps.gstatic.com/mapfiles/place_api/icons/v2/generic_pinlet","google_icon_background_color":"#7B9EB0","formatted_address":"Besao, Mountain Province, Philippines","business_status":null,"rating":null,"user_rating_count":null,"barangay_slug":"ambagiw","barangay_name":"Ambagiw"},"geometry":{"type":"Point","coordinates":[120.83840930000001,17.1097133]}},{"type":"Feature","properties":{"name":"Ambagiw Besao,Mountain Province","kind":"tourism","kind_label":"Tourism","source":"google_places","google_place_id":"ChIJp3PZIAwtjjMRcrHuSvYqoqQ","google_primary_type":"hiking_area","google_primary_type_label":"Hiking Area","google_types":["hiking_area","sports_activity_location","point_of_interest","establishment"],"google_maps_uri":"https://maps.google.com/?cid=11863091605754786162&g_mp=Cilnb29nbGUubWFwcy5wbGFjZXMudjEuUGxhY2VzLlNlYXJjaE5lYXJieRACGAQgAA","google_icon_mask_base_uri":"https://maps.gstatic.com/mapfiles/place_api/icons/v2/hiking_pinlet","google_icon_background_color":"#4DB546","formatted_address":"4R9V+CW5, Ambaguio, Besao, Mountain Province, Philippines","business_status":"OPERATIONAL","rating":5,"user_rating_count":2,"barangay_slug":"ambagiw","barangay_name":"Ambagiw"},"geometry":{"type":"Point","coordinates":[120.84486979999998,17.1185068]}},{"type":"Feature","properties":{"name":"Bidbidowen falls","kind":"tourism","kind_label":"Tourism","source":"google_places","google_place_id":"ChIJ1ewMnCEtjjMR-WNfUS0zVVs","google_primary_type":"tourist_attraction","google_primary_type_label":"Tourist Attraction","google_types":["tourist_attraction","point_of_interest","establishment"],"google_maps_uri":"https://maps.google.com/?cid=6581222700203598841&g_mp=Cilnb29nbGUubWFwcy5wbGFjZXMudjEuUGxhY2VzLlNlYXJjaE5lYXJieRACGAQgAA","google_icon_mask_base_uri":"https://maps.gstatic.com/mapfiles/place_api/icons/v2/generic_pinlet","google_icon_background_color":"#13B5C7","formatted_address":"4R5Q+V9M, Besao, Mountain Province, Philippines","business_status":"OPERATIONAL","rating":null,"user_rating_count":null,"barangay_slug":"ambagiw","barangay_name":"Ambagiw"},"geometry":{"type":"Point","coordinates":[120.83840930000001,17.1097133]}},{"type":"Feature","properties":{"name":"Daoyasan Falls","kind":"tourism","kind_label":"Tourism","source":"google_places","google_place_id":"ChIJsSDcVbczjjMRug2tL62y0-E","google_primary_type":"hiking_area","google_primary_type_label":"Hiking Area","google_types":["hiking_area","sports_activity_location","point_of_interest","establishment"],"google_maps_uri":"https://maps.google.com/?cid=16272546335518690746&g_mp=Cilnb29nbGUubWFwcy5wbGFjZXMudjEuUGxhY2VzLlNlYXJjaE5lYXJieRACGAQgAA","google_icon_mask_base_uri":"https://maps.gstatic.com/mapfiles/place_api/icons/v2/hiking_pinlet","google_icon_background_color":"#4DB546","formatted_address":"5RCW+QXV, Besao, Mountain Province, Philippines","business_status":"OPERATIONAL","rating":5,"user_rating_count":2,"barangay_slug":"ambagiw","barangay_name":"Ambagiw"},"geometry":{"type":"Point","coordinates":[120.8474337,17.1719947]}},{"type":"Feature","properties":{"name":"Tagpew Falls","kind":"tourism","kind_label":"Tourism","source":"google_places","google_place_id":"ChIJTzgsmEMzjjMRK2eJfIkM-Qc","google_primary_type":"hiking_area","google_primary_type_label":"Hiking Area","google_types":["hiking_area","sports_activity_location","point_of_interest","establishment"],"google_maps_uri":"https://maps.google.com/?cid=574504212105881387&g_mp=Cilnb29nbGUubWFwcy5wbGFjZXMudjEuUGxhY2VzLlNlYXJjaE5lYXJieRACGAQgAA","google_icon_mask_base_uri":"https://maps.gstatic.com/mapfiles/place_api/icons/v2/hiking_pinlet","google_icon_background_color":"#4DB546","formatted_address":"Between Abra Ilocos Region and, 5RMQ+4V6, Besao, Mountain Province, Philippines","business_status":"OPERATIONAL","rating":5,"user_rating_count":2,"barangay_slug":"ambagiw","barangay_name":"Ambagiw"},"geometry":{"type":"Point","coordinates":[120.83965539999998,17.1827906]}},{"type":"Feature","properties":{"name":"Banguitan Barangay Hall","kind":"business","kind_label":"Business","source":"google_places","google_place_id":"ChIJ69icAhItjjMRCJ-PCcf8umE","google_primary_type":"community_center","google_primary_type_label":"Community Center","google_types":["community_center","event_venue","service","point_of_interest","establishment"],"google_maps_uri":"https://maps.google.com/?cid=7042218899136290568&g_mp=Cidnb29nbGUubWFwcy5wbGFjZXMudjEuUGxhY2VzLlNlYXJjaFRleHQQAhgEIAA","google_icon_mask_base_uri":"https://maps.gstatic.com/mapfiles/place_api/icons/v2/generic_pinlet","google_icon_background_color":"#7B9EB0","formatted_address":"3VG4+J5W, Besao Road, Besao, Mountain Province, Philippines","business_status":"OPERATIONAL","rating":4.5,"user_rating_count":2,"barangay_slug":"banguitan","barangay_name":"Banguitan"},"geometry":{"type":"Point","coordinates":[120.85545829999998,17.0766217]}},{"type":"Feature","properties":{"name":"Banguitan Day Care Center","kind":"school","kind_label":"School","source":"google_places","google_place_id":"ChIJxbDvM68tjjMRXEs8K3y_QI0","google_primary_type":"preschool","google_primary_type_label":"Preschool","google_types":["preschool","child_care_agency","school","educational_institution","point_of_interest","service","establishment"],"google_maps_uri":"https://maps.google.com/?cid=10178345697879542620&g_mp=Cilnb29nbGUubWFwcy5wbGFjZXMudjEuUGxhY2VzLlNlYXJjaE5lYXJieRACGAQgAA","google_icon_mask_base_uri":"https://maps.gstatic.com/mapfiles/place_api/icons/v2/school_pinlet","google_icon_background_color":"#7B9EB0","formatted_address":"3VG3+FRW, Banguitan, Besao, Mountain Province, Philippines","business_status":"OPERATIONAL","rating":5,"user_rating_count":1,"barangay_slug":"banguitan","barangay_name":"Banguitan"},"geometry":{"type":"Point","coordinates":[120.85456909999999,17.0762397]}},{"type":"Feature","properties":{"name":"Banguitan National High School","kind":"school","kind_label":"School","source":"google_places","google_place_id":"ChIJbTOxUPMsjjMRT1Si0UbIJAw","google_primary_type":"secondary_school","google_primary_type_label":"High school","google_types":["secondary_school","school","educational_institution","point_of_interest","establishment"],"google_maps_uri":"https://maps.google.com/?cid=875044434107061327&g_mp=Cilnb29nbGUubWFwcy5wbGFjZXMudjEuUGxhY2VzLlNlYXJjaE5lYXJieRACGAQgAA","google_icon_mask_base_uri":"https://maps.gstatic.com/mapfiles/place_api/icons/v2/school_pinlet","google_icon_background_color":"#7B9EB0","formatted_address":"Besao Road, Besao, Mountain Province, Philippines","business_status":"OPERATIONAL","rating":null,"user_rating_count":null,"barangay_slug":"banguitan","barangay_name":"Banguitan"},"geometry":{"type":"Point","coordinates":[120.85490689999997,17.076342]}},{"type":"Feature","properties":{"name":"Banguitan Assemblies of God","kind":"worship","kind_label":"Worship","source":"google_places","google_place_id":"ChIJ2bAexZotjjMRgG8EK8w3eR4","google_primary_type":"church","google_primary_type_label":"Church","google_types":["church","place_of_worship","association_or_organization","point_of_interest","establishment"],"google_maps_uri":"https://maps.google.com/?cid=2195847643354394496&g_mp=Cilnb29nbGUubWFwcy5wbGFjZXMudjEuUGxhY2VzLlNlYXJjaE5lYXJieRACGAQgAA","google_icon_mask_base_uri":"https://maps.gstatic.com/mapfiles/place_api/icons/v2/worship_christian_pinlet","google_icon_background_color":"#7B9EB0","formatted_address":"Teng-ab, Besao, Mountain Province, Philippines","business_status":"OPERATIONAL","rating":null,"user_rating_count":null,"barangay_slug":"banguitan","barangay_name":"Banguitan"},"geometry":{"type":"Point","coordinates":[120.85458669999998,17.076646999999998]}},{"type":"Feature","properties":{"name":"St. Mark's Church","kind":"worship","kind_label":"Worship","source":"google_places","google_place_id":"ChIJ_6F8aQAtjjMRYhXNwtr28kA","google_primary_type":"church","google_primary_type_label":"Church","google_types":["church","place_of_worship","point_of_interest","association_or_organization","establishment"],"google_maps_uri":"https://maps.google.com/?cid=4680074382222890338&g_mp=Cilnb29nbGUubWFwcy5wbGFjZXMudjEuUGxhY2VzLlNlYXJjaE5lYXJieRACGAQgAA","google_icon_mask_base_uri":"https://maps.gstatic.com/mapfiles/place_api/icons/v2/worship_christian_pinlet","google_icon_background_color":"#7B9EB0","formatted_address":"3VG3+FRW, Besao, Mountain Province, Philippines","business_status":"OPERATIONAL","rating":null,"user_rating_count":null,"barangay_slug":"banguitan","barangay_name":"Banguitan"},"geometry":{"type":"Point","coordinates":[120.855041,17.0769935]}},{"type":"Feature","properties":{"name":"Besao Elementary School","kind":"school","kind_label":"School","source":"google_places","google_place_id":"ChIJd3e7Yx4tjjMRxiJevItIBGI","google_primary_type":"primary_school","google_primary_type_label":"Elementary School","google_types":["primary_school","school","educational_institution","point_of_interest","establishment"],"google_maps_uri":"https://maps.google.com/?cid=7062849880621720262&g_mp=Cilnb29nbGUubWFwcy5wbGFjZXMudjEuUGxhY2VzLlNlYXJjaE5lYXJieRACGAQgAA","google_icon_mask_base_uri":"https://maps.gstatic.com/mapfiles/place_api/icons/v2/school_pinlet","google_icon_background_color":"#7B9EB0","formatted_address":"3VP9+35J, Besao East (Besao Proper), Besao, Mountain Province, Philippines","business_status":"OPERATIONAL","rating":null,"user_rating_count":null,"barangay_slug":"besao-east","barangay_name":"Besao East (Besao Proper)"},"geometry":{"type":"Point","coordinates":[120.86789060000001,17.0852125]}},{"type":"Feature","properties":{"name":"Badz Assorted Items","kind":"business","kind_label":"Business","source":"google_places","google_place_id":"ChIJ_xUJa7UtjjMR2j7y4TULy7k","google_primary_type":"store","google_primary_type_label":"Store","google_types":["store","point_of_interest","establishment"],"google_maps_uri":"https://maps.google.com/?cid=13387806643340852954&g_mp=Cilnb29nbGUubWFwcy5wbGFjZXMudjEuUGxhY2VzLlNlYXJjaE5lYXJieRACGAQgAA","google_icon_mask_base_uri":"https://maps.gstatic.com/mapfiles/place_api/icons/v2/shopping_pinlet","google_icon_background_color":"#4B96F3","formatted_address":"3VM7+X2W Mt Provide, Besao Road, Besao, 2618 Mountain Province, Philippines","business_status":"OPERATIONAL","rating":null,"user_rating_count":null,"barangay_slug":"besao-west","barangay_name":"Besao West"},"geometry":{"type":"Point","coordinates":[120.86258339999999,17.0849892]}},{"type":"Feature","properties":{"name":"KitKit's Store","kind":"business","kind_label":"Business","source":"google_places","google_place_id":"ChIJYz3tZQAtjjMR3L-NHR_6FLw","google_primary_type":"store","google_primary_type_label":"Store","google_types":["store","point_of_interest","establishment"],"google_maps_uri":"https://maps.google.com/?cid=13552732190211424220&g_mp=Cilnb29nbGUubWFwcy5wbGFjZXMudjEuUGxhY2VzLlNlYXJjaE5lYXJieRACGAQgAA","google_icon_mask_base_uri":"https://maps.gstatic.com/mapfiles/place_api/icons/v2/shopping_pinlet","google_icon_background_color":"#4B96F3","formatted_address":"3VM7+MJQ, Besao Road, Besao, Mountain Province, Philippines","business_status":"OPERATIONAL","rating":null,"user_rating_count":null,"barangay_slug":"besao-west","barangay_name":"Besao West"},"geometry":{"type":"Point","coordinates":[120.8641095,17.0842019]}},{"type":"Feature","properties":{"name":"Proceed Credit Cooperative","kind":"business","kind_label":"Business","source":"google_places","google_place_id":"ChIJW8rDW-UsjjMRMlS6TZcPYm8","google_primary_type":"bank","google_primary_type_label":"Bank","google_types":["bank","finance","point_of_interest","establishment"],"google_maps_uri":"https://maps.google.com/?cid=8025994628446180402&g_mp=Cilnb29nbGUubWFwcy5wbGFjZXMudjEuUGxhY2VzLlNlYXJjaE5lYXJieRACGAQgAA","google_icon_mask_base_uri":"https://maps.gstatic.com/mapfiles/place_api/icons/v2/bank-intl_pinlet","google_icon_background_color":"#909CE1","formatted_address":"3VM6+XWQ, Road, Besao, 2618 Mountain Province, Philippines","business_status":"OPERATIONAL","rating":null,"user_rating_count":null,"barangay_slug":"besao-west","barangay_name":"Besao West"},"geometry":{"type":"Point","coordinates":[120.8623719,17.0849506]}},{"type":"Feature","properties":{"name":"St. Anne's Church Congregation Credit Cooperative (Sacccc)","kind":"business","kind_label":"Business","source":"google_places","google_place_id":"ChIJS7j8hO8sjjMRijSdTe1sTDk","google_primary_type":"bank","google_primary_type_label":"Bank","google_types":["bank","finance","point_of_interest","establishment"],"google_maps_uri":"https://maps.google.com/?cid=4128794724857099402&g_mp=Cilnb29nbGUubWFwcy5wbGFjZXMudjEuUGxhY2VzLlNlYXJjaE5lYXJieRACGAQgAA","google_icon_mask_base_uri":"https://maps.gstatic.com/mapfiles/place_api/icons/v2/bank-intl_pinlet","google_icon_background_color":"#909CE1","formatted_address":"3VM7+GFX, Besao Road, Road, Besao, 2618 Mountain Province, Philippines","business_status":"OPERATIONAL","rating":null,"user_rating_count":null,"barangay_slug":"besao-west","barangay_name":"Besao West"},"geometry":{"type":"Point","coordinates":[120.86372849999998,17.083860899999998]}},{"type":"Feature","properties":{"name":"BANGAAN'S STORE","kind":"market","kind_label":"Market","source":"google_places","google_place_id":"ChIJX3r1QwAtjjMRp0psbelNEmE","google_primary_type":"general_store","google_primary_type_label":"General Store","google_types":["general_store","food_store","store","point_of_interest","food","establishment"],"google_maps_uri":"https://maps.google.com/?cid=6994738836218333863&g_mp=Cilnb29nbGUubWFwcy5wbGFjZXMudjEuUGxhY2VzLlNlYXJjaE5lYXJieRACGAQgAA","google_icon_mask_base_uri":"https://maps.gstatic.com/mapfiles/place_api/icons/v2/shopping_pinlet","google_icon_background_color":"#4B96F3","formatted_address":"3VM7+P4G, West, Besao, Mountain Province, Philippines","business_status":"OPERATIONAL","rating":null,"user_rating_count":null,"barangay_slug":"besao-west","barangay_name":"Besao West"},"geometry":{"type":"Point","coordinates":[120.86283069999999,17.084315399999998]}},{"type":"Feature","properties":{"name":"Barangay Food Terminal - Besao Multi Purpose Cooperative","kind":"business","kind_label":"Business","source":"google_places","google_place_id":"ChIJOUtNSQ8sjjMRPGPuFytaUVY","google_primary_type":"market","google_primary_type_label":"Market","google_types":["market","point_of_interest","establishment"],"google_maps_uri":"https://maps.google.com/?cid=6219851701506958140&g_mp=Cidnb29nbGUubWFwcy5wbGFjZXMudjEuUGxhY2VzLlNlYXJjaFRleHQQAhgEIAA","google_icon_mask_base_uri":"https://maps.gstatic.com/mapfiles/place_api/icons/v2/shopping_pinlet","google_icon_background_color":"#4B96F3","formatted_address":"3R88+GJJ, Besao, 2618 Mountain Province, Philippines","business_status":"OPERATIONAL","rating":null,"user_rating_count":null,"barangay_slug":"catengan","barangay_name":"Catengan"},"geometry":{"type":"Point","coordinates":[120.816513,17.0663429]}},{"type":"Feature","properties":{"name":"Eatery Food Restaurant","kind":"business","kind_label":"Business","source":"google_places","google_place_id":"ChIJ9fSSUAAtjjMRrh9c6bl_V64","google_primary_type":"restaurant","google_primary_type_label":"Restaurant","google_types":["restaurant","point_of_interest","food","establishment"],"google_maps_uri":"https://maps.google.com/?cid=12562650122034093998&g_mp=Cilnb29nbGUubWFwcy5wbGFjZXMudjEuUGxhY2VzLlNlYXJjaE5lYXJieRACGAQgAA","google_icon_mask_base_uri":"https://maps.gstatic.com/mapfiles/place_api/icons/v2/restaurant_pinlet","google_icon_background_color":"#FF9E67","formatted_address":"3RP7+V54, Besao-Panabungen Rd, Besao, Mountain Province, Philippines","business_status":"OPERATIONAL","rating":null,"user_rating_count":null,"barangay_slug":"catengan","barangay_name":"Catengan"},"geometry":{"type":"Point","coordinates":[120.81295670000002,17.0871343]}},{"type":"Feature","properties":{"name":"Panabungen","kind":"business","kind_label":"Business","source":"google_places","google_place_id":"ChIJFXguIwAvjjMRtqSISwTfNs8","google_primary_type":"store","google_primary_type_label":"Store","google_types":["store","point_of_interest","establishment"],"google_maps_uri":"https://maps.google.com/?cid=14931366824133567670&g_mp=Cilnb29nbGUubWFwcy5wbGFjZXMudjEuUGxhY2VzLlNlYXJjaE5lYXJieRACGAQgAA","google_icon_mask_base_uri":"https://maps.gstatic.com/mapfiles/place_api/icons/v2/shopping_pinlet","google_icon_background_color":"#4B96F3","formatted_address":"Panabungen,laylaya, 3QQX+R8Q, Besao, Mountain Province, Philippines","business_status":"OPERATIONAL","rating":null,"user_rating_count":null,"barangay_slug":"catengan","barangay_name":"Catengan"},"geometry":{"type":"Point","coordinates":[120.7983577,17.0895829]}},{"type":"Feature","properties":{"name":"Panabungen School of Arts, Trades and Home Industries","kind":"business","kind_label":"Business","source":"google_places","google_place_id":"ChIJ0xYEYTIsjjMRyE0w1Mg8Rts","google_primary_type":"educational_institution","google_primary_type_label":"Educational Institution","google_types":["educational_institution","point_of_interest","establishment"],"google_maps_uri":"https://maps.google.com/?cid=15800383175927025096&g_mp=Cidnb29nbGUubWFwcy5wbGFjZXMudjEuUGxhY2VzLlNlYXJjaFRleHQQAhgEIAA","google_icon_mask_base_uri":"https://maps.gstatic.com/mapfiles/place_api/icons/v2/school_pinlet","google_icon_background_color":"#7B9EB0","formatted_address":"Laylaya, 4R28+2M3, Besao, Mountain Province, Philippines","business_status":"OPERATIONAL","rating":null,"user_rating_count":null,"barangay_slug":"catengan","barangay_name":"Catengan"},"geometry":{"type":"Point","coordinates":[120.8166656,17.1000004]}},{"type":"Feature","properties":{"name":"Ambagiw Elementary School","kind":"govt","kind_label":"Government","source":"google_places","google_place_id":"ChIJDbJHY0ssjjMR4ZDjUVlQOKQ","google_primary_type":"government_office","google_primary_type_label":"Government Office","google_types":["government_office","school","educational_institution","point_of_interest","establishment"],"google_maps_uri":"https://maps.google.com/?cid=11833296365472157921&g_mp=Cilnb29nbGUubWFwcy5wbGFjZXMudjEuUGxhY2VzLlNlYXJjaE5lYXJieRACGAQgAA","google_icon_mask_base_uri":"https://maps.gstatic.com/mapfiles/place_api/icons/v2/school_pinlet","google_icon_background_color":"#7B9EB0","formatted_address":"Kin-iway-Tambolan Road, 3RXJ+8X2, Besao, 2618 Mountain Province, Philippines","business_status":"CLOSED_TEMPORARILY","rating":null,"user_rating_count":null,"barangay_slug":"catengan","barangay_name":"Catengan"},"geometry":{"type":"Point","coordinates":[120.83238699999998,17.09826]}},{"type":"Feature","properties":{"name":"Dandanac Elementary School","kind":"govt","kind_label":"Government","source":"google_places","google_place_id":"ChIJDbJHY0ssjjMR0kr-SfIBXaU","google_primary_type":"government_office","google_primary_type_label":"Government Office","google_types":["government_office","school","educational_institution","point_of_interest","establishment"],"google_maps_uri":"https://maps.google.com/?cid=11915682329227315922&g_mp=Cilnb29nbGUubWFwcy5wbGFjZXMudjEuUGxhY2VzLlNlYXJjaE5lYXJieRACGAQgAA","google_icon_mask_base_uri":"https://maps.gstatic.com/mapfiles/place_api/icons/v2/school_pinlet","google_icon_background_color":"#7B9EB0","formatted_address":"Kin-iway-Tambolan Road, 3RXJ+8X2, Besao, 2618 Mountain Province, Philippines","business_status":"CLOSED_TEMPORARILY","rating":null,"user_rating_count":null,"barangay_slug":"catengan","barangay_name":"Catengan"},"geometry":{"type":"Point","coordinates":[120.83238699999998,17.09826]}},{"type":"Feature","properties":{"name":"Gueday Elementary School","kind":"govt","kind_label":"Government","source":"google_places","google_place_id":"ChIJDbJHY0ssjjMRbVlQDAwsUlg","google_primary_type":"government_office","google_primary_type_label":"Government Office","google_types":["government_office","school","educational_institution","point_of_interest","establishment"],"google_maps_uri":"https://maps.google.com/?cid=6364197653685754221&g_mp=Cilnb29nbGUubWFwcy5wbGFjZXMudjEuUGxhY2VzLlNlYXJjaE5lYXJieRACGAQgAA","google_icon_mask_base_uri":"https://maps.gstatic.com/mapfiles/place_api/icons/v2/school_pinlet","google_icon_background_color":"#7B9EB0","formatted_address":"Kin-iway-Tambolan Road, 3RXJ+8X2, Besao, 2618 Mountain Province, Philippines","business_status":"CLOSED_TEMPORARILY","rating":null,"user_rating_count":null,"barangay_slug":"catengan","barangay_name":"Catengan"},"geometry":{"type":"Point","coordinates":[120.83238699999998,17.09826]}},{"type":"Feature","properties":{"name":"Panabungen Sschool of Arts, trades, and Home Industries","kind":"govt","kind_label":"Government","source":"google_places","google_place_id":"ChIJDbJHY0ssjjMRfQFyZSe9VVs","google_primary_type":"government_office","google_primary_type_label":"Government Office","google_types":["government_office","school","educational_institution","point_of_interest","establishment"],"google_maps_uri":"https://maps.google.com/?cid=6581374407375192445&g_mp=Cilnb29nbGUubWFwcy5wbGFjZXMudjEuUGxhY2VzLlNlYXJjaE5lYXJieRACGAQgAA","google_icon_mask_base_uri":"https://maps.gstatic.com/mapfiles/place_api/icons/v2/school_pinlet","google_icon_background_color":"#7B9EB0","formatted_address":"Kin-iway-Tambolan Road, 3RXJ+8X2, Besao, 2618 Mountain Province, Philippines","business_status":"CLOSED_TEMPORARILY","rating":null,"user_rating_count":null,"barangay_slug":"catengan","barangay_name":"Catengan"},"geometry":{"type":"Point","coordinates":[120.83238699999998,17.09826]}},{"type":"Feature","properties":{"name":"Tambuan Elementary School","kind":"govt","kind_label":"Government","source":"google_places","google_place_id":"ChIJDbJHY0ssjjMRp0UdMpIULto","google_primary_type":"government_office","google_primary_type_label":"Government Office","google_types":["government_office","school","educational_institution","point_of_interest","establishment"],"google_maps_uri":"https://maps.google.com/?cid=15721525967335540135&g_mp=Cilnb29nbGUubWFwcy5wbGFjZXMudjEuUGxhY2VzLlNlYXJjaE5lYXJieRACGAQgAA","google_icon_mask_base_uri":"https://maps.gstatic.com/mapfiles/place_api/icons/v2/school_pinlet","google_icon_background_color":"#7B9EB0","formatted_address":"3RXJ+8X2 Kin-iway, Tambolan Road, Besao, 2618 Mountain Province, Philippines","business_status":"CLOSED_TEMPORARILY","rating":null,"user_rating_count":null,"barangay_slug":"catengan","barangay_name":"Catengan"},"geometry":{"type":"Point","coordinates":[120.83238699999998,17.09826]}},{"type":"Feature","properties":{"name":"Suquib Primary School","kind":"school","kind_label":"School","source":"google_places","google_place_id":"ChIJ0xYEYTIsjjMR-2K6GBGMMTI","google_primary_type":"primary_school","google_primary_type_label":"Primary School","google_types":["primary_school","school","educational_institution","point_of_interest","establishment"],"google_maps_uri":"https://maps.google.com/?cid=3616825980812419835&g_mp=Cilnb29nbGUubWFwcy5wbGFjZXMudjEuUGxhY2VzLlNlYXJjaE5lYXJieRACGAQgAA","google_icon_mask_base_uri":"https://maps.gstatic.com/mapfiles/place_api/icons/v2/school_pinlet","google_icon_background_color":"#7B9EB0","formatted_address":"Suquib, 4R28+2M3, Besao, Mountain Province, Philippines","business_status":"OPERATIONAL","rating":null,"user_rating_count":null,"barangay_slug":"catengan","barangay_name":"Catengan"},"geometry":{"type":"Point","coordinates":[120.8166656,17.1000004]}},{"type":"Feature","properties":{"name":"St. Dunstan (anglican)","kind":"worship","kind_label":"Worship","source":"google_places","google_place_id":"ChIJr5_uQAAtjjMRg0iYt4utX3o","google_primary_type":"church","google_primary_type_label":"Church","google_types":["church","place_of_worship","association_or_organization","point_of_interest","establishment"],"google_maps_uri":"https://maps.google.com/?cid=8817957411006990467&g_mp=Cilnb29nbGUubWFwcy5wbGFjZXMudjEuUGxhY2VzLlNlYXJjaE5lYXJieRACGAQgAA","google_icon_mask_base_uri":"https://maps.gstatic.com/mapfiles/place_api/icons/v2/worship_christian_pinlet","google_icon_background_color":"#7B9EB0","formatted_address":"3RP4+63F, Besao, Mountain Province, Philippines","business_status":"OPERATIONAL","rating":null,"user_rating_count":null,"barangay_slug":"catengan","barangay_name":"Catengan"},"geometry":{"type":"Point","coordinates":[120.80518259999998,17.085557599999998]}},{"type":"Feature","properties":{"name":"Dap-ay Awaw","kind":"tourism","kind_label":"Tourism","source":"google_places","google_place_id":"ChIJi_B7MQAzjjMR54fIgC7Yk6k","google_primary_type":"tourist_attraction","google_primary_type_label":"Tourist Attraction","google_types":["tourist_attraction","point_of_interest","establishment"],"google_maps_uri":"https://maps.google.com/?cid=12219347908227008487&g_mp=Cilnb29nbGUubWFwcy5wbGFjZXMudjEuUGxhY2VzLlNlYXJjaE5lYXJieRACGAQgAA","google_icon_mask_base_uri":"https://maps.gstatic.com/mapfiles/place_api/icons/v2/generic_pinlet","google_icon_background_color":"#13B5C7","formatted_address":"4VX9+MXH, Besao, Mountain Province, Philippines","business_status":"OPERATIONAL","rating":1,"user_rating_count":1,"barangay_slug":"gueday","barangay_name":"Gueday"},"geometry":{"type":"Point","coordinates":[120.86999080000001,17.149184599999998]}},{"type":"Feature","properties":{"name":"St. Philip's Mission","kind":"worship","kind_label":"Worship","source":"google_places","google_place_id":"ChIJNzpp7GstjjMRzmgw2HZleN0","google_primary_type":"church","google_primary_type_label":"Church","google_types":["church","place_of_worship","association_or_organization","point_of_interest","establishment"],"google_maps_uri":"https://maps.google.com/?cid=15958616840694950094&g_mp=Cilnb29nbGUubWFwcy5wbGFjZXMudjEuUGxhY2VzLlNlYXJjaE5lYXJieRACGAQgAA","google_icon_mask_base_uri":"https://maps.gstatic.com/mapfiles/place_api/icons/v2/worship_christian_pinlet","google_icon_background_color":"#7B9EB0","formatted_address":"4V99+Q76, Besao, Mountain Province, Philippines","business_status":"OPERATIONAL","rating":null,"user_rating_count":null,"barangay_slug":"gueday","barangay_name":"Gueday"},"geometry":{"type":"Point","coordinates":[120.8681359,17.1194131]}},{"type":"Feature","properties":{"name":"AJB Store.","kind":"business","kind_label":"Business","source":"google_places","google_place_id":"ChIJtQLV2QItjjMRwKxxxn2-1w8","google_primary_type":"store","google_primary_type_label":"Store","google_types":["store","point_of_interest","establishment"],"google_maps_uri":"https://maps.google.com/?cid=1141590477971238080&g_mp=Cilnb29nbGUubWFwcy5wbGFjZXMudjEuUGxhY2VzLlNlYXJjaE5lYXJieRACGAQgAA","google_icon_mask_base_uri":"https://maps.gstatic.com/mapfiles/place_api/icons/v2/shopping_pinlet","google_icon_background_color":"#4B96F3","formatted_address":"Kin-iway, Besao, 2618 Mountain Province, Philippines","business_status":"OPERATIONAL","rating":5,"user_rating_count":2,"barangay_slug":"kin-iway","barangay_name":"Kin-iway (Pob.)"},"geometry":{"type":"Point","coordinates":[120.85854520000001,17.0958206]}},{"type":"Feature","properties":{"name":"Ballang's Store","kind":"business","kind_label":"Business","source":"google_places","google_place_id":"ChIJz1vmBQAtjjMRU_QZwmWCtoQ","google_primary_type":"store","google_primary_type_label":"Store","google_types":["store","point_of_interest","establishment"],"google_maps_uri":"https://maps.google.com/?cid=9562974232327615571&g_mp=Cilnb29nbGUubWFwcy5wbGFjZXMudjEuUGxhY2VzLlNlYXJjaE5lYXJieRACGAQgAA","google_icon_mask_base_uri":"https://maps.gstatic.com/mapfiles/place_api/icons/v2/shopping_pinlet","google_icon_background_color":"#4B96F3","formatted_address":"3VW5+C65, Besao, Mountain Province, Philippines","business_status":"OPERATIONAL","rating":null,"user_rating_count":null,"barangay_slug":"kin-iway","barangay_name":"Kin-iway (Pob.)"},"geometry":{"type":"Point","coordinates":[120.85813410000002,17.0960449]}},{"type":"Feature","properties":{"name":"Besao Basketball Court","kind":"business","kind_label":"Business","source":"google_places","google_place_id":"ChIJ4zzU6_0sjjMRS5J7RIfLTR4","google_primary_type":null,"google_primary_type_label":null,"google_types":["premise","street_address"],"google_maps_uri":"https://maps.google.com/?cid=2183625176174531147&g_mp=Cidnb29nbGUubWFwcy5wbGFjZXMudjEuUGxhY2VzLlNlYXJjaFRleHQQAhgEIAA","google_icon_mask_base_uri":"https://maps.gstatic.com/mapfiles/place_api/icons/v2/generic_pinlet","google_icon_background_color":"#7B9EB0","formatted_address":"Besao Basketball Court, Besao Road, Besao, Mountain Province, Philippines","business_status":null,"rating":null,"user_rating_count":null,"barangay_slug":"kin-iway","barangay_name":"Kin-iway (Pob.)"},"geometry":{"type":"Point","coordinates":[120.8567356,17.094969199999998]}},{"type":"Feature","properties":{"name":"Besao Water Refilling Station and Snack bar","kind":"business","kind_label":"Business","source":"google_places","google_place_id":"ChIJxW0lLBstjjMRDmY5ToU5lXs","google_primary_type":null,"google_primary_type_label":null,"google_types":["point_of_interest","establishment"],"google_maps_uri":"https://maps.google.com/?cid=8905087082900841998&g_mp=Cidnb29nbGUubWFwcy5wbGFjZXMudjEuUGxhY2VzLlNlYXJjaFRleHQQAhgEIAA","google_icon_mask_base_uri":"https://maps.gstatic.com/mapfiles/place_api/icons/v2/generic_pinlet","google_icon_background_color":"#7B9EB0","formatted_address":"Balaanboen, Street, Besao, 2618 Mountain Province, Philippines","business_status":"OPERATIONAL","rating":null,"user_rating_count":null,"barangay_slug":"kin-iway","barangay_name":"Kin-iway (Pob.)"},"geometry":{"type":"Point","coordinates":[120.85539460000001,17.0955953]}},{"type":"Feature","properties":{"name":"Cadiogan’s store","kind":"business","kind_label":"Business","source":"google_places","google_place_id":"ChIJWxz6BAAtjjMRu7dPQ_E18wE","google_primary_type":"store","google_primary_type_label":"Store","google_types":["store","point_of_interest","establishment"],"google_maps_uri":"https://maps.google.com/?cid=140515323711305659&g_mp=Cilnb29nbGUubWFwcy5wbGFjZXMudjEuUGxhY2VzLlNlYXJjaE5lYXJieRACGAQgAA","google_icon_mask_base_uri":"https://maps.gstatic.com/mapfiles/place_api/icons/v2/shopping_pinlet","google_icon_background_color":"#4B96F3","formatted_address":"3VW5+C7G, Sagada - Besao Rd, Besao, Mountain Province, Philippines","business_status":"OPERATIONAL","rating":null,"user_rating_count":null,"barangay_slug":"kin-iway","barangay_name":"Kin-iway (Pob.)"},"geometry":{"type":"Point","coordinates":[120.85819079999999,17.096052]}},{"type":"Feature","properties":{"name":"Car repair shop","kind":"business","kind_label":"Business","source":"google_places","google_place_id":"ChIJ66uIZwAtjjMRIo89YGNsoL0","google_primary_type":"car_repair","google_primary_type_label":"Car repair and maintenance service","google_types":["car_repair","point_of_interest","service","establishment"],"google_maps_uri":"https://maps.google.com/?cid=13664040443514294050&g_mp=Cidnb29nbGUubWFwcy5wbGFjZXMudjEuUGxhY2VzLlNlYXJjaFRleHQQAhgEIAA","google_icon_mask_base_uri":"https://maps.gstatic.com/mapfiles/place_api/icons/v2/generic_pinlet","google_icon_background_color":"#7B9EB0","formatted_address":"3VW5+G69, Besao, Mountain Province, Philippines","business_status":"OPERATIONAL","rating":null,"user_rating_count":null,"barangay_slug":"kin-iway","barangay_name":"Kin-iway (Pob.)"},"geometry":{"type":"Point","coordinates":[120.8580935,17.096303199999998]}},{"type":"Feature","properties":{"name":"GZ studio","kind":"business","kind_label":"Business","source":"google_places","google_place_id":"ChIJ7dG2dRctjjMRw0IrQZ_hl9s","google_primary_type":"service","google_primary_type_label":"Services","google_types":["service","point_of_interest","establishment"],"google_maps_uri":"https://maps.google.com/?cid=15823363889898930883&g_mp=Cidnb29nbGUubWFwcy5wbGFjZXMudjEuUGxhY2VzLlNlYXJjaFRleHQQAhgEIAA","google_icon_mask_base_uri":"https://maps.gstatic.com/mapfiles/place_api/icons/v2/generic_pinlet","google_icon_background_color":"#7B9EB0","formatted_address":"Besao, 2618 Mountain Province, Philippines","business_status":"OPERATIONAL","rating":5,"user_rating_count":7,"barangay_slug":"kin-iway","barangay_name":"Kin-iway (Pob.)"},"geometry":{"type":"Point","coordinates":[120.85551259999998,17.0957033]}},{"type":"Feature","properties":{"name":"Imelda store","kind":"business","kind_label":"Business","source":"google_places","google_place_id":"ChIJA0DhbQAtjjMRxt4zt7A5_Vo","google_primary_type":"store","google_primary_type_label":"Store","google_types":["store","point_of_interest","establishment"],"google_maps_uri":"https://maps.google.com/?cid=6556460063671967430&g_mp=Cilnb29nbGUubWFwcy5wbGFjZXMudjEuUGxhY2VzLlNlYXJjaE5lYXJieRACGAQgAA","google_icon_mask_base_uri":"https://maps.gstatic.com/mapfiles/place_api/icons/v2/shopping_pinlet","google_icon_background_color":"#4B96F3","formatted_address":"3VW4+3V2, Besao Road, Besao, Mountain Province, Philippines","business_status":"OPERATIONAL","rating":null,"user_rating_count":null,"barangay_slug":"kin-iway","barangay_name":"Kin-iway (Pob.)"},"geometry":{"type":"Point","coordinates":[120.85710379999999,17.0951815]}},{"type":"Feature","properties":{"name":"JN Variety Store","kind":"business","kind_label":"Business","source":"google_places","google_place_id":"ChIJjeXsbQAtjjMR1Codior9Qs4","google_primary_type":"store","google_primary_type_label":"Store","google_types":["store","point_of_interest","establishment"],"google_maps_uri":"https://maps.google.com/?cid=14862720491740539604&g_mp=Cilnb29nbGUubWFwcy5wbGFjZXMudjEuUGxhY2VzLlNlYXJjaE5lYXJieRACGAQgAA","google_icon_mask_base_uri":"https://maps.gstatic.com/mapfiles/place_api/icons/v2/shopping_pinlet","google_icon_background_color":"#4B96F3","formatted_address":"3VW4+4JH Kin-iway, Besao, Mountain Province, Philippines","business_status":"OPERATIONAL","rating":null,"user_rating_count":null,"barangay_slug":"kin-iway","barangay_name":"Kin-iway (Pob.)"},"geometry":{"type":"Point","coordinates":[120.85660929999999,17.0953236]}},{"type":"Feature","properties":{"name":"Lianeth Variety Store","kind":"business","kind_label":"Business","source":"google_places","google_place_id":"ChIJfeJENAQtjjMRogUHN-A2nnI","google_primary_type":"store","google_primary_type_label":"Store","google_types":["manufacturer","store","supplier","point_of_interest","establishment"],"google_maps_uri":"https://maps.google.com/?cid=8259099103267849634&g_mp=Cilnb29nbGUubWFwcy5wbGFjZXMudjEuUGxhY2VzLlNlYXJjaE5lYXJieRACGAQgAA","google_icon_mask_base_uri":"https://maps.gstatic.com/mapfiles/place_api/icons/v2/shopping_pinlet","google_icon_background_color":"#4B96F3","formatted_address":"3VW5+G69, Besao, Mountain Province, Philippines","business_status":"OPERATIONAL","rating":null,"user_rating_count":null,"barangay_slug":"kin-iway","barangay_name":"Kin-iway (Pob.)"},"geometry":{"type":"Point","coordinates":[120.8581015,17.096287999999998]}},{"type":"Feature","properties":{"name":"Masillem Eatery","kind":"business","kind_label":"Business","source":"google_places","google_place_id":"ChIJv4xZZIEtjjMR05G5vdeC5vY","google_primary_type":"restaurant","google_primary_type_label":"Restaurant","google_types":["restaurant","point_of_interest","food","establishment"],"google_maps_uri":"https://maps.google.com/?cid=17791051241086357971&g_mp=Cilnb29nbGUubWFwcy5wbGFjZXMudjEuUGxhY2VzLlNlYXJjaE5lYXJieRACGAQgAA","google_icon_mask_base_uri":"https://maps.gstatic.com/mapfiles/place_api/icons/v2/restaurant_pinlet","google_icon_background_color":"#FF9E67","formatted_address":"3VW4+5G9, Besao, Mountain Province, Philippines","business_status":"OPERATIONAL","rating":5,"user_rating_count":1,"barangay_slug":"kin-iway","barangay_name":"Kin-iway (Pob.)"},"geometry":{"type":"Point","coordinates":[120.8563722,17.0954175]}},{"type":"Feature","properties":{"name":"N-Eights Hardware Store","kind":"business","kind_label":"Business","source":"google_places","google_place_id":"ChIJAxovciktjjMR-og3IPPr9OU","google_primary_type":"hardware_store","google_primary_type_label":"Hardware Store","google_types":["hardware_store","building_materials_store","store","point_of_interest","establishment"],"google_maps_uri":"https://maps.google.com/?cid=16570128358452988154&g_mp=Cilnb29nbGUubWFwcy5wbGFjZXMudjEuUGxhY2VzLlNlYXJjaE5lYXJieRACGAQgAA","google_icon_mask_base_uri":"https://maps.gstatic.com/mapfiles/place_api/icons/v2/shopping_pinlet","google_icon_background_color":"#4B96F3","formatted_address":"3VW4+6W8, Sagada - Besao Rd, Besao, Mountain Province, Philippines","business_status":"OPERATIONAL","rating":5,"user_rating_count":2,"barangay_slug":"kin-iway","barangay_name":"Kin-iway (Pob.)"},"geometry":{"type":"Point","coordinates":[120.85733959999999,17.095541]}},{"type":"Feature","properties":{"name":"N44 photo shop & repair ser8","kind":"business","kind_label":"Business","source":"google_places","google_place_id":"ChIJ0-QvfQAtjjMRGaxCuhKsK-g","google_primary_type":"electronics_store","google_primary_type_label":"Electronics Store","google_types":["home_goods_store","electronics_store","store","service","point_of_interest","establishment"],"google_maps_uri":"https://maps.google.com/?cid=16729654437232159769&g_mp=Cilnb29nbGUubWFwcy5wbGFjZXMudjEuUGxhY2VzLlNlYXJjaE5lYXJieRACGAQgAA","google_icon_mask_base_uri":"https://maps.gstatic.com/mapfiles/place_api/icons/v2/shopping_pinlet","google_icon_background_color":"#4B96F3","formatted_address":"3VW4+6W8, Sagada - Besao Rd, Besao, Mountain Province, Philippines","business_status":"OPERATIONAL","rating":null,"user_rating_count":null,"barangay_slug":"kin-iway","barangay_name":"Kin-iway (Pob.)"},"geometry":{"type":"Point","coordinates":[120.85730559999998,17.0954925]}},{"type":"Feature","properties":{"name":"Pekas Store","kind":"business","kind_label":"Business","source":"google_places","google_place_id":"ChIJDxQDZAAtjjMRDQ15CXy8su4","google_primary_type":"store","google_primary_type_label":"Store","google_types":["store","point_of_interest","establishment"],"google_maps_uri":"https://maps.google.com/?cid=17200017167802240269&g_mp=Cilnb29nbGUubWFwcy5wbGFjZXMudjEuUGxhY2VzLlNlYXJjaE5lYXJieRACGAQgAA","google_icon_mask_base_uri":"https://maps.gstatic.com/mapfiles/place_api/icons/v2/shopping_pinlet","google_icon_background_color":"#4B96F3","formatted_address":"3VW4+5G9, Besao, Mountain Province, Philippines","business_status":"OPERATIONAL","rating":null,"user_rating_count":null,"barangay_slug":"kin-iway","barangay_name":"Kin-iway (Pob.)"},"geometry":{"type":"Point","coordinates":[120.85669679999998,17.095326099999998]}},{"type":"Feature","properties":{"name":"The soulful cup Ml's milk tea","kind":"business","kind_label":"Business","source":"google_places","google_place_id":"ChIJ38CyQBktjjMRS2M4tuyPIgs","google_primary_type":null,"google_primary_type_label":null,"google_types":["point_of_interest","establishment"],"google_maps_uri":"https://maps.google.com/?cid=802361930457572171&g_mp=Cidnb29nbGUubWFwcy5wbGFjZXMudjEuUGxhY2VzLlNlYXJjaFRleHQQAhgEIAA","google_icon_mask_base_uri":"https://maps.gstatic.com/mapfiles/place_api/icons/v2/generic_pinlet","google_icon_background_color":"#7B9EB0","formatted_address":"kin-iway, drive from, Sagada - Besao Rd, Besao, 2618 Mountain Province, Philippines","business_status":"OPERATIONAL","rating":5,"user_rating_count":1,"barangay_slug":"kin-iway","barangay_name":"Kin-iway (Pob.)"},"geometry":{"type":"Point","coordinates":[120.85725769999999,17.0954333]}},{"type":"Feature","properties":{"name":"GOLINSAN PHARMACY","kind":"clinic","kind_label":"Clinic","source":"google_places","google_place_id":"ChIJzShAX3ctjjMR8AnQcWPSFEQ","google_primary_type":"drugstore","google_primary_type_label":"Drug Store","google_types":["drugstore","store","health","point_of_interest","establishment"],"google_maps_uri":"https://maps.google.com/?cid=4905777218666367472&g_mp=Cilnb29nbGUubWFwcy5wbGFjZXMudjEuUGxhY2VzLlNlYXJjaE5lYXJieRACGAQgAA","google_icon_mask_base_uri":"https://maps.gstatic.com/mapfiles/place_api/icons/v2/generic_pinlet","google_icon_background_color":"#4B96F3","formatted_address":"Kin-iway, Besao, 2618 Mountain Province, Philippines","business_status":"OPERATIONAL","rating":null,"user_rating_count":null,"barangay_slug":"kin-iway","barangay_name":"Kin-iway (Pob.)"},"geometry":{"type":"Point","coordinates":[120.8585076,17.1037045]}},{"type":"Feature","properties":{"name":"JKB Pharmacy","kind":"clinic","kind_label":"Clinic","source":"google_places","google_place_id":"ChIJ_zVKNN4tjjMR03wMeedqi5I","google_primary_type":"pharmacy","google_primary_type_label":"Pharmacy","google_types":["pharmacy","store","health","point_of_interest","establishment"],"google_maps_uri":"https://maps.google.com/?cid=10559651293701110995&g_mp=Cilnb29nbGUubWFwcy5wbGFjZXMudjEuUGxhY2VzLlNlYXJjaE5lYXJieRACGAQgAA","google_icon_mask_base_uri":"https://maps.gstatic.com/mapfiles/place_api/icons/v2/pharmacy_pinlet","google_icon_background_color":"#F88181","formatted_address":"3VW4+4X8, Besao Road, Besao, Mountain Province, Philippines","business_status":"OPERATIONAL","rating":5,"user_rating_count":2,"barangay_slug":"kin-iway","barangay_name":"Kin-iway (Pob.)"},"geometry":{"type":"Point","coordinates":[120.85746639999998,17.095277199999998]}},{"type":"Feature","properties":{"name":"Besao Fire Station","kind":"govt","kind_label":"Government","source":"google_places","google_place_id":"ChIJ6ZPo5v0sjjMRZITp_O9-CmQ","google_primary_type":"fire_station","google_primary_type_label":"Fire Station","google_types":["fire_station","government_office","service","point_of_interest","establishment"],"google_maps_uri":"https://maps.google.com/?cid=7208713722765345892&g_mp=Cilnb29nbGUubWFwcy5wbGFjZXMudjEuUGxhY2VzLlNlYXJjaE5lYXJieRACGAQgAA","google_icon_mask_base_uri":"https://maps.gstatic.com/mapfiles/place_api/icons/v2/civic-bldg_pinlet","google_icon_background_color":"#7B9EB0","formatted_address":"3VW4+4CM, Besao, Mountain Province, Philippines","business_status":"OPERATIONAL","rating":null,"user_rating_count":null,"barangay_slug":"kin-iway","barangay_name":"Kin-iway (Pob.)"},"geometry":{"type":"Point","coordinates":[120.85605609999999,17.0953361]}},{"type":"Feature","properties":{"name":"Besao Municipal Hall","kind":"govt","kind_label":"Government","source":"google_places","google_place_id":"ChIJ3_Ji5v0sjjMR9QguRnhdh5E","google_primary_type":"city_hall","google_primary_type_label":"City Hall","google_types":["city_hall","local_government_office","government_office","point_of_interest","service","establishment"],"google_maps_uri":"https://maps.google.com/?cid=10486453028510370037&g_mp=Cilnb29nbGUubWFwcy5wbGFjZXMudjEuUGxhY2VzLlNlYXJjaE5lYXJieRACGAQgAA","google_icon_mask_base_uri":"https://maps.gstatic.com/mapfiles/place_api/icons/v2/civic-bldg_pinlet","google_icon_background_color":"#7B9EB0","formatted_address":"3VW4+3CX, Kin - iway - Tamboan Rd, Besao, Mountain Province, Philippines","business_status":"OPERATIONAL","rating":4.4,"user_rating_count":17,"barangay_slug":"kin-iway","barangay_name":"Kin-iway (Pob.)"},"geometry":{"type":"Point","coordinates":[120.856117,17.0952384]}},{"type":"Feature","properties":{"name":"Besao Police Station","kind":"govt","kind_label":"Government","source":"google_places","google_place_id":"ChIJI80vifstjjMRAuDVPLBno_8","google_primary_type":"government_office","google_primary_type_label":"Government Office","google_types":["government_office","point_of_interest","establishment"],"google_maps_uri":"https://maps.google.com/?cid=18420680907508015106&g_mp=Cilnb29nbGUubWFwcy5wbGFjZXMudjEuUGxhY2VzLlNlYXJjaE5lYXJieRACGAQgAA","google_icon_mask_base_uri":"https://maps.gstatic.com/mapfiles/place_api/icons/v2/civic-bldg_pinlet","google_icon_background_color":"#7B9EB0","formatted_address":"3VW4+2FH, Besao, Mountain Province, Philippines","business_status":"OPERATIONAL","rating":null,"user_rating_count":null,"barangay_slug":"kin-iway","barangay_name":"Kin-iway (Pob.)"},"geometry":{"type":"Point","coordinates":[120.85622559999999,17.095059199999998]}},{"type":"Feature","properties":{"name":"Kin-iway Barangay Hall","kind":"govt","kind_label":"Government","source":"google_places","google_place_id":"ChIJgZ8OYeAtjjMRViHd6TlIwrM","google_primary_type":"city_hall","google_primary_type_label":"City Hall","google_types":["city_hall","local_government_office","government_office","point_of_interest","service","establishment"],"google_maps_uri":"https://maps.google.com/?cid=12952994891844886870&g_mp=Cilnb29nbGUubWFwcy5wbGFjZXMudjEuUGxhY2VzLlNlYXJjaE5lYXJieRACGAQgAA","google_icon_mask_base_uri":"https://maps.gstatic.com/mapfiles/place_api/icons/v2/civic-bldg_pinlet","google_icon_background_color":"#7B9EB0","formatted_address":"3VW5+WMR, St Benedict's Dr, Besao, Mountain Province, Philippines","business_status":"OPERATIONAL","rating":4,"user_rating_count":1,"barangay_slug":"kin-iway","barangay_name":"Kin-iway (Pob.)"},"geometry":{"type":"Point","coordinates":[120.8591355,17.0973698]}},{"type":"Feature","properties":{"name":"MSWD","kind":"govt","kind_label":"Government","source":"google_places","google_place_id":"ChIJJ5u56ZgtjjMRwJpxQqEtjsM","google_primary_type":"government_office","google_primary_type_label":"Government Office","google_types":["government_office","point_of_interest","establishment"],"google_maps_uri":"https://maps.google.com/?cid=14091250454716586688&g_mp=Cilnb29nbGUubWFwcy5wbGFjZXMudjEuUGxhY2VzLlNlYXJjaE5lYXJieRACGAQgAA","google_icon_mask_base_uri":"https://maps.gstatic.com/mapfiles/place_api/icons/v2/civic-bldg_pinlet","google_icon_background_color":"#7B9EB0","formatted_address":"3VW4+2GP, Besao, Mountain Province, Philippines","business_status":"OPERATIONAL","rating":null,"user_rating_count":null,"barangay_slug":"kin-iway","barangay_name":"Kin-iway (Pob.)"},"geometry":{"type":"Point","coordinates":[120.85631869999999,17.095088]}},{"type":"Feature","properties":{"name":"Municipal Engineering Office","kind":"govt","kind_label":"Government","source":"google_places","google_place_id":"ChIJHUB9XgAtjjMRLdJwf5hqRNE","google_primary_type":"government_office","google_primary_type_label":"Government Office","google_types":["government_office","point_of_interest","establishment"],"google_maps_uri":"https://maps.google.com/?cid=15079294655548936749&g_mp=Cilnb29nbGUubWFwcy5wbGFjZXMudjEuUGxhY2VzLlNlYXJjaE5lYXJieRACGAQgAA","google_icon_mask_base_uri":"https://maps.gstatic.com/mapfiles/place_api/icons/v2/civic-bldg_pinlet","google_icon_background_color":"#7B9EB0","formatted_address":"3VW4+375, Besao, Mountain Province, Philippines","business_status":"OPERATIONAL","rating":null,"user_rating_count":null,"barangay_slug":"kin-iway","barangay_name":"Kin-iway (Pob.)"},"geometry":{"type":"Point","coordinates":[120.8557394,17.095126699999998]}},{"type":"Feature","properties":{"name":"Besao District Hospital","kind":"hospital","kind_label":"Hospital","source":"google_places","google_place_id":"ChIJ15pO4P0sjjMRq_DG6tcC1bM","google_primary_type":"hospital","google_primary_type_label":"Hospital","google_types":["hospital","point_of_interest","service","health","establishment"],"google_maps_uri":"https://maps.google.com/?cid=12958266629208600747&g_mp=Cilnb29nbGUubWFwcy5wbGFjZXMudjEuUGxhY2VzLlNlYXJjaE5lYXJieRACGAQgAA","google_icon_mask_base_uri":"https://maps.gstatic.com/mapfiles/place_api/icons/v2/hospital-H_pinlet","google_icon_background_color":"#F88181","formatted_address":"3VW4+377, Tamboan Road, Besao, Mountain Province, Philippines","business_status":"OPERATIONAL","rating":4.5,"user_rating_count":4,"barangay_slug":"kin-iway","barangay_name":"Kin-iway (Pob.)"},"geometry":{"type":"Point","coordinates":[120.8556862,17.0951596]}},{"type":"Feature","properties":{"name":"JETHRO SARI-SARI STORE","kind":"market","kind_label":"Market","source":"google_places","google_place_id":"ChIJizUzaQUtjjMRz9AVluXnVS4","google_primary_type":"grocery_store","google_primary_type_label":"Grocery Store","google_types":["grocery_store","food_store","store","point_of_interest","food","establishment"],"google_maps_uri":"https://maps.google.com/?cid=3338829672016629967&g_mp=Cilnb29nbGUubWFwcy5wbGFjZXMudjEuUGxhY2VzLlNlYXJjaE5lYXJieRACGAQgAA","google_icon_mask_base_uri":"https://maps.gstatic.com/mapfiles/place_api/icons/v2/shoppingcart_pinlet","google_icon_background_color":"#4B96F3","formatted_address":"Lower st, Kin-iway, Besao, 2618 Mountain Province, Philippines","business_status":"OPERATIONAL","rating":null,"user_rating_count":null,"barangay_slug":"kin-iway","barangay_name":"Kin-iway (Pob.)"},"geometry":{"type":"Point","coordinates":[120.8585076,17.1037045]}},{"type":"Feature","properties":{"name":"Besao Central School","kind":"school","kind_label":"School","source":"google_places","google_place_id":"ChIJB9bOlP0sjjMRBLzCIfLa6Y8","google_primary_type":"school","google_primary_type_label":"School","google_types":["school","educational_institution","point_of_interest","establishment"],"google_maps_uri":"https://maps.google.com/?cid=10370060350480628740&g_mp=Cilnb29nbGUubWFwcy5wbGFjZXMudjEuUGxhY2VzLlNlYXJjaE5lYXJieRACGAQgAA","google_icon_mask_base_uri":"https://maps.gstatic.com/mapfiles/place_api/icons/v2/school_pinlet","google_icon_background_color":"#7B9EB0","formatted_address":"3VV4+XJG Besao Central School, Besao Road, Besao, Mountain Province, Philippines","business_status":"OPERATIONAL","rating":null,"user_rating_count":null,"barangay_slug":"kin-iway","barangay_name":"Kin-iway (Pob.)"},"geometry":{"type":"Point","coordinates":[120.8571056,17.0949469]}},{"type":"Feature","properties":{"name":"Besao National High School","kind":"school","kind_label":"School","source":"google_places","google_place_id":"ChIJPaZv3P0sjjMR_e58Oixwcrg","google_primary_type":"secondary_school","google_primary_type_label":"High school","google_types":["secondary_school","government_office","school","educational_institution","point_of_interest","establishment"],"google_maps_uri":"https://maps.google.com/?cid=13290808785585893117&g_mp=Cilnb29nbGUubWFwcy5wbGFjZXMudjEuUGxhY2VzLlNlYXJjaE5lYXJieRACGAQgAA","google_icon_mask_base_uri":"https://maps.gstatic.com/mapfiles/place_api/icons/v2/school_pinlet","google_icon_background_color":"#7B9EB0","formatted_address":"3VV4+RCX, Padangaan, Besao, Mountain Province, Philippines","business_status":"OPERATIONAL","rating":null,"user_rating_count":null,"barangay_slug":"kin-iway","barangay_name":"Kin-iway (Pob.)"},"geometry":{"type":"Point","coordinates":[120.8561094,17.0946125]}},{"type":"Feature","properties":{"name":"St. James High School","kind":"school","kind_label":"School","source":"google_places","google_place_id":"ChIJtRxddQItjjMRo1opQWHJsH4","google_primary_type":"secondary_school","google_primary_type_label":"High school","google_types":["secondary_school","school","educational_institution","point_of_interest","establishment"],"google_maps_uri":"https://maps.google.com/?cid=9129017864222235299&g_mp=Cilnb29nbGUubWFwcy5wbGFjZXMudjEuUGxhY2VzLlNlYXJjaE5lYXJieRACGAQgAA","google_icon_mask_base_uri":"https://maps.gstatic.com/mapfiles/place_api/icons/v2/school_pinlet","google_icon_background_color":"#7B9EB0","formatted_address":"3VW4+CVC, Kin-iway, Besao, Mountain Province, Philippines","business_status":"OPERATIONAL","rating":null,"user_rating_count":null,"barangay_slug":"kin-iway","barangay_name":"Kin-iway (Pob.)"},"geometry":{"type":"Point","coordinates":[120.8571406,17.0960625]}},{"type":"Feature","properties":{"name":"Basketball court","kind":"tourism","kind_label":"Tourism","source":"google_places","google_place_id":"ChIJ6yzPYAAtjjMRIpaRMabheDw","google_primary_type":"athletic_field","google_primary_type_label":"Athletic Field","google_types":["athletic_field","sports_activity_location","point_of_interest","establishment"],"google_maps_uri":"https://maps.google.com/?cid=4357480743393400354&g_mp=Cilnb29nbGUubWFwcy5wbGFjZXMudjEuUGxhY2VzLlNlYXJjaE5lYXJieRACGAQgAA","google_icon_mask_base_uri":"https://maps.gstatic.com/mapfiles/place_api/icons/v2/generic_pinlet","google_icon_background_color":"#7B9EB0","formatted_address":"3VV4+XJG, Besao Road, Besao, Mountain Province, Philippines","business_status":"OPERATIONAL","rating":null,"user_rating_count":null,"barangay_slug":"kin-iway","barangay_name":"Kin-iway (Pob.)"},"geometry":{"type":"Point","coordinates":[120.85678759999999,17.0950108]}},{"type":"Feature","properties":{"name":"Municipal open gym","kind":"tourism","kind_label":"Tourism","source":"google_places","google_place_id":"ChIJ_2aVBQAtjjMRP-O5B-YWR8Q","google_primary_type":"gym","google_primary_type_label":"Gym","google_types":["gym","sports_activity_location","point_of_interest","health","establishment"],"google_maps_uri":"https://maps.google.com/?cid=14143298332008244031&g_mp=Cilnb29nbGUubWFwcy5wbGFjZXMudjEuUGxhY2VzLlNlYXJjaE5lYXJieRACGAQgAA","google_icon_mask_base_uri":"https://maps.gstatic.com/mapfiles/place_api/icons/v2/generic_pinlet","google_icon_background_color":"#7B9EB0","formatted_address":"3VV4+XJG, Besao Road, Besao, Mountain Province, Philippines","business_status":"OPERATIONAL","rating":null,"user_rating_count":null,"barangay_slug":"kin-iway","barangay_name":"Kin-iway (Pob.)"},"geometry":{"type":"Point","coordinates":[120.85649289999999,17.0950339]}},{"type":"Feature","properties":{"name":"Pagtal","kind":"tourism","kind_label":"Tourism","source":"google_places","google_place_id":"ChIJPS0mKAAtjjMRx86cQw_d5Q4","google_primary_type":"park","google_primary_type_label":"Park","google_types":["park","point_of_interest","establishment"],"google_maps_uri":"https://maps.google.com/?cid=1073507143826329287&g_mp=Cilnb29nbGUubWFwcy5wbGFjZXMudjEuUGxhY2VzLlNlYXJjaE5lYXJieRACGAQgAA","google_icon_mask_base_uri":"https://maps.gstatic.com/mapfiles/place_api/icons/v2/tree_pinlet","google_icon_background_color":"#4DB546","formatted_address":"Balaan bowen, Besao, Mountain Province, Philippines","business_status":"OPERATIONAL","rating":5,"user_rating_count":2,"barangay_slug":"kin-iway","barangay_name":"Kin-iway (Pob.)"},"geometry":{"type":"Point","coordinates":[120.8548316,17.0955726]}},{"type":"Feature","properties":{"name":"service","kind":"tourism","kind_label":"Tourism","source":"google_places","google_place_id":"ChIJD7LwGl0tjjMRFrcBfXp_5-4","google_primary_type":"lodging","google_primary_type_label":"Lodging","google_types":["lodging","point_of_interest","establishment"],"google_maps_uri":"https://maps.google.com/?cid=17214868264707012374&g_mp=Cilnb29nbGUubWFwcy5wbGFjZXMudjEuUGxhY2VzLlNlYXJjaE5lYXJieRACGAQgAA","google_icon_mask_base_uri":"https://maps.gstatic.com/mapfiles/place_api/icons/v2/hotel_pinlet","google_icon_background_color":"#909CE1","formatted_address":"3VW5+GM9, Besao, 2618 Mountain Province, Philippines","business_status":"OPERATIONAL","rating":null,"user_rating_count":null,"barangay_slug":"kin-iway","barangay_name":"Kin-iway (Pob.)"},"geometry":{"type":"Point","coordinates":[120.8592312,17.0962915]}},{"type":"Feature","properties":{"name":"BMPC Gas station & coffee shop","kind":"transport","kind_label":"Transport","source":"google_places","google_place_id":"ChIJ7WgMMQAtjjMRRKBanIRvofA","google_primary_type":"gas_station","google_primary_type_label":"Gas Station","google_types":["gas_station","service","point_of_interest","establishment"],"google_maps_uri":"https://maps.google.com/?cid=17339262655702671428&g_mp=Cilnb29nbGUubWFwcy5wbGFjZXMudjEuUGxhY2VzLlNlYXJjaE5lYXJieRACGAQgAA","google_icon_mask_base_uri":"https://maps.gstatic.com/mapfiles/place_api/icons/v2/gas_pinlet","google_icon_background_color":"#909CE1","formatted_address":"3VW4+8W9, Besao Road, Besao, Mountain Province, Philippines","business_status":"OPERATIONAL","rating":null,"user_rating_count":null,"barangay_slug":"kin-iway","barangay_name":"Kin-iway (Pob.)"},"geometry":{"type":"Point","coordinates":[120.8574448,17.0958193]}},{"type":"Feature","properties":{"name":"Diesel/Gas Refilling Station","kind":"transport","kind_label":"Transport","source":"google_places","google_place_id":"ChIJK74shjAtjjMRdQ1V1bypZ9g","google_primary_type":"gas_station","google_primary_type_label":"Gas Station","google_types":["gas_station","service","point_of_interest","establishment"],"google_maps_uri":"https://maps.google.com/?cid=15593618863291698549&g_mp=Cilnb29nbGUubWFwcy5wbGFjZXMudjEuUGxhY2VzLlNlYXJjaE5lYXJieRACGAQgAA","google_icon_mask_base_uri":"https://maps.gstatic.com/mapfiles/place_api/icons/v2/gas_pinlet","google_icon_background_color":"#909CE1","formatted_address":"3VW5+5XQ, Sagada - Besao Rd, Besao, Mountain Province, Philippines","business_status":"OPERATIONAL","rating":null,"user_rating_count":null,"barangay_slug":"kin-iway","barangay_name":"Kin-iway (Pob.)"},"geometry":{"type":"Point","coordinates":[120.8599969,17.0954627]}},{"type":"Feature","properties":{"name":"Faith Baptist Church","kind":"worship","kind_label":"Worship","source":"google_places","google_place_id":"ChIJYaDxQfQtjjMRgMybvM52Wm8","google_primary_type":"church","google_primary_type_label":"Church","google_types":["church","place_of_worship","association_or_organization","point_of_interest","establishment"],"google_maps_uri":"https://maps.google.com/?cid=8023856316413627520&g_mp=Cilnb29nbGUubWFwcy5wbGFjZXMudjEuUGxhY2VzLlNlYXJjaE5lYXJieRACGAQgAA","google_icon_mask_base_uri":"https://maps.gstatic.com/mapfiles/place_api/icons/v2/worship_christian_pinlet","google_icon_background_color":"#7B9EB0","formatted_address":"3VW5+XXQ, Besao, Mountain Province, Philippines","business_status":"OPERATIONAL","rating":null,"user_rating_count":null,"barangay_slug":"kin-iway","barangay_name":"Kin-iway (Pob.)"},"geometry":{"type":"Point","coordinates":[120.85999869999999,17.0974656]}},{"type":"Feature","properties":{"name":"Seventh Day Adventist Church","kind":"worship","kind_label":"Worship","source":"google_places","google_place_id":"ChIJPycPv08tjjMRIAtpb2JFiYg","google_primary_type":"church","google_primary_type_label":"Church","google_types":["church","place_of_worship","association_or_organization","point_of_interest","establishment"],"google_maps_uri":"https://maps.google.com/?cid=9838471150045825824&g_mp=Cilnb29nbGUubWFwcy5wbGFjZXMudjEuUGxhY2VzLlNlYXJjaE5lYXJieRACGAQgAA","google_icon_mask_base_uri":"https://maps.gstatic.com/mapfiles/place_api/icons/v2/worship_christian_pinlet","google_icon_background_color":"#7B9EB0","formatted_address":"3VW6+PPQ, Besao, Mountain Province, Philippines","business_status":"OPERATIONAL","rating":null,"user_rating_count":null,"barangay_slug":"kin-iway","barangay_name":"Kin-iway (Pob.)"},"geometry":{"type":"Point","coordinates":[120.86185869999998,17.0968493]}},{"type":"Feature","properties":{"name":"St. Benedict Church","kind":"worship","kind_label":"Worship","source":"google_places","google_place_id":"ChIJAasSHwAtjjMRpGfB8Mq1Vqw","google_primary_type":"church","google_primary_type_label":"Church","google_types":["church","place_of_worship","association_or_organization","point_of_interest","establishment"],"google_maps_uri":"https://maps.google.com/?cid=12418312905747949476&g_mp=Cilnb29nbGUubWFwcy5wbGFjZXMudjEuUGxhY2VzLlNlYXJjaE5lYXJieRACGAQgAA","google_icon_mask_base_uri":"https://maps.gstatic.com/mapfiles/place_api/icons/v2/worship_christian_pinlet","google_icon_background_color":"#7B9EB0","formatted_address":"3VW5+G69, Besao, Mountain Province, Philippines","business_status":"OPERATIONAL","rating":null,"user_rating_count":null,"barangay_slug":"kin-iway","barangay_name":"Kin-iway (Pob.)"},"geometry":{"type":"Point","coordinates":[120.85785349999999,17.0968788]}},{"type":"Feature","properties":{"name":"Lacmaan Primary School","kind":"school","kind_label":"School","source":"google_places","google_place_id":"ChIJ0xYEYTIsjjMRmmBRRb4SV5A","google_primary_type":"primary_school","google_primary_type_label":"Primary School","google_types":["primary_school","school","educational_institution","point_of_interest","establishment"],"google_maps_uri":"https://maps.google.com/?cid=10400802472851497114&g_mp=Cilnb29nbGUubWFwcy5wbGFjZXMudjEuUGxhY2VzLlNlYXJjaE5lYXJieRACGAQgAA","google_icon_mask_base_uri":"https://maps.gstatic.com/mapfiles/place_api/icons/v2/school_pinlet","google_icon_background_color":"#7B9EB0","formatted_address":"4V4C+HM5, Lacmaan, Besao, Mountain Province, Philippines","business_status":"OPERATIONAL","rating":null,"user_rating_count":null,"barangay_slug":"lacmaan","barangay_name":"Lacmaan"},"geometry":{"type":"Point","coordinates":[120.87172749999999,17.1063843]}},{"type":"Feature","properties":{"name":"Patang","kind":"tourism","kind_label":"Tourism","source":"google_places","google_place_id":"ChIJkwupUQAtjjMRPtM8KAL9fVI","google_primary_type":"hiking_area","google_primary_type_label":"Hiking Area","google_types":["hiking_area","sports_activity_location","point_of_interest","establishment"],"google_maps_uri":"https://maps.google.com/?cid=5944185268905759550&g_mp=Cilnb29nbGUubWFwcy5wbGFjZXMudjEuUGxhY2VzLlNlYXJjaE5lYXJieRACGAQgAA","google_icon_mask_base_uri":"https://maps.gstatic.com/mapfiles/place_api/icons/v2/hiking_pinlet","google_icon_background_color":"#4DB546","formatted_address":"4V29+G9, Besao, Mountain Province, Philippines","business_status":"OPERATIONAL","rating":null,"user_rating_count":null,"barangay_slug":"lacmaan","barangay_name":"Lacmaan"},"geometry":{"type":"Point","coordinates":[120.8684375,17.1013125]}},{"type":"Feature","properties":{"name":"St. John the Divine","kind":"worship","kind_label":"Worship","source":"google_places","google_place_id":"ChIJlYILsiItjjMRXkyf7I3SSpI","google_primary_type":"church","google_primary_type_label":"Church","google_types":["church","place_of_worship","association_or_organization","point_of_interest","establishment"],"google_maps_uri":"https://maps.google.com/?cid=10541469384816151646&g_mp=Cilnb29nbGUubWFwcy5wbGFjZXMudjEuUGxhY2VzLlNlYXJjaE5lYXJieRACGAQgAA","google_icon_mask_base_uri":"https://maps.gstatic.com/mapfiles/place_api/icons/v2/worship_christian_pinlet","google_icon_background_color":"#7B9EB0","formatted_address":"4V3F+CC9, Sagada - Besao Rd, Besao, 2618 Mountain Province, Philippines","business_status":"OPERATIONAL","rating":3.5,"user_rating_count":4,"barangay_slug":"lacmaan","barangay_name":"Lacmaan"},"geometry":{"type":"Point","coordinates":[120.87359909999999,17.1035452]}},{"type":"Feature","properties":{"name":"Buyagan's store","kind":"business","kind_label":"Business","source":"google_places","google_place_id":"ChIJBa2oVZovjjMRfiW8RNLqZWY","google_primary_type":"rest_stop","google_primary_type_label":"Rest Stop","google_types":["rest_stop","point_of_interest","establishment"],"google_maps_uri":"https://maps.google.com/?cid=7378561753333638526&g_mp=Cidnb29nbGUubWFwcy5wbGFjZXMudjEuUGxhY2VzLlNlYXJjaFRleHQQAhgEIAA","google_icon_mask_base_uri":"https://maps.gstatic.com/mapfiles/place_api/icons/v2/generic_pinlet","google_icon_background_color":"#7B9EB0","formatted_address":"Besao-Panabungen Rd, Besao, 2618 Mountain Province, Philippines","business_status":"OPERATIONAL","rating":null,"user_rating_count":null,"barangay_slug":"laylaya","barangay_name":"Laylaya"},"geometry":{"type":"Point","coordinates":[120.7894161,17.0936764]}},{"type":"Feature","properties":{"name":"Mangallay's Store","kind":"business","kind_label":"Business","source":"google_places","google_place_id":"ChIJTY7ZgsEvjjMRfTvdYHq4m9o","google_primary_type":"store","google_primary_type_label":"Store","google_types":["store","point_of_interest","establishment"],"google_maps_uri":"https://maps.google.com/?cid=15752386957409074045&g_mp=Cilnb29nbGUubWFwcy5wbGFjZXMudjEuUGxhY2VzLlNlYXJjaE5lYXJieRACGAQgAA","google_icon_mask_base_uri":"https://maps.gstatic.com/mapfiles/place_api/icons/v2/shopping_pinlet","google_icon_background_color":"#4B96F3","formatted_address":"3QVQ+QCR, Besao, Mountain Province, Philippines","business_status":"OPERATIONAL","rating":null,"user_rating_count":null,"barangay_slug":"laylaya","barangay_name":"Laylaya"},"geometry":{"type":"Point","coordinates":[120.7894115,17.0949797]}},{"type":"Feature","properties":{"name":"Laylaya Barangay Hall","kind":"govt","kind_label":"Government","source":"google_places","google_place_id":"ChIJAz70fMwvjjMRnA8gHOPh5Kw","google_primary_type":"local_government_office","google_primary_type_label":"Local Government Office","google_types":["local_government_office","government_office","point_of_interest","establishment"],"google_maps_uri":"https://maps.google.com/?cid=12458330834759323548&g_mp=Cilnb29nbGUubWFwcy5wbGFjZXMudjEuUGxhY2VzLlNlYXJjaE5lYXJieRACGAQgAA","google_icon_mask_base_uri":"https://maps.gstatic.com/mapfiles/place_api/icons/v2/civic-bldg_pinlet","google_icon_background_color":"#7B9EB0","formatted_address":"3QVQ+FG2, Laylaya, Besao, Mountain Province, Philippines","business_status":"OPERATIONAL","rating":null,"user_rating_count":null,"barangay_slug":"laylaya","barangay_name":"Laylaya"},"geometry":{"type":"Point","coordinates":[120.7887528,17.0936296]}},{"type":"Feature","properties":{"name":"Antokod Memorial Park","kind":"tourism","kind_label":"Tourism","source":"google_places","google_place_id":"ChIJabz4u3MvjjMRscYyf7M2-b0","google_primary_type":"park","google_primary_type_label":"Park","google_types":["park","point_of_interest","establishment"],"google_maps_uri":"https://maps.google.com/?cid=13689032686930413233&g_mp=Cilnb29nbGUubWFwcy5wbGFjZXMudjEuUGxhY2VzLlNlYXJjaE5lYXJieRACGAQgAA","google_icon_mask_base_uri":"https://maps.gstatic.com/mapfiles/place_api/icons/v2/tree_pinlet","google_icon_background_color":"#4DB546","formatted_address":"4Q2M+6X5, Besao, Mountain Province, Philippines","business_status":"OPERATIONAL","rating":5,"user_rating_count":1,"barangay_slug":"laylaya","barangay_name":"Laylaya"},"geometry":{"type":"Point","coordinates":[120.78497920000001,17.1005017]}},{"type":"Feature","properties":{"name":"Saint Bede's Episcopal Parish","kind":"worship","kind_label":"Worship","source":"google_places","google_place_id":"ChIJLwW1KNkvjjMRpOsB8zmsq3E","google_primary_type":"church","google_primary_type_label":"Church","google_types":["church","place_of_worship","association_or_organization","point_of_interest","establishment"],"google_maps_uri":"https://maps.google.com/?cid=8190829712193481636&g_mp=Cilnb29nbGUubWFwcy5wbGFjZXMudjEuUGxhY2VzLlNlYXJjaE5lYXJieRACGAQgAA","google_icon_mask_base_uri":"https://maps.gstatic.com/mapfiles/place_api/icons/v2/worship_christian_pinlet","google_icon_background_color":"#7B9EB0","formatted_address":"3QVQ+HH9, Besao, Mountain Province, Philippines","business_status":"OPERATIONAL","rating":null,"user_rating_count":null,"barangay_slug":"laylaya","barangay_name":"Laylaya"},"geometry":{"type":"Point","coordinates":[120.78898439999999,17.0939125]}},{"type":"Feature","properties":{"name":"Kin-iway Cemetery","kind":"business","kind_label":"Business","source":"google_places","google_place_id":"ChIJkTzDpxctjjMRZhWvn4DKygI","google_primary_type":"cemetery","google_primary_type_label":"Cemetery","google_types":["cemetery","point_of_interest","service","establishment"],"google_maps_uri":"https://maps.google.com/?cid=201195787155084646&g_mp=Cilnb29nbGUubWFwcy5wbGFjZXMudjEuUGxhY2VzLlNlYXJjaE5lYXJieRACGAQgAA","google_icon_mask_base_uri":"https://maps.gstatic.com/mapfiles/place_api/icons/v2/cemetery_pinlet","google_icon_background_color":"#7B9EB0","formatted_address":"3VV3+CH3, Besao, Mountain Province, Philippines","business_status":"OPERATIONAL","rating":null,"user_rating_count":null,"barangay_slug":"padangan","barangay_name":"Padangan"},"geometry":{"type":"Point","coordinates":[120.8539234,17.093513299999998]}},{"type":"Feature","properties":{"name":"Kin-iway Day Care Center","kind":"business","kind_label":"Business","source":"google_places","google_place_id":"ChIJEepJdv4sjjMRJmrBt1YKp9E","google_primary_type":"child_care_agency","google_primary_type_label":"Child Care Agency","google_types":["child_care_agency","point_of_interest","service","establishment"],"google_maps_uri":"https://maps.google.com/?cid=15107054842603989542&g_mp=Cidnb29nbGUubWFwcy5wbGFjZXMudjEuUGxhY2VzLlNlYXJjaFRleHQQAhgEIAA","google_icon_mask_base_uri":"https://maps.gstatic.com/mapfiles/place_api/icons/v2/school_pinlet","google_icon_background_color":"#7B9EB0","formatted_address":"3VV4+R6H, Besao, 2618 Mountain Province, Philippines","business_status":"OPERATIONAL","rating":3,"user_rating_count":1,"barangay_slug":"padangan","barangay_name":"Padangan"},"geometry":{"type":"Point","coordinates":[120.85560019999998,17.094563]}},{"type":"Feature","properties":{"name":"Padangaan Barangay Hall","kind":"business","kind_label":"Business","source":"google_places","google_place_id":"ChIJQbe6pGotjjMRV97P_3xfUyM","google_primary_type":"community_center","google_primary_type_label":"Community Center","google_types":["community_center","event_venue","service","point_of_interest","establishment"],"google_maps_uri":"https://maps.google.com/?cid=2545483204866858583&g_mp=Cidnb29nbGUubWFwcy5wbGFjZXMudjEuUGxhY2VzLlNlYXJjaFRleHQQAhgEIAA","google_icon_mask_base_uri":"https://maps.gstatic.com/mapfiles/place_api/icons/v2/generic_pinlet","google_icon_background_color":"#7B9EB0","formatted_address":"3VV4+89P, Padangaan, Besao, Mountain Province, Philippines","business_status":"OPERATIONAL","rating":3,"user_rating_count":1,"barangay_slug":"padangan","barangay_name":"Padangan"},"geometry":{"type":"Point","coordinates":[120.8559555,17.0933386]}},{"type":"Feature","properties":{"name":"Tawalicious","kind":"business","kind_label":"Business","source":"google_places","google_place_id":"ChIJa4ZKDAAtjjMR_0yoT4sxzJU","google_primary_type":"restaurant","google_primary_type_label":"Restaurant","google_types":["restaurant","point_of_interest","food","establishment"],"google_maps_uri":"https://maps.google.com/?cid=10794056881306881279&g_mp=Cilnb29nbGUubWFwcy5wbGFjZXMudjEuUGxhY2VzLlNlYXJjaE5lYXJieRACGAQgAA","google_icon_mask_base_uri":"https://maps.gstatic.com/mapfiles/place_api/icons/v2/restaurant_pinlet","google_icon_background_color":"#FF9E67","formatted_address":"3VV3+RQ3, Padangan, Besao, Mountain Province, Philippines","business_status":"OPERATIONAL","rating":null,"user_rating_count":null,"barangay_slug":"padangan","barangay_name":"Padangan"},"geometry":{"type":"Point","coordinates":[120.85440810000001,17.094507099999998]}},{"type":"Feature","properties":{"name":"St. Caroline's Parish","kind":"worship","kind_label":"Worship","source":"google_places","google_place_id":"ChIJmbbEXQAtjjMRneeTBtpToAk","google_primary_type":"church","google_primary_type_label":"Church","google_types":["church","place_of_worship","point_of_interest","association_or_organization","establishment"],"google_maps_uri":"https://maps.google.com/?cid=693646538493388701&g_mp=Cilnb29nbGUubWFwcy5wbGFjZXMudjEuUGxhY2VzLlNlYXJjaE5lYXJieRACGAQgAA","google_icon_mask_base_uri":"https://maps.gstatic.com/mapfiles/place_api/icons/v2/worship_christian_pinlet","google_icon_background_color":"#7B9EB0","formatted_address":"3VR4+QJP, Payeo, Besao, Mountain Province, Philippines","business_status":"OPERATIONAL","rating":null,"user_rating_count":null,"barangay_slug":"padangan","barangay_name":"Padangan"},"geometry":{"type":"Point","coordinates":[120.8565928,17.0919555]}},{"type":"Feature","properties":{"name":"Besao Evangelical Church","kind":"worship","kind_label":"Worship","source":"google_places","google_place_id":"ChIJAQAAQPosjjMRXd7iUiyEtj0","google_primary_type":"church","google_primary_type_label":"Church","google_types":["church","place_of_worship","association_or_organization","point_of_interest","establishment"],"google_maps_uri":"https://maps.google.com/?cid=4446887007978970717&g_mp=Cilnb29nbGUubWFwcy5wbGFjZXMudjEuUGxhY2VzLlNlYXJjaE5lYXJieRACGAQgAA","google_icon_mask_base_uri":"https://maps.gstatic.com/mapfiles/place_api/icons/v2/worship_christian_pinlet","google_icon_background_color":"#7B9EB0","formatted_address":"3VQ6+RJG, Besao, 2618 Mountain Province, Philippines","business_status":"OPERATIONAL","rating":5,"user_rating_count":1,"barangay_slug":"payeo","barangay_name":"Payeo"},"geometry":{"type":"Point","coordinates":[120.8615744,17.0895606]}},{"type":"Feature","properties":{"name":"Foursquare - Emmanuel","kind":"worship","kind_label":"Worship","source":"google_places","google_place_id":"ChIJif380-QsjjMRJQAcnQjM2X4","google_primary_type":"church","google_primary_type_label":"Church","google_types":["church","place_of_worship","association_or_organization","point_of_interest","establishment"],"google_maps_uri":"https://maps.google.com/?cid=9140561256092794917&g_mp=Cilnb29nbGUubWFwcy5wbGFjZXMudjEuUGxhY2VzLlNlYXJjaE5lYXJieRACGAQgAA","google_icon_mask_base_uri":"https://maps.gstatic.com/mapfiles/place_api/icons/v2/worship_christian_pinlet","google_icon_background_color":"#7B9EB0","formatted_address":"3VV6+76G, Besao Road, Road, Besao, 2618 Mountain Province, Philippines","business_status":"OPERATIONAL","rating":5,"user_rating_count":2,"barangay_slug":"payeo","barangay_name":"Payeo"},"geometry":{"type":"Point","coordinates":[120.86056359999999,17.0931963]}},{"type":"Feature","properties":{"name":"St. Clements Church","kind":"worship","kind_label":"Worship","source":"google_places","google_place_id":"ChIJgwjhevssjjMRlDRh1OY1Ct8","google_primary_type":"church","google_primary_type_label":"Church","google_types":["church","place_of_worship","association_or_organization","point_of_interest","establishment"],"google_maps_uri":"https://maps.google.com/?cid=16071717485746926740&g_mp=Cilnb29nbGUubWFwcy5wbGFjZXMudjEuUGxhY2VzLlNlYXJjaE5lYXJieRACGAQgAA","google_icon_mask_base_uri":"https://maps.gstatic.com/mapfiles/place_api/icons/v2/worship_christian_pinlet","google_icon_background_color":"#7B9EB0","formatted_address":"3VQ5+XJH, Besao, Mountain Province, Philippines","business_status":"OPERATIONAL","rating":4.7,"user_rating_count":3,"barangay_slug":"payeo","barangay_name":"Payeo"},"geometry":{"type":"Point","coordinates":[120.85912150000001,17.0899282]}},{"type":"Feature","properties":{"name":"Suquib","kind":"business","kind_label":"Business","source":"google_places","google_place_id":"ChIJu-OVkucsjjMRwDj1wobVt18","google_primary_type":null,"google_primary_type_label":null,"google_types":["sublocality_level_2","sublocality","political"],"google_maps_uri":"https://maps.google.com/?cid=6897216129114388672&g_mp=Cidnb29nbGUubWFwcy5wbGFjZXMudjEuUGxhY2VzLlNlYXJjaFRleHQQAhgEIAA","google_icon_mask_base_uri":"https://maps.gstatic.com/mapfiles/place_api/icons/v2/generic_pinlet","google_icon_background_color":"#7B9EB0","formatted_address":"Suquib, Besao, Mountain Province, Philippines","business_status":null,"rating":null,"user_rating_count":null,"barangay_slug":"suquib","barangay_name":"Suquib"},"geometry":{"type":"Point","coordinates":[120.87429680000001,17.0813024]}},{"type":"Feature","properties":{"name":"Baby Danum Lake","kind":"tourism","kind_label":"Tourism","source":"google_places","google_place_id":"ChIJjRXMHAAtjjMRqsoxUcY7ffo","google_primary_type":"tourist_attraction","google_primary_type_label":"Tourist Attraction","google_types":["tourist_attraction","point_of_interest","establishment"],"google_maps_uri":"https://maps.google.com/?cid=18049648604522597034&g_mp=Cilnb29nbGUubWFwcy5wbGFjZXMudjEuUGxhY2VzLlNlYXJjaE5lYXJieRACGAQgAA","google_icon_mask_base_uri":"https://maps.gstatic.com/mapfiles/place_api/icons/v2/generic_pinlet","google_icon_background_color":"#13B5C7","formatted_address":"3VMC+FF8, Besao, Mountain Province, Philippines","business_status":"OPERATIONAL","rating":null,"user_rating_count":null,"barangay_slug":"suquib","barangay_name":"Suquib"},"geometry":{"type":"Point","coordinates":[120.8711904,17.0836635]}},{"type":"Feature","properties":{"name":"Saint Ambrose Church","kind":"worship","kind_label":"Worship","source":"google_places","google_place_id":"ChIJXa7-DAAtjjMR_Ps-7Hlnahk","google_primary_type":"church","google_primary_type_label":"Church","google_types":["church","place_of_worship","point_of_interest","association_or_organization","establishment"],"google_maps_uri":"https://maps.google.com/?cid=1831389971831782396&g_mp=Cilnb29nbGUubWFwcy5wbGFjZXMudjEuUGxhY2VzLlNlYXJjaE5lYXJieRACGAQgAA","google_icon_mask_base_uri":"https://maps.gstatic.com/mapfiles/place_api/icons/v2/worship_christian_pinlet","google_icon_background_color":"#7B9EB0","formatted_address":"3VMC+49M, Besao, Mountain Province, Philippines","business_status":"OPERATIONAL","rating":null,"user_rating_count":null,"barangay_slug":"suquib","barangay_name":"Suquib"},"geometry":{"type":"Point","coordinates":[120.87093259999999,17.0828482]}},{"type":"Feature","properties":{"name":"Denga ey sarisari store","kind":"business","kind_label":"Business","source":"google_places","google_place_id":"ChIJA4Up0dMvjjMR8cEXEmLahpw","google_primary_type":"store","google_primary_type_label":"Store","google_types":["store","point_of_interest","establishment"],"google_maps_uri":"https://maps.google.com/?cid=11278942431541182961&g_mp=Cilnb29nbGUubWFwcy5wbGFjZXMudjEuUGxhY2VzLlNlYXJjaE5lYXJieRACGAQgAA","google_icon_mask_base_uri":"https://maps.gstatic.com/mapfiles/place_api/icons/v2/shopping_pinlet","google_icon_background_color":"#4B96F3","formatted_address":"Tamboan, Besao, 2618 Mountain Province, Philippines","business_status":"OPERATIONAL","rating":null,"user_rating_count":null,"barangay_slug":"tamboan","barangay_name":"Tamboan"},"geometry":{"type":"Point","coordinates":[120.7973875,17.1199722]}},{"type":"Feature","properties":{"name":"Tamboan Elementary School","kind":"business","kind_label":"Business","source":"google_places","google_place_id":"ChIJ3zTSrH8ujjMRrldMhCyqXlY","google_primary_type":"premise","google_primary_type_label":"Building","google_types":["premise","street_address"],"google_maps_uri":"https://maps.google.com/?cid=6223598843247482798&g_mp=Cidnb29nbGUubWFwcy5wbGFjZXMudjEuUGxhY2VzLlNlYXJjaFRleHQQAhgEIAA","google_icon_mask_base_uri":"https://maps.gstatic.com/mapfiles/place_api/icons/v2/generic_pinlet","google_icon_background_color":"#7B9EB0","formatted_address":"Tamboan Elementary School, Kin - iway - Tamboan Rd, Tamboan, Besao, Mountain Province, Philippines","business_status":null,"rating":null,"user_rating_count":null,"barangay_slug":"tamboan","barangay_name":"Tamboan"},"geometry":{"type":"Point","coordinates":[120.80109759999999,17.107594700000003]}},{"type":"Feature","properties":{"name":"Tamboan Barangay Hall","kind":"govt","kind_label":"Government","source":"google_places","google_place_id":"ChIJw4TDnpcvjjMRlppt0wI53nk","google_primary_type":"government_office","google_primary_type_label":"Government Office","google_types":["government_office","point_of_interest","establishment"],"google_maps_uri":"https://maps.google.com/?cid=8781519007718939286&g_mp=Cilnb29nbGUubWFwcy5wbGFjZXMudjEuUGxhY2VzLlNlYXJjaE5lYXJieRACGAQgAA","google_icon_mask_base_uri":"https://maps.gstatic.com/mapfiles/place_api/icons/v2/civic-bldg_pinlet","google_icon_background_color":"#7B9EB0","formatted_address":"4R63+429, Road, Tamboan, Besao, Mountain Province, Philippines","business_status":"OPERATIONAL","rating":null,"user_rating_count":null,"barangay_slug":"tamboan","barangay_name":"Tamboan"},"geometry":{"type":"Point","coordinates":[120.80261730000001,17.1102845]}},{"type":"Feature","properties":{"name":"Tamboan National High School (Besao National High School-Tamboan Annex)","kind":"govt","kind_label":"Government","source":"google_places","google_place_id":"ChIJBR0AAHEujjMRWteZAOegInI","google_primary_type":"government_office","google_primary_type_label":"Government Office","google_types":["government_office","school","educational_institution","point_of_interest","establishment"],"google_maps_uri":"https://maps.google.com/?cid=8224312783539918682&g_mp=Cilnb29nbGUubWFwcy5wbGFjZXMudjEuUGxhY2VzLlNlYXJjaE5lYXJieRACGAQgAA","google_icon_mask_base_uri":"https://maps.gstatic.com/mapfiles/place_api/icons/v2/school_pinlet","google_icon_background_color":"#7B9EB0","formatted_address":"4Q9W+R4P, Tamboan, Besao, Mountain Province, Philippines","business_status":"OPERATIONAL","rating":null,"user_rating_count":null,"barangay_slug":"tamboan","barangay_name":"Tamboan"},"geometry":{"type":"Point","coordinates":[120.79533389999999,17.1195755]}},{"type":"Feature","properties":{"name":"St. James High School of MT. Province, Inc.","kind":"school","kind_label":"School","source":"google_places","google_place_id":"ChIJU0wbwswtjjMRDskdi6GrXFo","google_primary_type":"secondary_school","google_primary_type_label":"High school","google_types":["secondary_school","school","educational_institution","point_of_interest","establishment"],"google_maps_uri":"https://maps.google.com/?cid=6511267871582963982&g_mp=Cilnb29nbGUubWFwcy5wbGFjZXMudjEuUGxhY2VzLlNlYXJjaE5lYXJieRACGAQgAA","google_icon_mask_base_uri":"https://maps.gstatic.com/mapfiles/place_api/icons/v2/school_pinlet","google_icon_background_color":"#7B9EB0","formatted_address":"Kin - iway - Tamboan Rd, Besao, 2618 Mountain Province, Philippines","business_status":"OPERATIONAL","rating":null,"user_rating_count":null,"barangay_slug":"tamboan","barangay_name":"Tamboan"},"geometry":{"type":"Point","coordinates":[120.81935870000001,17.1036473]}},{"type":"Feature","properties":{"name":"St. James' High School Annex (Tamboan, Besao)","kind":"school","kind_label":"School","source":"google_places","google_place_id":"ChIJ_____3AujjMRI3FhnHwFJDA","google_primary_type":"school","google_primary_type_label":"School","google_types":["school","educational_institution","point_of_interest","establishment"],"google_maps_uri":"https://maps.google.com/?cid=3468903645739839779&g_mp=Cilnb29nbGUubWFwcy5wbGFjZXMudjEuUGxhY2VzLlNlYXJjaE5lYXJieRACGAQgAA","google_icon_mask_base_uri":"https://maps.gstatic.com/mapfiles/place_api/icons/v2/school_pinlet","google_icon_background_color":"#7B9EB0","formatted_address":"Besao, Mountain Province, Philippines","business_status":"OPERATIONAL","rating":null,"user_rating_count":null,"barangay_slug":"tamboan","barangay_name":"Tamboan"},"geometry":{"type":"Point","coordinates":[120.79533049999999,17.1195755]}},{"type":"Feature","properties":{"name":"Tamboan National High School","kind":"school","kind_label":"School","source":"google_places","google_place_id":"ChIJAQBAXHgujjMRBZPlxUqxDaE","google_primary_type":"secondary_school","google_primary_type_label":"High school","google_types":["secondary_school","school","educational_institution","point_of_interest","establishment"],"google_maps_uri":"https://maps.google.com/?cid=11605126749509489413&g_mp=Cilnb29nbGUubWFwcy5wbGFjZXMudjEuUGxhY2VzLlNlYXJjaE5lYXJieRACGAQgAA","google_icon_mask_base_uri":"https://maps.gstatic.com/mapfiles/place_api/icons/v2/school_pinlet","google_icon_background_color":"#7B9EB0","formatted_address":"4R72+CVH, Tamboan, Besao, Mountain Province, Philippines","business_status":"OPERATIONAL","rating":null,"user_rating_count":null,"barangay_slug":"tamboan","barangay_name":"Tamboan"},"geometry":{"type":"Point","coordinates":[120.8022421,17.1135581]}},{"type":"Feature","properties":{"name":"Foursquare - Suquib","kind":"worship","kind_label":"Worship","source":"google_places","google_place_id":"ChIJPfFi0MwtjjMRpvRH2K77Z-8","google_primary_type":"church","google_primary_type_label":"Church","google_types":["church","place_of_worship","association_or_organization","point_of_interest","establishment"],"google_maps_uri":"https://maps.google.com/?cid=17251033626037449894&g_mp=Cilnb29nbGUubWFwcy5wbGFjZXMudjEuUGxhY2VzLlNlYXJjaE5lYXJieRACGAQgAA","google_icon_mask_base_uri":"https://maps.gstatic.com/mapfiles/place_api/icons/v2/worship_christian_pinlet","google_icon_background_color":"#7B9EB0","formatted_address":"Suquib, 4R39+6GH, Besao, 2618 Mountain Province, Philippines","business_status":"OPERATIONAL","rating":4,"user_rating_count":1,"barangay_slug":"tamboan","barangay_name":"Tamboan"},"geometry":{"type":"Point","coordinates":[120.81885369999999,17.1030654]}},{"type":"Feature","properties":{"name":"St. Alfred's Parish","kind":"worship","kind_label":"Worship","source":"google_places","google_place_id":"ChIJKePal3gujjMRSuIXeNwXV6Q","google_primary_type":"church","google_primary_type_label":"Church","google_types":["church","place_of_worship","association_or_organization","point_of_interest","establishment"],"google_maps_uri":"https://maps.google.com/?cid=11841959980869083722&g_mp=Cilnb29nbGUubWFwcy5wbGFjZXMudjEuUGxhY2VzLlNlYXJjaE5lYXJieRACGAQgAA","google_icon_mask_base_uri":"https://maps.gstatic.com/mapfiles/place_api/icons/v2/worship_christian_pinlet","google_icon_background_color":"#7B9EB0","formatted_address":"4R63+775, Tamboan, Besao, Mountain Province, Philippines","business_status":"OPERATIONAL","rating":null,"user_rating_count":null,"barangay_slug":"tamboan","barangay_name":"Tamboan"},"geometry":{"type":"Point","coordinates":[120.80323140000002,17.110649]}},{"type":"Feature","properties":{"name":"St. Hilary's Parish","kind":"worship","kind_label":"Worship","source":"google_places","google_place_id":"ChIJuXbALHcujjMRp8V1zB6_xik","google_primary_type":"church","google_primary_type_label":"Church","google_types":["church","place_of_worship","association_or_organization","point_of_interest","establishment"],"google_maps_uri":"https://maps.google.com/?cid=3010303539943949735&g_mp=Cilnb29nbGUubWFwcy5wbGFjZXMudjEuUGxhY2VzLlNlYXJjaE5lYXJieRACGAQgAA","google_icon_mask_base_uri":"https://maps.gstatic.com/mapfiles/place_api/icons/v2/worship_christian_pinlet","google_icon_background_color":"#7B9EB0","formatted_address":"4Q9X+F7X Ubo Foot Bridge, Tamboan, Besao, Mountain Province, Philippines","business_status":"OPERATIONAL","rating":3,"user_rating_count":1,"barangay_slug":"tamboan","barangay_name":"Tamboan"},"geometry":{"type":"Point","coordinates":[120.7982356,17.1187269]}}]}
