{"type":"FeatureCollection","features":[{"type":"Feature","properties":{"name":"Saint Vincent's High School","kind":"school","kind_label":"School","source":"openstreetmap","osm_id":"node/1959174767","osm_tags":{"addr:city":"Bontoc","addr:street":"Fr. Sepulchre Street","amenity":"school","name":"Saint Vincent's High School"},"barangay_slug":"poblacion","barangay_name":"Poblacion"},"geometry":{"type":"Point","coordinates":[120.9766654,17.0913774]}},{"type":"Feature","properties":{"name":"Highland Baptist Church","kind":"worship","kind_label":"Church","source":"openstreetmap","osm_id":"node/4213724072","osm_tags":{"addr:city":"Bontoc","addr:postcode":"2616","addr:street":"Halsema Highway","amenity":"place_of_worship","name":"Highland Baptist Church","religion":"christian"},"barangay_slug":"poblacion","barangay_name":"Poblacion"},"geometry":{"type":"Point","coordinates":[120.9769572,17.0881659]}},{"type":"Feature","properties":{"name":"Bontoc Municipal Capitol","kind":"govt","kind_label":"Town hall","source":"openstreetmap","osm_id":"way/265799110","osm_tags":{"addr:city":"Bontoc","addr:street":"Halsema Highway","admin_level":"6","amenity":"townhall","building":"public","name":"Bontoc Municipal Capitol","operator":"LGU-Bontoc","townhall:type":"municipality"},"barangay_slug":"poblacion","barangay_name":"Poblacion"},"geometry":{"type":"Point","coordinates":[120.9767173,17.0863163]}},{"type":"Feature","properties":{"name":"St. Vincent's Elementary School","kind":"school","kind_label":"School","source":"openstreetmap","osm_id":"way/272996494","osm_tags":{"amenity":"school","name":"St. Vincent's Elementary School"},"barangay_slug":"poblacion","barangay_name":"Poblacion"},"geometry":{"type":"Point","coordinates":[120.9754526,17.0899075]}},{"type":"Feature","properties":{"name":"Municipal Cemetery","kind":"cemetery","kind_label":"Cemetery","source":"openstreetmap","osm_id":"way/273390491","osm_tags":{"landuse":"cemetery","name":"Municipal Cemetery"},"barangay_slug":"calutit","barangay_name":"Calutit"},"geometry":{"type":"Point","coordinates":[120.9768801,17.0952136]}},{"type":"Feature","properties":{"name":"Anglican Church","kind":"worship","kind_label":"Church","source":"openstreetmap","osm_id":"way/273637232","osm_tags":{"amenity":"place_of_worship","building":"yes","denomination":"anglican","name":"Anglican Church","religion":"christian"},"barangay_slug":"maligcong","barangay_name":"Maligcong"},"geometry":{"type":"Point","coordinates":[120.9849207,17.1339473]}},{"type":"Feature","properties":{"name":"Talubin Elementary School","kind":"school","kind_label":"School","source":"openstreetmap","osm_id":"way/273999570","osm_tags":{"addr:province":"Mountain Province","addr:town":"Bontoc","addr:village":"Talubin","amenity":"school","isced:level":"1","name":"Talubin Elementary School","operator":"Bontoc District of Mt. Province Schools Division, DepEd","operator:type":"public","population:pupils:2012":"255","population:pupils:2015":"227","ref":"136264","source":"Department of Education, Philippines","source:date":"2012","start_date":"1958"},"barangay_slug":"talubin","barangay_name":"Talubin"},"geometry":{"type":"Point","coordinates":[121.0110617,17.0363725]}},{"type":"Feature","properties":{"name":"Bontoc General Hospital","kind":"hospital","kind_label":"Hospital","source":"openstreetmap","osm_id":"way/274029566","osm_tags":{"addr:city":"Bontoc","addr:street":"Poblacion - Maligcong Road","amenity":"hospital","building":"hospital","contact:phone":"+63908 6244053","healthcare":"hospital","name":"Bontoc General Hospital","operator:type":"government"},"barangay_slug":"calutit","barangay_name":"Calutit"},"geometry":{"type":"Point","coordinates":[120.9766667,17.0937426]}},{"type":"Feature","properties":{"name":"Mountain Province Provincial Capitol","kind":"govt","kind_label":"Government building","source":"openstreetmap","osm_id":"way/274194446","osm_tags":{"building":"yes","description":"Government Office Building","government":"provincial_capitol","name":"Mountain Province Provincial Capitol","office":"government"},"barangay_slug":"poblacion","barangay_name":"Poblacion"},"geometry":{"type":"Point","coordinates":[120.9760647,17.0908298]}},{"type":"Feature","properties":{"name":"Maligcong Elementary School","kind":"school","kind_label":"School","source":"openstreetmap","osm_id":"way/311501134","osm_tags":{"addr:province":"Mountain Province","addr:town":"Bontoc","amenity":"school","isced:level":"1","name":"Maligcong Elementary School","operator":"Bontoc District of Mt. Province Schools Division, DepEd","operator:type":"public","population:pupils:2012":"103","population:pupils:2015":"78","ref":"136261","source":"Department of Education, Philippines","source:date":"2012","start_date":"2000"},"barangay_slug":"maligcong","barangay_name":"Maligcong"},"geometry":{"type":"Point","coordinates":[120.980906,17.1272532]}},{"type":"Feature","properties":{"name":"Saint Joseph Church","kind":"worship","kind_label":"Church","source":"openstreetmap","osm_id":"way/312531492","osm_tags":{"amenity":"place_of_worship","name":"Saint Joseph Church","religion":"christian"},"barangay_slug":"mainit","barangay_name":"Mainit"},"geometry":{"type":"Point","coordinates":[120.9544796,17.1499527]}},{"type":"Feature","properties":{"name":"Saint Barnabas","kind":"worship","kind_label":"Church","source":"openstreetmap","osm_id":"way/312531529","osm_tags":{"amenity":"place_of_worship","denomination":"anglican","name":"Saint Barnabas","religion":"christian","source":"GPS, Bing imagery, local knowledge"},"barangay_slug":"alab-proper","barangay_name":"Alab Proper"},"geometry":{"type":"Point","coordinates":[120.9393941,17.0584054]}},{"type":"Feature","properties":{"name":"Iglesia ni Cristo","kind":"worship","kind_label":"Church","source":"openstreetmap","osm_id":"way/312531576","osm_tags":{"amenity":"place_of_worship","building":"yes","denomination":"iglesia_ni_cristo","name":"Iglesia ni Cristo","name:es":"Iglesia de Cristo","religion":"christian"},"barangay_slug":"calutit","barangay_name":"Calutit"},"geometry":{"type":"Point","coordinates":[120.9779215,17.0923655]}},{"type":"Feature","properties":{"name":"United Church of Christ in the Philippines","kind":"worship","kind_label":"Church","source":"openstreetmap","osm_id":"way/312531581","osm_tags":{"amenity":"place_of_worship","name":"United Church of Christ in the Philippines","name:en":"UCCP","religion":"christian"},"barangay_slug":"poblacion","barangay_name":"Poblacion"},"geometry":{"type":"Point","coordinates":[120.9770041,17.086595]}},{"type":"Feature","properties":{"name":"St. Paul's Chapel","kind":"worship","kind_label":"Church","source":"openstreetmap","osm_id":"way/312531594","osm_tags":{"amenity":"place_of_worship","name":"St. Paul's Chapel","religion":"christian"},"barangay_slug":"samoki","barangay_name":"Samoki"},"geometry":{"type":"Point","coordinates":[120.9825508,17.0838861]}},{"type":"Feature","properties":{"name":"Mountain Province Special Education Center","kind":"school","kind_label":"School","source":"openstreetmap","osm_id":"way/413684071","osm_tags":{"addr:city":"Bontoc","addr:postcode":"2616","addr:province":"Mountain Province","addr:street":"Bontoc - Tabuk Road","amenity":"school","isced:level":"0-1","name":"Mountain Province Special Education Center","old_name":"Bulanao Central School","operator":"Bontoc District, Mountain Province Schools Division, DepEd","operator:type":"public","population:pupils:2012":"182","population:pupils:2015":"192","ref":"221006","source":"Department of Education, Philippines","source:date":"2012","specialized_education":"special_needs","start_date":"2003"},"barangay_slug":"poblacion","barangay_name":"Poblacion"},"geometry":{"type":"Point","coordinates":[120.9780341,17.090903]}},{"type":"Feature","properties":{"name":"Bontoc Central School","kind":"school","kind_label":"School","source":"openstreetmap","osm_id":"way/413689160","osm_tags":{"addr:postcode":"2616","addr:province":"Mountain Province","addr:town":"Bontoc","amenity":"school","isced:level":"1","name":"Bontoc Central School","operator":"Bontoc District of Mt. Province Schools Division, DepEd","operator:type":"public","population:pupils:2012":"851","population:pupils:2015":"897","ref":"136253","source":"Department of Education, Philippines","source:date":"2012","start_date":"1904"},"barangay_slug":"poblacion","barangay_name":"Poblacion"},"geometry":{"type":"Point","coordinates":[120.9774882,17.0910037]}},{"type":"Feature","properties":{"name":"Mountain Province State Polytechnic College","kind":"school","kind_label":"College","source":"openstreetmap","osm_id":"way/413689476","osm_tags":{"addr:city":"Bontoc","addr:postcode":"2616","addr:street":"Bontoc - Tabuk Road","amenity":"college","name":"Mountain Province State Polytechnic College","name:en":"MPSPC - Bontoc Campus"},"barangay_slug":"poblacion","barangay_name":"Poblacion"},"geometry":{"type":"Point","coordinates":[120.9778491,17.0916503]}},{"type":"Feature","properties":{"name":"Sta. Rita de Cascia Cathedral","kind":"worship","kind_label":"Church","source":"openstreetmap","osm_id":"way/421728274","osm_tags":{"addr:city":"Bontoc","addr:postcode":"2616","amenity":"place_of_worship","building":"cathedral","denomination":"roman_catholic","name":"Sta. Rita de Cascia Cathedral","religion":"christian"},"barangay_slug":"poblacion","barangay_name":"Poblacion"},"geometry":{"type":"Point","coordinates":[120.9771267,17.091494]}},{"type":"Feature","properties":{"name":"Divine Mercy Chapel","kind":"worship","kind_label":"Church","source":"openstreetmap","osm_id":"way/647746481","osm_tags":{"amenity":"place_of_worship","building":"chapel","name":"Divine Mercy Chapel","religion":"christian"},"barangay_slug":"alab-proper","barangay_name":"Alab Proper"},"geometry":{"type":"Point","coordinates":[120.9398466,17.0613044]}},{"type":"Feature","properties":{"name":"Balili Elementary School","kind":"school","kind_label":"School","source":"openstreetmap","osm_id":"way/701495722","osm_tags":{"addr:province":"Mountain Province","addr:town":"Bontoc","amenity":"school","isced:level":"1","name":"Balili Elementary School","operator":"Bontoc District of Mt. Province Schools Division, DepEd","operator:type":"public","population:pupils:2012":"104","population:pupils:2015":"88","ref":"136250","source":"Department of Education, Philippines","source:date":"2012","start_date":"1965"},"barangay_slug":"balili","barangay_name":"Balili"},"geometry":{"type":"Point","coordinates":[120.9362441,17.0466752]}},{"type":"Feature","properties":{"name":"Alab Elementary School","kind":"school","kind_label":"School","source":"openstreetmap","osm_id":"way/701495728","osm_tags":{"addr:province":"Mountain Province","addr:town":"Bontoc","amenity":"school","isced:level":"1","name":"Alab Elementary School","operator":"Bontoc District of Mt. Province Schools Division, DepEd","operator:type":"public","population:pupils:2012":"142","population:pupils:2015":"126","ref":"136249","source":"Department of Education, Philippines","source:date":"2012","start_date":"1956"},"barangay_slug":"alab-oriente","barangay_name":"Alab Oriente"},"geometry":{"type":"Point","coordinates":[120.9384198,17.0560762]}},{"type":"Feature","properties":{"name":"Mainit Elementary School","kind":"school","kind_label":"School","source":"openstreetmap","osm_id":"way/851415399","osm_tags":{"addr:province":"Mountain Province","addr:town":"Bontoc","amenity":"school","isced:level":"1","name":"Mainit Elementary School","operator":"Bontoc District of Mt. Province Schools Division, DepEd","operator:type":"public","population:pupils:2012":"209","population:pupils:2015":"236","ref":"136260","source":"Department of Education, Philippines","source:date":"2012","start_date":"1951"},"barangay_slug":"mainit","barangay_name":"Mainit"},"geometry":{"type":"Point","coordinates":[120.952914,17.1540826]}},{"type":"Feature","properties":{"name":"Bayyo Elementary school","kind":"school","kind_label":"School","source":"openstreetmap","osm_id":"way/851853879","osm_tags":{"addr:province":"Mountain Province","addr:town":"Bontoc","addr:village":"Bayyo","amenity":"school","isced:level":"1","name":"Bayyo Elementary school","operator":"Bontoc District of Mt. Province Schools Division, DepEd","operator:type":"public","population:pupils:2012":"30","population:pupils:2015":"34","ref":"136251","source":"Department of Education, Philippines","source:date":"2012","start_date":"1950"},"barangay_slug":"bayyo","barangay_name":"Bayyo"},"geometry":{"type":"Point","coordinates":[121.0164971,17.0070043]}},{"type":"Feature","properties":{"name":"Guina-ang Elementary School","kind":"school","kind_label":"School","source":"openstreetmap","osm_id":"way/851984413","osm_tags":{"addr:province":"Mountain Province","addr:town":"Bontoc","amenity":"school","isced:level":"1","name":"Guina-ang Elementary School","operator":"Bontoc District of Mt. Province Schools Division, DepEd","operator:type":"public","population:pupils:2012":"251","population:pupils:2015":"196","ref":"136259","source":"Department of Education, Philippines","source:date":"2012","start_date":"2000"},"barangay_slug":"guinaang","barangay_name":"Guinaang"},"geometry":{"type":"Point","coordinates":[120.9521965,17.1349817]}},{"type":"Feature","properties":{"name":"Guina-ang National High School","kind":"school","kind_label":"School","source":"openstreetmap","osm_id":"way/851984424","osm_tags":{"addr:province":"Mountain Province","addr:town":"Bontoc","amenity":"school","isced:level":"2","name":"Guina-ang National High School","operator":"Bontoc District of Mt. Province Schools Division, DepEd","operator:type":"public","population:pupils:2012":"137","population:pupils:2015":"161","ref":"305243","source":"Department of Education, Philippines","source:date":"2012","start_date":"1994"},"barangay_slug":"guinaang","barangay_name":"Guinaang"},"geometry":{"type":"Point","coordinates":[120.9527557,17.1347228]}},{"type":"Feature","properties":{"name":"Tocucan Elementary School","kind":"school","kind_label":"School","source":"openstreetmap","osm_id":"way/851985044","osm_tags":{"addr:province":"Mountain Province","addr:town":"Bontoc","addr:village":"Tocucan","amenity":"school","isced:level":"1","name":"Tocucan Elementary School","operator":"Bontoc District of Mt. Province Schools Division, DepEd","operator:type":"public","population:pupils:2012":"175","population:pupils:2015":"149","ref":"136265","source":"Department of Education, Philippines","source:date":"2012","start_date":"2000"},"barangay_slug":"tocucan","barangay_name":"Tocucan"},"geometry":{"type":"Point","coordinates":[121.0144452,17.1131969]}},{"type":"Feature","properties":{"name":"Dalican Elementary School","kind":"school","kind_label":"School","source":"openstreetmap","osm_id":"way/852316577","osm_tags":{"addr:province":"Mountain Province","addr:town":"Bontoc","amenity":"school","isced:level":"1","name":"Dalican Elementary School","operator":"Bontoc District of Mt. Province Schools Division, DepEd","operator:type":"public","population:pupils:2012":"187","population:pupils:2015":"155","ref":"136255","source":"Department of Education, Philippines","source:date":"2012","start_date":"1955"},"barangay_slug":"dalican","barangay_name":"Dalican"},"geometry":{"type":"Point","coordinates":[120.9356728,17.1224071]}},{"type":"Feature","properties":{"name":"Can-eo Elementary School","kind":"school","kind_label":"School","source":"openstreetmap","osm_id":"way/852620426","osm_tags":{"addr:province":"Mountain Province","addr:town":"Bontoc","amenity":"school","isced:level":"1","name":"Can-eo Elementary School","operator":"Bontoc District of Mt. Province Schools Division, DepEd","operator:type":"public","population:pupils:2012":"94","population:pupils:2015":"76","ref":"136254","source":"Department of Education, Philippines","source:date":"2012","start_date":"2000"},"barangay_slug":"caneo","barangay_name":"Caneo"},"geometry":{"type":"Point","coordinates":[121.0118937,17.0757654]}},{"type":"Feature","properties":{"name":"Samoki Elementary School","kind":"school","kind_label":"School","source":"openstreetmap","osm_id":"way/852624131","osm_tags":{"addr:province":"Mountain Province","addr:town":"Bontoc","addr:village":"Samoki","amenity":"school","isced:level":"1","name":"Samoki Elementary School","operator":"Bontoc District of Mt. Province Schools Division, DepEd","operator:type":"public","population:pupils:2012":"162","population:pupils:2015":"160","ref":"136263","source":"Department of Education, Philippines","source:date":"2012","start_date":"2000"},"barangay_slug":"samoki","barangay_name":"Samoki"},"geometry":{"type":"Point","coordinates":[120.9836541,17.0875461]}},{"type":"Feature","properties":{"name":"Ut-utan Elementary School","kind":"school","kind_label":"School","source":"openstreetmap","osm_id":"way/852625499","osm_tags":{"addr:province":"Mountain Province","addr:town":"Bontoc","addr:village":"Bontoc III","amenity":"school","isced:level":"1","name":"Ut-utan Elementary School","old_name":"Ut-utan Primary School, Foyayeng Primary School","operator":"Bontoc District of Mt. Province Schools Division, DepEd","operator:type":"public","population:pupils:2012":"104","population:pupils:2015":"76","ref":"136266","source":"Department of Education, Philippines","source:date":"2012","start_date":"2000"},"barangay_slug":"bontoc-ili","barangay_name":"Bontoc Ili"},"geometry":{"type":"Point","coordinates":[120.9767802,17.0837631]}},{"type":"Feature","properties":{"name":"Mountain Province General Comprehensive High School","kind":"school","kind_label":"School","source":"openstreetmap","osm_id":"way/852626451","osm_tags":{"addr:province":"Mountain Province","addr:town":"Bontoc","amenity":"school","isced:level":"2-3","name":"Mountain Province General Comprehensive High School","operator":"Bontoc District of Mt. Province Schools Division, DepEd","operator:type":"public","population:pupils:2012":"967","population:pupils:2015":"1013","ref":"305255","source":"Department of Education, Philippines","source:date":"2012","specialized_education":"special_needs","start_date":"2000"},"barangay_slug":"poblacion","barangay_name":"Poblacion"},"geometry":{"type":"Point","coordinates":[120.9786654,17.0892163]}},{"type":"Feature","properties":{"name":"Dantay Elementary School","kind":"school","kind_label":"School","source":"openstreetmap","osm_id":"way/852963960","osm_tags":{"addr:province":"Mountain Province","addr:street":"Reverend John A. Staunton Road","addr:town":"Bontoc","amenity":"school","isced:level":"1","name":"Dantay Elementary School","old_name":"Dantay Primary School","operator":"Bontoc District of Mt. Province Schools Division, DepEd","operator:type":"public","population:pupils:2012":"32","population:pupils:2015":"21","ref":"136256","source":"Department of Education, Philippines","source:date":"2012","start_date":"2000"},"barangay_slug":"alab-proper","barangay_name":"Alab Proper"},"geometry":{"type":"Point","coordinates":[120.9441407,17.0763924]}},{"type":"Feature","properties":{"name":"Bilig Elementary School","kind":"school","kind_label":"School","source":"openstreetmap","osm_id":"way/852965601","osm_tags":{"addr:province":"Mountain Province","addr:town":"Bontoc","addr:village":"Alab Proper","amenity":"school","isced:level":"1","name":"Bilig Elementary School","old_name":"Bilig Primary School","operator":"Bontoc District of Mt. Province Schools Division, DepEd","operator:type":"public","population:pupils:2012":"80","population:pupils:2015":"75","ref":"136252","source":"Department of Education, Philippines","source:date":"2012","start_date":"1999"},"barangay_slug":"alab-proper","barangay_name":"Alab Proper"},"geometry":{"type":"Point","coordinates":[120.9340708,17.0564128]}},{"type":"Feature","properties":{"name":"Albago National High School","kind":"school","kind_label":"School","source":"openstreetmap","osm_id":"way/852974427","osm_tags":{"addr:province":"Mountain Province","addr:street":"Suyo - Mabisil - Payag-eo - Balili Road","addr:town":"Bontoc","amenity":"school","isced:level":"2","name":"Albago National High School","operator":"Bontoc District of Mt. Province Schools Division, DepEd","operator:type":"public","population:pupils:2012":"163","population:pupils:2015":"203","ref":"305228","source":"Department of Education, Philippines","source:date":"2012","start_date":"1995"},"barangay_slug":"balili","barangay_name":"Balili"},"geometry":{"type":"Point","coordinates":[120.936228,17.0470774]}},{"type":"Feature","properties":{"name":"Dalican National High School","kind":"school","kind_label":"School","source":"openstreetmap","osm_id":"way/1009319056","osm_tags":{"addr:hamlet":"Mavatang","addr:province":"Mountain Province","addr:town":"Bontoc","addr:village":"Dalican","amenity":"school","isced:level":"2","name":"Dalican National High School","operator":"Bontoc District, Mountain Province Schools Division, DepEd","operator:type":"public","population:pupils:2012":"90","population:pupils:2015":"101","ref":"319218","source":"Department of Education, Philippines","source:date":"2012","start_date":"2010"},"barangay_slug":"dalican","barangay_name":"Dalican"},"geometry":{"type":"Point","coordinates":[120.9337503,17.1188697]}},{"type":"Feature","properties":{"name":"Bontoc III Primary School","kind":"school","kind_label":"School","source":"openstreetmap","osm_id":"way/1009319069","osm_tags":{"addr:province":"Mountain Province","addr:town":"Bontoc","amenity":"school","isced:level":"0-1","name":"Bontoc III Primary School","old_name":"Foyayeng Primary School","operator":"Bontoc District, Mountain Province Schools Division, DepEd","operator:type":"public","population:pupils:2012":"64","population:pupils:2015":"52","ref":"136257","source":"Department of Education, Philippines","source:date":"2012","start_date":"2000"},"barangay_slug":"bontoc-ili","barangay_name":"Bontoc Ili"},"geometry":{"type":"Point","coordinates":[120.9756276,17.0878889]}},{"type":"Feature","properties":{"name":"Can-eo Chapyusen Multi-grade School","kind":"school","kind_label":"School","source":"openstreetmap","osm_id":"way/1009319218","osm_tags":{"addr:province":"Mountain Province","addr:town":"Bontoc","amenity":"school","isced:level":"0-1","name":"Can-eo Chapyusen Multi-grade School","operator":"Bontoc District, Mountain Province Schools Division, DepEd","operator:type":"public","population:pupils:2012":"23","population:pupils:2015":"28","ref":"221011","source":"Department of Education, Philippines","source:date":"2012","start_date":"2007"},"barangay_slug":"caneo","barangay_name":"Caneo"},"geometry":{"type":"Point","coordinates":[121.0216017,17.0973425]}},{"type":"Feature","properties":{"name":"Gonogon Elementary School","kind":"school","kind_label":"School","source":"openstreetmap","osm_id":"way/1009319220","osm_tags":{"addr:province":"Mountain Province","addr:town":"Bontoc","amenity":"school","isced:level":"0-1","name":"Gonogon Elementary School","operator":"Bontoc District, Mountain Province Schools Division, DepEd","operator:type":"public","population:pupils:2012":"107","population:pupils:2015":"101","ref":"136258","source":"Department of Education, Philippines","source:date":"2012","start_date":"2000"},"barangay_slug":"gonogon","barangay_name":"Gonogon"},"geometry":{"type":"Point","coordinates":[120.9388216,17.0316836]}},{"type":"Feature","properties":{"name":"Talubin National High School","kind":"school","kind_label":"School","source":"openstreetmap","osm_id":"way/1009319222","osm_tags":{"addr:province":"Mountain Province","addr:town":"Bontoc","amenity":"school","isced:level":"2","name":"Talubin National High School","operator":"Bontoc District, Mountain Province Schools Division, DepEd","operator:type":"public","population:pupils:2012":"79","population:pupils:2015":"99","ref":"305268","source":"Department of Education, Philippines","source:date":"2012","start_date":"1996"},"barangay_slug":"talubin","barangay_name":"Talubin"},"geometry":{"type":"Point","coordinates":[121.0070436,17.0539819]}},{"type":"Feature","properties":{"name":"Tocucan National High School","kind":"school","kind_label":"School","source":"openstreetmap","osm_id":"way/1009319243","osm_tags":{"addr:province":"Mountain Province","addr:town":"Bontoc","amenity":"school","isced:level":"2","name":"Tocucan National High School","old_name":"Mountain Province General Comprehensive High School – Tocucan Annex","operator":"Bontoc District, Mountain Province Schools Division, DepEd","operator:type":"public","population:pupils:2012":"69","population:pupils:2015":"63","ref":"305256","source":"Department of Education, Philippines","source:date":"2012","start_date":"1999"},"barangay_slug":"tocucan","barangay_name":"Tocucan"},"geometry":{"type":"Point","coordinates":[121.0156683,17.1194185]}},{"type":"Feature","properties":{"name":"Payag-eo Primary School","kind":"school","kind_label":"School","source":"openstreetmap","osm_id":"way/1023995496","osm_tags":{"addr:province":"Mountain Province","addr:town":"Sagada","amenity":"school","isced:level":"0-1","name":"Payag-eo Primary School","operator":"Sagada District, Mountain Province Schools Division, DepEd","operator:type":"public","population:pupils:2012":"34","population:pupils:2015":"32","ref":"136350","source":"Department of Education, Philippines","source:date":"2012","start_date":"2000"},"barangay_slug":"balili","barangay_name":"Balili"},"geometry":{"type":"Point","coordinates":[120.9239421,17.0415915]}}]}
