{"type":"FeatureCollection","features":[{"type":"Feature","properties":{"manual_id":"manual-road-1784691444871-7grxia","osm_way_id":"manual-road-1784691444871-7grxia","highway":"residential","name":null,"barangay_slug":"guinaang","barangay_name":"Guinaang","length_m":315,"source":"manual-print"},"geometry":{"type":"LineString","coordinates":[[120.954186,17.133939],[120.954148,17.133857],[120.954124,17.133793],[120.953955,17.13378],[120.953872,17.13378],[120.953735,17.133888],[120.953615,17.133906],[120.95351,17.133914],[120.953424,17.133893],[120.953279,17.133839],[120.953137,17.133855],[120.953003,17.133888],[120.952861,17.133898],[120.952713,17.13386],[120.952633,17.133821],[120.952445,17.133749],[120.952292,17.133806],[120.952091,17.133919],[120.952008,17.133955],[120.951885,17.13399],[120.951729,17.134026],[120.951649,17.134029],[120.95148,17.134019]]}},{"type":"Feature","properties":{"manual_id":"manual-road-1784691491828-19uf49","osm_way_id":"manual-road-1784691491828-19uf49","highway":"residential","name":null,"barangay_slug":"guinaang","barangay_name":"Guinaang","length_m":830,"source":"manual-print"},"geometry":{"type":"LineString","coordinates":[[120.950702,17.128139],[120.950713,17.128236],[120.95068,17.128431],[120.950637,17.128605],[120.950632,17.128692],[120.950793,17.129072],[120.950782,17.129292],[120.950868,17.129697],[120.95089,17.129748],[120.950884,17.12983],[120.950782,17.13],[120.950729,17.130056],[120.950718,17.130333],[120.950777,17.130481],[120.950884,17.130738],[120.950879,17.130886],[120.950959,17.130994],[120.951067,17.13123],[120.951544,17.131414],[120.951657,17.131737],[120.952054,17.132127],[120.952381,17.132158],[120.953261,17.132609],[120.953384,17.132804],[120.953314,17.133004],[120.953282,17.133183],[120.953438,17.133368],[120.953738,17.133424],[120.953883,17.133675],[120.953974,17.133762]]}},{"type":"Feature","properties":{"manual_id":"manual-road-1784701065563-a30y06","osm_way_id":"manual-road-1784701065563-a30y06","highway":"residential","name":null,"barangay_slug":"mainit","barangay_name":"Mainit","length_m":127,"source":"manual-print"},"geometry":{"type":"LineString","coordinates":[[120.95373,17.151114],[120.953644,17.151319],[120.953642,17.151468],[120.953781,17.151837],[120.953684,17.152062],[120.953709,17.152201]]}},{"type":"Feature","properties":{"manual_id":"manual-road-1784710457696-8letfk","osm_way_id":"manual-road-1784710457696-8letfk","highway":"residential","name":null,"barangay_slug":"bayyo","barangay_name":"Bayyo","length_m":187,"source":"manual-print"},"geometry":{"type":"LineString","coordinates":[[121.017808,17.007832],[121.017746,17.007768],[121.017679,17.007576],[121.017545,17.007404],[121.017352,17.007304],[121.017215,17.007232],[121.01714,17.007152],[121.017132,17.007081],[121.017011,17.006837],[121.016942,17.006642],[121.016955,17.006475]]}},{"type":"Feature","properties":{"manual_id":"manual-road-1784710469530-cyfuve","osm_way_id":"manual-road-1784710469530-cyfuve","highway":"residential","name":null,"barangay_slug":"bayyo","barangay_name":"Bayyo","length_m":52,"source":"manual-print"},"geometry":{"type":"LineString","coordinates":[[121.017229,17.007217],[121.01739,17.007119],[121.017408,17.007063],[121.017349,17.006919],[121.017282,17.006878]]}}]}
