{"type":"FeatureCollection","features":[{"type":"Feature","properties":{"manual_id":"manual-road-1784867489309-7k0yvr","osm_way_id":"manual-road-1784867489309-7k0yvr","highway":"residential","name":null,"barangay_slug":"saliok","barangay_name":"Saliok","length_m":2488,"source":"manual-print"},"geometry":{"type":"LineString","coordinates":[[121.312026,17.155207],[121.311838,17.155725],[121.311709,17.155761],[121.311532,17.155674],[121.310948,17.155694],[121.310781,17.155889],[121.310696,17.155879],[121.310556,17.155627],[121.309087,17.155279],[121.308717,17.155653],[121.308641,17.155627],[121.308341,17.154941],[121.307992,17.15472],[121.307815,17.154684],[121.307633,17.154838],[121.307537,17.155207],[121.306973,17.15635],[121.306839,17.157217],[121.306759,17.157416],[121.305949,17.158534],[121.305574,17.158836],[121.305675,17.159149],[121.305654,17.159421],[121.30552,17.159477],[121.305413,17.159267],[121.305139,17.159026],[121.304968,17.15858],[121.304715,17.158457],[121.304286,17.158493],[121.303772,17.158693],[121.30367,17.158575],[121.303605,17.158303],[121.302806,17.158001],[121.302034,17.158672],[121.3019,17.160887],[121.301637,17.161297],[121.301326,17.161476],[121.301127,17.161722],[121.300977,17.161779],[121.300779,17.16184],[121.3005,17.16244],[121.300275,17.162445],[121.299835,17.162389],[121.299497,17.162614],[121.299374,17.162599],[121.299272,17.162419],[121.299121,17.162399],[121.298971,17.16224],[121.298714,17.162102],[121.298478,17.162235],[121.298194,17.162322]]}},{"type":"Feature","properties":{"manual_id":"manual-road-1784868372193-f3gmty","osm_way_id":"manual-road-1784868372193-f3gmty","highway":"residential","name":null,"barangay_slug":"maducayan","barangay_name":"Maducayan","length_m":2445,"source":"manual-print"},"geometry":{"type":"LineString","coordinates":[[121.286389,17.159108],[121.286727,17.159323],[121.286813,17.159426],[121.287135,17.15959],[121.28735,17.159723],[121.287553,17.159995],[121.287972,17.160225],[121.288159,17.160599],[121.288342,17.160723],[121.288481,17.161292],[121.288251,17.161558],[121.288192,17.161999],[121.288267,17.162071],[121.288487,17.161932],[121.288658,17.161953],[121.288953,17.161814],[121.289125,17.16186],[121.289259,17.161799],[121.289699,17.161604],[121.289994,17.161394],[121.290332,17.161338],[121.290846,17.161604],[121.291034,17.16184],[121.2912,17.161901],[121.291463,17.162189],[121.291549,17.162235],[121.291565,17.162578],[121.291629,17.162645],[121.291833,17.162532],[121.291994,17.162614],[121.292311,17.163255],[121.292557,17.163419],[121.292611,17.163685],[121.292439,17.165618],[121.292289,17.165787],[121.29237,17.1659],[121.293662,17.165515],[121.293759,17.165228],[121.29378,17.1649],[121.293909,17.164798],[121.294075,17.164808],[121.294359,17.165156],[121.294322,17.165597],[121.294644,17.165848],[121.294611,17.166084],[121.294729,17.166156],[121.295475,17.166243],[121.295668,17.166499],[121.295893,17.166581],[121.296054,17.166458],[121.296585,17.165813],[121.29644,17.165105],[121.296596,17.164854],[121.297186,17.164259],[121.297588,17.162419]]}}]}
