{
  "type": "FeatureCollection",
  "features": [
    {
      "type": "Feature",
      "properties": {
        "id": "lm-1784917131795-w5y35t",
        "name": "Butique\nNational\nHigh School",
        "kind": "school",
        "label_placement": "callout-right",
        "label_size": "large",
        "source": "in-app",
        "added_at": "2026-07-24T18:18:51.795Z",
        "updated_at": "2026-07-28T01:06:24.044Z"
      },
      "geometry": {
        "type": "Point",
        "coordinates": [
          121.46286427976233,
          17.10448314427969
        ]
      }
    },
    {
      "type": "Feature",
      "properties": {
        "id": "lm-1785116756710-t8go1v",
        "name": "Paracelis\nDistrict\nHospital",
        "kind": "hospital",
        "label_placement": "callout-right",
        "label_size": "medium",
        "source": "in-app",
        "added_at": "2026-07-27T01:45:56.710Z",
        "updated_at": "2026-07-27T01:47:24.592Z"
      },
      "geometry": {
        "type": "Point",
        "coordinates": [
          121.40329242200869,
          17.17958110736069
        ]
      }
    },
    {
      "type": "Feature",
      "properties": {
        "id": "lm-1785135631539-zszu53",
        "name": "Paracelis\nMunicipal \nHall",
        "kind": "govt",
        "label_placement": "callout-top",
        "label_size": "large",
        "source": "in-app",
        "added_at": "2026-07-27T07:00:31.539Z",
        "updated_at": "2026-07-27T07:02:16.992Z"
      },
      "geometry": {
        "type": "Point",
        "coordinates": [
          121.40344262099296,
          17.18171299990385
        ]
      }
    },
    {
      "type": "Feature",
      "properties": {
        "id": "lm-1785135846116-12rda7",
        "name": "Paracelis\nCentral \nSchool",
        "kind": "school",
        "label_placement": "callout-top",
        "label_size": "large",
        "source": "in-app",
        "added_at": "2026-07-27T07:04:06.116Z",
        "updated_at": "2026-07-27T07:04:10.955Z"
      },
      "geometry": {
        "type": "Point",
        "coordinates": [
          121.40012204649064,
          17.18856011113103
        ]
      }
    },
    {
      "type": "Feature",
      "properties": {
        "id": "lm-1785135899451-bbouvy",
        "name": "Paracelis\nNational\nHigh School",
        "kind": "school",
        "label_placement": "callout-top",
        "label_size": "large",
        "source": "in-app",
        "added_at": "2026-07-27T07:04:59.451Z",
        "updated_at": "2026-07-27T07:05:01.253Z"
      },
      "geometry": {
        "type": "Point",
        "coordinates": [
          121.3909274337367,
          17.18813435962313
        ]
      }
    },
    {
      "type": "Feature",
      "properties": {
        "id": "lm-1785135930915-no91j6",
        "name": "Minoli\nElementary\nSchool",
        "kind": "school",
        "label_placement": "callout-top",
        "label_size": "large",
        "source": "in-app",
        "added_at": "2026-07-27T07:05:30.915Z"
      },
      "geometry": {
        "type": "Point",
        "coordinates": [
          121.37531697747882,
          17.170024686369267
        ]
      }
    },
    {
      "type": "Feature",
      "properties": {
        "id": "lm-1785135970450-mso4da",
        "name": "Amolong\nElementary School",
        "kind": "school",
        "label_placement": "callout-top",
        "label_size": "large",
        "source": "in-app",
        "added_at": "2026-07-27T07:06:10.450Z"
      },
      "geometry": {
        "type": "Point",
        "coordinates": [
          121.36655956488468,
          17.175643876342694
        ]
      }
    },
    {
      "type": "Feature",
      "properties": {
        "id": "lm-1785198950614-j6hgl6",
        "name": "Kalao\nPrimary School",
        "kind": "school",
        "label_placement": "callout-top",
        "label_size": "large",
        "source": "in-app",
        "added_at": "2026-07-28T00:35:50.614Z",
        "updated_at": "2026-07-28T00:35:53.904Z"
      },
      "geometry": {
        "type": "Point",
        "coordinates": [
          121.43352895977709,
          17.182040945052552
        ]
      }
    },
    {
      "type": "Feature",
      "properties": {
        "id": "lm-1785198992436-s68o6c",
        "name": "Natta Longan\nElementary\nSchool",
        "kind": "school",
        "label_placement": "callout-top",
        "label_size": "large",
        "source": "in-app",
        "added_at": "2026-07-28T00:36:32.436Z",
        "updated_at": "2026-07-28T00:36:33.954Z"
      },
      "geometry": {
        "type": "Point",
        "coordinates": [
          121.4447432756558,
          17.179035089699507
        ]
      }
    },
    {
      "type": "Feature",
      "properties": {
        "id": "lm-1785199253741-ond6dd",
        "name": "Danao\nElementary\nSchool",
        "kind": "school",
        "label_placement": "callout-top",
        "label_size": "large",
        "source": "in-app",
        "added_at": "2026-07-28T00:40:53.741Z",
        "updated_at": "2026-07-28T00:40:55.327Z"
      },
      "geometry": {
        "type": "Point",
        "coordinates": [
          121.40256017444032,
          17.213111425814464
        ]
      }
    },
    {
      "type": "Feature",
      "properties": {
        "id": "lm-1785199301257-8r5dmm",
        "name": "Paracelis\nTechnical\nand Vocational\nHIgh School",
        "kind": "school",
        "label_placement": "callout-top",
        "label_size": "large",
        "source": "in-app",
        "added_at": "2026-07-28T00:41:41.257Z",
        "updated_at": "2026-07-28T00:41:43.680Z"
      },
      "geometry": {
        "type": "Point",
        "coordinates": [
          121.41341507422685,
          17.18584374266481
        ]
      }
    },
    {
      "type": "Feature",
      "properties": {
        "id": "lm-1785199448853-3ismww",
        "name": "Gassilang\nElementary\nSchool",
        "kind": "school",
        "label_placement": "callout-top",
        "label_size": "large",
        "source": "in-app",
        "added_at": "2026-07-28T00:44:08.853Z"
      },
      "geometry": {
        "type": "Point",
        "coordinates": [
          121.43218785518035,
          17.192629512556362
        ]
      }
    },
    {
      "type": "Feature",
      "properties": {
        "id": "lm-1785199594101-pthp9n",
        "name": "Balindan\nElementary\nSchool",
        "kind": "school",
        "label_placement": "callout-top",
        "label_size": "large",
        "source": "in-app",
        "added_at": "2026-07-28T00:46:34.101Z",
        "updated_at": "2026-07-28T00:46:35.246Z"
      },
      "geometry": {
        "type": "Point",
        "coordinates": [
          121.41352236267888,
          17.157823853107033
        ]
      }
    },
    {
      "type": "Feature",
      "properties": {
        "id": "lm-1785199993727-rk6zic",
        "name": "Addang\nElementary\nSchool",
        "kind": "school",
        "label_placement": "callout-top",
        "label_size": "large",
        "source": "in-app",
        "added_at": "2026-07-28T00:53:13.727Z",
        "updated_at": "2026-07-28T00:53:17.318Z"
      },
      "geometry": {
        "type": "Point",
        "coordinates": [
          121.34053945544701,
          17.195887526129056
        ]
      }
    },
    {
      "type": "Feature",
      "properties": {
        "id": "lm-1785200039814-zzcrfd",
        "name": "Bacarri\nNational\nTrade Agricultural\nHigh School\n- Bunot Extension",
        "kind": "school",
        "label_placement": "callout-top",
        "label_size": "large",
        "source": "in-app",
        "added_at": "2026-07-28T00:53:59.814Z",
        "updated_at": "2026-07-28T00:54:01.777Z"
      },
      "geometry": {
        "type": "Point",
        "coordinates": [
          121.34800136090985,
          17.201048036510535
        ]
      }
    },
    {
      "type": "Feature",
      "properties": {
        "id": "lm-1785200065065-9yfydg",
        "name": "Apalis\nPrimary\nSchool",
        "kind": "school",
        "label_placement": "callout-top",
        "label_size": "large",
        "source": "in-app",
        "added_at": "2026-07-28T00:54:25.065Z",
        "updated_at": "2026-07-28T00:54:26.875Z"
      },
      "geometry": {
        "type": "Point",
        "coordinates": [
          121.35308951130267,
          17.208927567297962
        ]
      }
    },
    {
      "type": "Feature",
      "properties": {
        "id": "lm-1785200097885-eusjqh",
        "name": "Maab-abnot\nPrimary\nSchool",
        "kind": "school",
        "label_placement": "callout-top",
        "label_size": "large",
        "source": "in-app",
        "added_at": "2026-07-28T00:54:57.885Z",
        "updated_at": "2026-07-28T00:54:59.429Z"
      },
      "geometry": {
        "type": "Point",
        "coordinates": [
          121.37041926388714,
          17.23014820642343
        ]
      }
    },
    {
      "type": "Feature",
      "properties": {
        "id": "lm-1785200168455-a3eqxu",
        "name": "Bunot\nBarangay\nHealth Station",
        "kind": "govt",
        "label_placement": "callout-top",
        "label_size": "large",
        "source": "in-app",
        "added_at": "2026-07-28T00:56:08.455Z",
        "updated_at": "2026-07-28T00:56:18.339Z"
      },
      "geometry": {
        "type": "Point",
        "coordinates": [
          121.33943974972324,
          17.19801517545148
        ]
      }
    },
    {
      "type": "Feature",
      "properties": {
        "id": "lm-1785200407073-x8mbqv",
        "name": "Bananao\nElementary\nSchool",
        "kind": "school",
        "label_placement": "callout-top",
        "label_size": "large",
        "source": "in-app",
        "added_at": "2026-07-28T01:00:07.073Z",
        "updated_at": "2026-07-28T01:00:12.081Z"
      },
      "geometry": {
        "type": "Point",
        "coordinates": [
          121.43287181846422,
          17.123448037080927
        ]
      }
    },
    {
      "type": "Feature",
      "properties": {
        "id": "lm-1785200753391-8zplaq",
        "name": "Botigue\nElementary\nSchool",
        "kind": "school",
        "label_placement": "callout-right",
        "label_size": "large",
        "source": "in-app",
        "added_at": "2026-07-28T01:05:53.391Z",
        "updated_at": "2026-07-28T01:06:30.683Z"
      },
      "geometry": {
        "type": "Point",
        "coordinates": [
          121.46304667003785,
          17.102058382970995
        ]
      }
    },
    {
      "type": "Feature",
      "properties": {
        "id": "lm-1785200997947-9g4gyu",
        "name": "Palitod\nPrimary\nSchool",
        "kind": "school",
        "label_placement": "callout-top",
        "label_size": "large",
        "source": "in-app",
        "added_at": "2026-07-28T01:09:57.947Z",
        "updated_at": "2026-07-28T01:10:00.517Z"
      },
      "geometry": {
        "type": "Point",
        "coordinates": [
          121.48281455039853,
          17.126913893628004
        ]
      }
    },
    {
      "type": "Feature",
      "properties": {
        "id": "lm-1785201027106-ep1gd9",
        "name": "Burayoc\nElementary\nSchool",
        "kind": "school",
        "label_placement": "callout-top",
        "label_size": "large",
        "source": "in-app",
        "added_at": "2026-07-28T01:10:27.106Z",
        "updated_at": "2026-07-28T01:10:29.549Z"
      },
      "geometry": {
        "type": "Point",
        "coordinates": [
          121.49087727065329,
          17.10881322591446
        ]
      }
    },
    {
      "type": "Feature",
      "properties": {
        "id": "lm-1785201310556-51csov",
        "name": "Anonat\nElementary\nSchool",
        "kind": "school",
        "label_placement": "callout-top",
        "label_size": "large",
        "source": "in-app",
        "added_at": "2026-07-28T01:15:10.556Z",
        "updated_at": "2026-07-28T01:15:12.261Z"
      },
      "geometry": {
        "type": "Point",
        "coordinates": [
          121.51112258431576,
          17.1700632527101
        ]
      }
    },
    {
      "type": "Feature",
      "properties": {
        "id": "lm-1785201395842-zl1qtw",
        "name": "Anonat\nNational\nAgricultural\nand Vocational\nHigh School",
        "kind": "school",
        "label_placement": "callout-top",
        "label_size": "large",
        "source": "in-app",
        "added_at": "2026-07-28T01:16:35.842Z",
        "updated_at": "2026-07-28T01:16:40.130Z"
      },
      "geometry": {
        "type": "Point",
        "coordinates": [
          121.51071488858462,
          17.13749404514429
        ]
      }
    },
    {
      "type": "Feature",
      "properties": {
        "id": "lm-1785201711926-xz3hm3",
        "name": "Bagabag\nElementary\nSchool",
        "kind": "school",
        "label_placement": "callout-top",
        "label_size": "large",
        "source": "in-app",
        "added_at": "2026-07-28T01:21:51.926Z",
        "updated_at": "2026-07-28T01:21:53.928Z"
      },
      "geometry": {
        "type": "Point",
        "coordinates": [
          121.49622827770985,
          17.21749002327737
        ]
      }
    },
    {
      "type": "Feature",
      "properties": {
        "id": "lm-1785201753772-kkyaza",
        "name": "Camparadi\nElementary\nSchool",
        "kind": "school",
        "label_placement": "callout-top",
        "label_size": "large",
        "source": "in-app",
        "added_at": "2026-07-28T01:22:33.772Z",
        "updated_at": "2026-07-28T01:22:35.299Z"
      },
      "geometry": {
        "type": "Point",
        "coordinates": [
          121.45969390866208,
          17.25405137567868
        ]
      }
    },
    {
      "type": "Feature",
      "properties": {
        "id": "lm-1785201815750-iptvv1",
        "name": "Buringal\nNational\nHigh School",
        "kind": "school",
        "label_placement": "callout-top",
        "label_size": "large",
        "source": "in-app",
        "added_at": "2026-07-28T01:23:35.750Z"
      },
      "geometry": {
        "type": "Point",
        "coordinates": [
          121.49455994351148,
          17.28635220763789
        ]
      }
    },
    {
      "type": "Feature",
      "properties": {
        "id": "lm-1785201911780-f8k08x",
        "name": "Catao\nElementary\nSchool",
        "kind": "school",
        "label_placement": "callout-top",
        "label_size": "large",
        "source": "in-app",
        "added_at": "2026-07-28T01:25:11.780Z",
        "updated_at": "2026-07-28T01:25:13.675Z"
      },
      "geometry": {
        "type": "Point",
        "coordinates": [
          121.50601565833396,
          17.279385652663834
        ]
      }
    }
  ]
}
