{"type":"FeatureCollection","features":[{"type":"Feature","properties":{"manual_id":"manual-road-1784928979354-9m2tgq","osm_way_id":"manual-road-1784928979354-9m2tgq","highway":"residential","name":null,"barangay_slug":"tambingan","barangay_name":"Tambingan","length_m":412,"source":"manual-print"},"geometry":{"type":"LineString","coordinates":[[120.92669,17.03055],[120.926556,17.030381],[120.926639,17.029811],[120.926524,17.029527],[120.926513,17.029324],[120.926556,17.029196],[120.926703,17.029101],[120.926765,17.029027],[120.926827,17.028844],[120.9268,17.028711],[120.926534,17.028493],[120.926481,17.02839],[120.926505,17.028313],[120.92688,17.028103],[120.926947,17.02789],[120.926797,17.027749],[120.926486,17.027747],[120.92647,17.027736]]}}]}
