{
  "type": "FeatureCollection",
  "features": [
    {
      "type": "Feature",
      "properties": {
        "id": "lm-1785206449586-b8ng1v",
        "name": "Saclit Elementary School",
        "kind": "school",
        "label_placement": "callout-top",
        "label_size": "large",
        "source": "in-app",
        "added_at": "2026-07-28T02:40:49.586Z",
        "updated_at": "2026-07-28T02:40:53.754Z"
      },
      "geometry": {
        "type": "Point",
        "coordinates": [
          121.06537163259388,
          17.2136648311235
        ]
      }
    },
    {
      "type": "Feature",
      "properties": {
        "id": "lm-1785206552091-z027w6",
        "name": "Bekigan \nElementary School",
        "kind": "school",
        "label_placement": "callout-top",
        "label_size": "large",
        "source": "in-app",
        "added_at": "2026-07-28T02:42:32.091Z",
        "updated_at": "2026-07-28T02:42:34.111Z"
      },
      "geometry": {
        "type": "Point",
        "coordinates": [
          121.01266086100766,
          17.182456350073416
        ]
      }
    },
    {
      "type": "Feature",
      "properties": {
        "id": "lm-1785206624734-uc5o22",
        "name": "Belwang\nNational\nHigh School",
        "kind": "school",
        "label_placement": "callout-top",
        "label_size": "large",
        "source": "in-app",
        "added_at": "2026-07-28T02:43:44.734Z"
      },
      "geometry": {
        "type": "Point",
        "coordinates": [
          121.00212514396532,
          17.183602330578655
        ]
      }
    },
    {
      "type": "Feature",
      "properties": {
        "id": "lm-1785206644069-zppw8o",
        "name": "Belwang\nElementary\nSchool",
        "kind": "school",
        "label_placement": "callout-top",
        "label_size": "large",
        "source": "in-app",
        "added_at": "2026-07-28T02:44:04.069Z",
        "updated_at": "2026-07-28T02:44:05.763Z"
      },
      "geometry": {
        "type": "Point",
        "coordinates": [
          121.01053655146069,
          17.180036796707906
        ]
      }
    },
    {
      "type": "Feature",
      "properties": {
        "id": "lm-1785206734811-2bh9t0",
        "name": "Sacasacan\nElementary School",
        "kind": "school",
        "label_placement": "callout-top",
        "label_size": "large",
        "source": "in-app",
        "added_at": "2026-07-28T02:45:34.811Z",
        "updated_at": "2026-07-28T02:45:36.130Z"
      },
      "geometry": {
        "type": "Point",
        "coordinates": [
          121.01727426044165,
          17.16425656105591
        ]
      }
    },
    {
      "type": "Feature",
      "properties": {
        "id": "lm-1785206924158-ln6kg5",
        "name": "Sadanga\nCentral School",
        "kind": "school",
        "label_placement": "callout-top",
        "label_size": "large",
        "source": "in-app",
        "added_at": "2026-07-28T02:48:44.158Z",
        "updated_at": "2026-07-28T02:48:47.855Z"
      },
      "geometry": {
        "type": "Point",
        "coordinates": [
          121.02893114092095,
          17.168807955144047
        ]
      }
    },
    {
      "type": "Feature",
      "properties": {
        "id": "lm-1785206943055-fz3ogg",
        "name": "Sadanga\nNational \nHigh School",
        "kind": "school",
        "label_placement": "callout-top",
        "label_size": "large",
        "source": "in-app",
        "added_at": "2026-07-28T02:49:03.055Z",
        "updated_at": "2026-07-28T02:49:48.074Z"
      },
      "geometry": {
        "type": "Point",
        "coordinates": [
          121.03118419666268,
          17.166942422642357
        ]
      }
    },
    {
      "type": "Feature",
      "properties": {
        "id": "lm-1785207121861-hm61vr",
        "name": "Betwagan\nNational \nHigh School",
        "kind": "school",
        "label_placement": "callout-top",
        "label_size": "large",
        "source": "in-app",
        "added_at": "2026-07-28T02:52:01.861Z",
        "updated_at": "2026-07-28T02:52:04.723Z"
      },
      "geometry": {
        "type": "Point",
        "coordinates": [
          121.06091648340566,
          17.143925107556576
        ]
      }
    }
  ]
}
