{"type":"FeatureCollection","features":[{"type":"Feature","properties":{"name":"Anabel uecfi","kind":"business","kind_label":"Business","source":"google_places","google_place_id":"ChIJeczVCwDPjzMRGCk_SfTCp-A","google_primary_type":"place_of_worship","google_primary_type_label":"Place of Worship","google_types":["place_of_worship","association_or_organization","point_of_interest","establishment"],"google_maps_uri":"https://maps.google.com/?cid=16188121740063222040&g_mp=Cidnb29nbGUubWFwcy5wbGFjZXMudjEuUGxhY2VzLlNlYXJjaFRleHQQAhgEIAA","google_icon_mask_base_uri":"https://maps.gstatic.com/mapfiles/place_api/icons/v2/generic_pinlet","google_icon_background_color":"#7B9EB0","formatted_address":"43HF+5FC Anabel, Sitio kortan, Sadanga, Mountain Province, Philippines","business_status":"OPERATIONAL","rating":null,"user_rating_count":null,"barangay_slug":"anabel","barangay_name":"Anabel"},"geometry":{"type":"Point","coordinates":[121.07363889999999,17.1279251]}},{"type":"Feature","properties":{"name":"School Building","kind":"business","kind_label":"Business","source":"google_places","google_place_id":"ChIJTUzhX57PjzMRKg4ojU8rDn4","google_primary_type":"premise","google_primary_type_label":"Building","google_types":["premise","street_address"],"google_maps_uri":"https://maps.google.com/?cid=9083245119123492394&g_mp=Cidnb29nbGUubWFwcy5wbGFjZXMudjEuUGxhY2VzLlNlYXJjaFRleHQQAhgEIAA","google_icon_mask_base_uri":"https://maps.gstatic.com/mapfiles/place_api/icons/v2/generic_pinlet","google_icon_background_color":"#7B9EB0","formatted_address":"School Building, High School Compound, Mount Province - Tabuk - Enrile - Cagayan Rd, Anabel, Sadanga, Mountain Province, Philippines","business_status":null,"rating":null,"user_rating_count":null,"barangay_slug":"anabel","barangay_name":"Anabel"},"geometry":{"type":"Point","coordinates":[121.0607082,17.1433402]}},{"type":"Feature","properties":{"name":"V5 Fuel Station and SnackHouse","kind":"business","kind_label":"Business","source":"google_places","google_place_id":"ChIJa1Bj6vrPjzMR2nS8dh6IjrM","google_primary_type":"snack_bar","google_primary_type_label":"Snack Bar","google_types":["snack_bar","meal_takeaway","restaurant","food","point_of_interest","establishment"],"google_maps_uri":"https://maps.google.com/?cid=12938428443904472282&g_mp=Cilnb29nbGUubWFwcy5wbGFjZXMudjEuUGxhY2VzLlNlYXJjaE5lYXJieRACGAQgAA","google_icon_mask_base_uri":"https://maps.gstatic.com/mapfiles/place_api/icons/v2/restaurant_pinlet","google_icon_background_color":"#FF9E67","formatted_address":"Tabrak Street, Sadanga, 2617 Mountain Province, Philippines","business_status":"OPERATIONAL","rating":4,"user_rating_count":1,"barangay_slug":"anabel","barangay_name":"Anabel"},"geometry":{"type":"Point","coordinates":[121.0575537,17.1363672]}},{"type":"Feature","properties":{"name":"Anabel Barangay Hall and Clinic","kind":"govt","kind_label":"Government","source":"google_places","google_place_id":"ChIJ7xkeHADPjzMRgIIVn0hRkKE","google_primary_type":"government_office","google_primary_type_label":"Government Office","google_types":["government_office","point_of_interest","establishment"],"google_maps_uri":"https://maps.google.com/?cid=11641894409101214336&g_mp=Cilnb29nbGUubWFwcy5wbGFjZXMudjEuUGxhY2VzLlNlYXJjaE5lYXJieRACGAQgAA","google_icon_mask_base_uri":"https://maps.gstatic.com/mapfiles/place_api/icons/v2/civic-bldg_pinlet","google_icon_background_color":"#7B9EB0","formatted_address":"43M7+538, Sadanga, Mountain Province, Philippines","business_status":"OPERATIONAL","rating":null,"user_rating_count":null,"barangay_slug":"anabel","barangay_name":"Anabel"},"geometry":{"type":"Point","coordinates":[121.0626645,17.1329594]}},{"type":"Feature","properties":{"name":"Sadanga Fire Station","kind":"govt","kind_label":"Government","source":"google_places","google_place_id":"ChIJAUGjPwDPjzMRDI-NLBylLG4","google_primary_type":"government_office","google_primary_type_label":"Government Office","google_types":["government_office","point_of_interest","establishment"],"google_maps_uri":"https://maps.google.com/?cid=7938901783572483852&g_mp=Cilnb29nbGUubWFwcy5wbGFjZXMudjEuUGxhY2VzLlNlYXJjaE5lYXJieRACGAQgAA","google_icon_mask_base_uri":"https://maps.gstatic.com/mapfiles/place_api/icons/v2/civic-bldg_pinlet","google_icon_background_color":"#7B9EB0","formatted_address":"43HF+5FC Tabrak, Sadanga, Mountain Province, Philippines","business_status":"OPERATIONAL","rating":null,"user_rating_count":null,"barangay_slug":"anabel","barangay_name":"Anabel"},"geometry":{"type":"Point","coordinates":[121.07363889999999,17.1279251]}},{"type":"Feature","properties":{"name":"Sadanga Fire Station","kind":"govt","kind_label":"Government","source":"google_places","google_place_id":"ChIJg19zeADPjzMRxkO_gMa9QcI","google_primary_type":"government_office","google_primary_type_label":"Government Office","google_types":["government_office","point_of_interest","establishment"],"google_maps_uri":"https://maps.google.com/?cid=13997677777105404870&g_mp=Cilnb29nbGUubWFwcy5wbGFjZXMudjEuUGxhY2VzLlNlYXJjaE5lYXJieRACGAQgAA","google_icon_mask_base_uri":"https://maps.gstatic.com/mapfiles/place_api/icons/v2/civic-bldg_pinlet","google_icon_background_color":"#7B9EB0","formatted_address":"43P5+J2Q Anabel, Sadanga, Mountain Province, Philippines","business_status":"OPERATIONAL","rating":null,"user_rating_count":null,"barangay_slug":"anabel","barangay_name":"Anabel"},"geometry":{"type":"Point","coordinates":[121.0576064,17.1365904]}},{"type":"Feature","properties":{"name":"Anabel High School","kind":"school","kind_label":"School","source":"google_places","google_place_id":"ChIJ5ylA0JDPjzMRnqXovaVcIW0","google_primary_type":"secondary_school","google_primary_type_label":"High school","google_types":["secondary_school","school","educational_institution","point_of_interest","establishment"],"google_maps_uri":"https://maps.google.com/?cid=7863668291291096478&g_mp=Cilnb29nbGUubWFwcy5wbGFjZXMudjEuUGxhY2VzLlNlYXJjaE5lYXJieRACGAQgAA","google_icon_mask_base_uri":"https://maps.gstatic.com/mapfiles/place_api/icons/v2/school_pinlet","google_icon_background_color":"#7B9EB0","formatted_address":"43M7+5QH, Sadanga, Mountain Province, Philippines","business_status":"OPERATIONAL","rating":null,"user_rating_count":null,"barangay_slug":"anabel","barangay_name":"Anabel"},"geometry":{"type":"Point","coordinates":[121.0644731,17.1329422]}},{"type":"Feature","properties":{"name":"Betwagan National High School","kind":"school","kind_label":"School","source":"google_places","google_place_id":"ChIJUSpQPt7PjzMRA7zXaAGdETM","google_primary_type":"secondary_school","google_primary_type_label":"High school","google_types":["secondary_school","school","educational_institution","point_of_interest","establishment"],"google_maps_uri":"https://maps.google.com/?cid=3679894999917902851&g_mp=Cilnb29nbGUubWFwcy5wbGFjZXMudjEuUGxhY2VzLlNlYXJjaE5lYXJieRACGAQgAA","google_icon_mask_base_uri":"https://maps.gstatic.com/mapfiles/place_api/icons/v2/school_pinlet","google_icon_background_color":"#7B9EB0","formatted_address":"43P6+9Q, Sadanga, Mountain Province, Philippines","business_status":"OPERATIONAL","rating":null,"user_rating_count":null,"barangay_slug":"anabel","barangay_name":"Anabel"},"geometry":{"type":"Point","coordinates":[121.0606352,17.1435677]}},{"type":"Feature","properties":{"name":"Fuel Station and Restaurant","kind":"transport","kind_label":"Transport","source":"google_places","google_place_id":"ChIJD1vEubbPjzMRwq6VGyYV-2E","google_primary_type":"gas_station","google_primary_type_label":"Gas Station","google_types":["gas_station","snack_bar","meal_takeaway","restaurant","food","point_of_interest","service","establishment"],"google_maps_uri":"https://maps.google.com/?cid=7060260094249119426&g_mp=Cilnb29nbGUubWFwcy5wbGFjZXMudjEuUGxhY2VzLlNlYXJjaE5lYXJieRACGAQgAA","google_icon_mask_base_uri":"https://maps.gstatic.com/mapfiles/place_api/icons/v2/gas_pinlet","google_icon_background_color":"#909CE1","formatted_address":"Tabrak Street, Sadanga, 2617 Mountain Province, Philippines","business_status":"OPERATIONAL","rating":4,"user_rating_count":1,"barangay_slug":"anabel","barangay_name":"Anabel"},"geometry":{"type":"Point","coordinates":[121.0575075,17.1362335]}},{"type":"Feature","properties":{"name":"Bekigan, Sadanga, Mountain Province","kind":"business","kind_label":"Business","source":"google_places","google_place_id":"ChIJtTHDB3HPjzMRG6_jbrfXw3g","google_primary_type":"housing_complex","google_primary_type_label":"Housing Complex","google_types":["housing_complex","point_of_interest","service","establishment"],"google_maps_uri":"https://maps.google.com/?cid=8702036087849332507&g_mp=Cidnb29nbGUubWFwcy5wbGFjZXMudjEuUGxhY2VzLlNlYXJjaFRleHQQAhgEIAA","google_icon_mask_base_uri":"https://maps.gstatic.com/mapfiles/place_api/icons/v2/generic_pinlet","google_icon_background_color":"#7B9EB0","formatted_address":"52J7+V2W, Sadanga, Mountain Province, Philippines","business_status":"OPERATIONAL","rating":4,"user_rating_count":4,"barangay_slug":"bekigan","barangay_name":"Bekigan"},"geometry":{"type":"Point","coordinates":[121.01246669999999,17.181973799999998]}},{"type":"Feature","properties":{"name":"Bekigan Barangay Hall","kind":"govt","kind_label":"Government","source":"google_places","google_place_id":"ChIJkZp7DgDPjzMR0JHpkNYgEOo","google_primary_type":"government_office","google_primary_type_label":"Government Office","google_types":["government_office","point_of_interest","establishment"],"google_maps_uri":"https://maps.google.com/?cid=16866016710428824016&g_mp=Cilnb29nbGUubWFwcy5wbGFjZXMudjEuUGxhY2VzLlNlYXJjaE5lYXJieRACGAQgAA","google_icon_mask_base_uri":"https://maps.gstatic.com/mapfiles/place_api/icons/v2/civic-bldg_pinlet","google_icon_background_color":"#7B9EB0","formatted_address":"52J7+V2W, Sadanga, Mountain Province, Philippines","business_status":"OPERATIONAL","rating":null,"user_rating_count":null,"barangay_slug":"bekigan","barangay_name":"Bekigan"},"geometry":{"type":"Point","coordinates":[121.01274300000001,17.182387]}},{"type":"Feature","properties":{"name":"Belwang","kind":"business","kind_label":"Business","source":"google_places","google_place_id":"ChIJNZCKcQDPjzMRYYWu7q4U0rk","google_primary_type":"place_of_worship","google_primary_type_label":"Place of Worship","google_types":["place_of_worship","association_or_organization","point_of_interest","establishment"],"google_maps_uri":"https://maps.google.com/?cid=13389787383687185761&g_mp=Cidnb29nbGUubWFwcy5wbGFjZXMudjEuUGxhY2VzLlNlYXJjaFRleHQQAhgEIAA","google_icon_mask_base_uri":"https://maps.gstatic.com/mapfiles/place_api/icons/v2/generic_pinlet","google_icon_background_color":"#7B9EB0","formatted_address":"52J5+2M3, Sadanga, Mountain Province, Philippines","business_status":"OPERATIONAL","rating":null,"user_rating_count":null,"barangay_slug":"belwang","barangay_name":"Belwang"},"geometry":{"type":"Point","coordinates":[121.00917539999999,17.1800249]}},{"type":"Feature","properties":{"name":"Belwang Barangay Hall","kind":"govt","kind_label":"Government","source":"google_places","google_place_id":"ChIJe4DAIADPjzMReG1Y6HgR88A","google_primary_type":"government_office","google_primary_type_label":"Government Office","google_types":["government_office","point_of_interest","establishment"],"google_maps_uri":"https://maps.google.com/?cid=13903475685614710136&g_mp=Cilnb29nbGUubWFwcy5wbGFjZXMudjEuUGxhY2VzLlNlYXJjaE5lYXJieRACGAQgAA","google_icon_mask_base_uri":"https://maps.gstatic.com/mapfiles/place_api/icons/v2/civic-bldg_pinlet","google_icon_background_color":"#7B9EB0","formatted_address":"52J5+2M3, Sadanga, Mountain Province, Philippines","business_status":"OPERATIONAL","rating":null,"user_rating_count":null,"barangay_slug":"belwang","barangay_name":"Belwang"},"geometry":{"type":"Point","coordinates":[121.00918530000001,17.1799631]}},{"type":"Feature","properties":{"name":"Angoten Cave","kind":"tourism","kind_label":"Tourism","source":"google_places","google_place_id":"ChIJXWy4AZ3PjzMRprs_mXUnknM","google_primary_type":"tourist_attraction","google_primary_type_label":"Tourist Attraction","google_types":["tourist_attraction","point_of_interest","establishment"],"google_maps_uri":"https://maps.google.com/?cid=8327762046997216166&g_mp=Cilnb29nbGUubWFwcy5wbGFjZXMudjEuUGxhY2VzLlNlYXJjaE5lYXJieRACGAQgAA","google_icon_mask_base_uri":"https://maps.gstatic.com/mapfiles/place_api/icons/v2/generic_pinlet","google_icon_background_color":"#13B5C7","formatted_address":"52X2+FV5, Sadanga, Mountain Province, Philippines","business_status":"OPERATIONAL","rating":5,"user_rating_count":2,"barangay_slug":"belwang","barangay_name":"Belwang"},"geometry":{"type":"Point","coordinates":[121.0022344,17.198647299999998]}},{"type":"Feature","properties":{"name":"Bekigan","kind":"tourism","kind_label":"Tourism","source":"google_places","google_place_id":"ChIJQ8PPcwDPjzMR49Vv6COCEL4","google_primary_type":"tourist_attraction","google_primary_type_label":"Tourist Attraction","google_types":["tourist_attraction","point_of_interest","establishment"],"google_maps_uri":"https://maps.google.com/?cid=13695589557568787939&g_mp=Cilnb29nbGUubWFwcy5wbGFjZXMudjEuUGxhY2VzLlNlYXJjaE5lYXJieRACGAQgAA","google_icon_mask_base_uri":"https://maps.gstatic.com/mapfiles/place_api/icons/v2/generic_pinlet","google_icon_background_color":"#13B5C7","formatted_address":"52W4+67M, Sadanga, Mountain Province, Philippines","business_status":"OPERATIONAL","rating":null,"user_rating_count":null,"barangay_slug":"belwang","barangay_name":"Belwang"},"geometry":{"type":"Point","coordinates":[121.00566969999998,17.1955892]}},{"type":"Feature","properties":{"name":"Belwang Rice Terraces","kind":"tourism","kind_label":"Tourism","source":"google_places","google_place_id":"ChIJy89GMADPjzMRcdgwKeUO6P4","google_primary_type":"tourist_attraction","google_primary_type_label":"Tourist Attraction","google_types":["tourist_attraction","point_of_interest","establishment"],"google_maps_uri":"https://maps.google.com/?cid=18367947457631934577&g_mp=Cilnb29nbGUubWFwcy5wbGFjZXMudjEuUGxhY2VzLlNlYXJjaE5lYXJieRACGAQgAA","google_icon_mask_base_uri":"https://maps.gstatic.com/mapfiles/place_api/icons/v2/generic_pinlet","google_icon_background_color":"#13B5C7","formatted_address":"52G5+33Q, Sadanga, Mountain Province, Philippines","business_status":"OPERATIONAL","rating":4.8,"user_rating_count":4,"barangay_slug":"belwang","barangay_name":"Belwang"},"geometry":{"type":"Point","coordinates":[121.00774169999998,17.1752067]}},{"type":"Feature","properties":{"name":"BLUE LAGOON","kind":"tourism","kind_label":"Tourism","source":"google_places","google_place_id":"ChIJ67oWUADPjzMRTlWuQjKT_MQ","google_primary_type":"tourist_attraction","google_primary_type_label":"Tourist Attraction","google_types":["tourist_attraction","point_of_interest","establishment"],"google_maps_uri":"https://maps.google.com/?cid=14194381969641329998&g_mp=Cilnb29nbGUubWFwcy5wbGFjZXMudjEuUGxhY2VzLlNlYXJjaE5lYXJieRACGAQgAA","google_icon_mask_base_uri":"https://maps.gstatic.com/mapfiles/place_api/icons/v2/generic_pinlet","google_icon_background_color":"#13B5C7","formatted_address":"5XXW+5Q2, Sadanga, Mountain Province, Philippines","business_status":"OPERATIONAL","rating":null,"user_rating_count":null,"barangay_slug":"belwang","barangay_name":"Belwang"},"geometry":{"type":"Point","coordinates":[120.9968791,17.1978895]}},{"type":"Feature","properties":{"name":"Fuwa-as Falls","kind":"tourism","kind_label":"Tourism","source":"google_places","google_place_id":"ChIJM31EkKzOjzMRSvYXdc3JasM","google_primary_type":"scenic_spot","google_primary_type_label":"Scenic Spot","google_types":["scenic_spot","tourist_attraction","point_of_interest","establishment"],"google_maps_uri":"https://maps.google.com/?cid=14081289069197260362&g_mp=Cilnb29nbGUubWFwcy5wbGFjZXMudjEuUGxhY2VzLlNlYXJjaE5lYXJieRACGAQgAA","google_icon_mask_base_uri":"https://maps.gstatic.com/mapfiles/place_api/icons/v2/generic_pinlet","google_icon_background_color":"#7B9EB0","formatted_address":"52W4+67R, Sadanga, Mountain Province, Philippines","business_status":"OPERATIONAL","rating":4.9,"user_rating_count":12,"barangay_slug":"belwang","barangay_name":"Belwang"},"geometry":{"type":"Point","coordinates":[121.0056408,17.1956135]}},{"type":"Feature","properties":{"name":"Sports Field","kind":"tourism","kind_label":"Tourism","source":"google_places","google_place_id":"ChIJAQBwp8DOjzMRDjpoAlJW2iY","google_primary_type":"athletic_field","google_primary_type_label":"Athletic Field","google_types":["athletic_field","sports_activity_location","point_of_interest","establishment"],"google_maps_uri":"https://maps.google.com/?cid=2799645028591876622&g_mp=Cilnb29nbGUubWFwcy5wbGFjZXMudjEuUGxhY2VzLlNlYXJjaE5lYXJieRACGAQgAA","google_icon_mask_base_uri":"https://maps.gstatic.com/mapfiles/place_api/icons/v2/generic_pinlet","google_icon_background_color":"#7B9EB0","formatted_address":"Sadanga, Mountain Province, Philippines","business_status":"OPERATIONAL","rating":5,"user_rating_count":1,"barangay_slug":"belwang","barangay_name":"Belwang"},"geometry":{"type":"Point","coordinates":[121.01061809999997,17.1798429]}},{"type":"Feature","properties":{"name":"St. Martha Chapel","kind":"worship","kind_label":"Worship","source":"google_places","google_place_id":"ChIJmQ5HWr_OjzMRRI0cUdADui8","google_primary_type":"church","google_primary_type_label":"Church","google_types":["church","place_of_worship","association_or_organization","point_of_interest","establishment"],"google_maps_uri":"https://maps.google.com/?cid=3439065458699701572&g_mp=Cilnb29nbGUubWFwcy5wbGFjZXMudjEuUGxhY2VzLlNlYXJjaE5lYXJieRACGAQgAA","google_icon_mask_base_uri":"https://maps.gstatic.com/mapfiles/place_api/icons/v2/worship_christian_pinlet","google_icon_background_color":"#7B9EB0","formatted_address":"52J6+225, Sadanga, Mountain Province, Philippines","business_status":"OPERATIONAL","rating":5,"user_rating_count":1,"barangay_slug":"belwang","barangay_name":"Belwang"},"geometry":{"type":"Point","coordinates":[121.01011810000001,17.1800218]}},{"type":"Feature","properties":{"name":"St. Paul Mission- Anglican","kind":"worship","kind_label":"Worship","source":"google_places","google_place_id":"ChIJm_TxTgDPjzMRVmToCFU7dAU","google_primary_type":"church","google_primary_type_label":"Church","google_types":["church","place_of_worship","association_or_organization","point_of_interest","establishment"],"google_maps_uri":"https://maps.google.com/?cid=393004303895782486&g_mp=Cilnb29nbGUubWFwcy5wbGFjZXMudjEuUGxhY2VzLlNlYXJjaE5lYXJieRACGAQgAA","google_icon_mask_base_uri":"https://maps.gstatic.com/mapfiles/place_api/icons/v2/worship_christian_pinlet","google_icon_background_color":"#7B9EB0","formatted_address":"52H5+RMV, Sadanga, Mountain Province, Philippines","business_status":"OPERATIONAL","rating":null,"user_rating_count":null,"barangay_slug":"belwang","barangay_name":"Belwang"},"geometry":{"type":"Point","coordinates":[121.00918229999999,17.1796166]}},{"type":"Feature","properties":{"name":"Betwagan","kind":"business","kind_label":"Business","source":"google_places","google_place_id":"ChIJ_RHWQnDPjzMRLUTriHhqEAk","google_primary_type":null,"google_primary_type_label":null,"google_types":["sublocality_level_2","sublocality","political"],"google_maps_uri":"https://maps.google.com/?cid=653139011894461485&g_mp=Cidnb29nbGUubWFwcy5wbGFjZXMudjEuUGxhY2VzLlNlYXJjaFRleHQQAhgEIAA","google_icon_mask_base_uri":"https://maps.gstatic.com/mapfiles/place_api/icons/v2/generic_pinlet","google_icon_background_color":"#7B9EB0","formatted_address":"Betwagan, Sadanga, Mountain Province, Philippines","business_status":null,"rating":null,"user_rating_count":null,"barangay_slug":"betwagan","barangay_name":"Betwagan"},"geometry":{"type":"Point","coordinates":[121.07363889999999,17.1594844]}},{"type":"Feature","properties":{"name":"Betwagan Rice Terraces","kind":"business","kind_label":"Business","source":"google_places","google_place_id":"ChIJQ7l7oILPjzMRi2zGY5AQDQ8","google_primary_type":"natural_feature","google_primary_type_label":"Natural Feature","google_types":["natural_feature","establishment"],"google_maps_uri":"https://maps.google.com/?cid=1084541297601440907&g_mp=Cidnb29nbGUubWFwcy5wbGFjZXMudjEuUGxhY2VzLlNlYXJjaFRleHQQAhgEIAA","google_icon_mask_base_uri":"https://maps.gstatic.com/mapfiles/place_api/icons/v2/generic_pinlet","google_icon_background_color":"#7B9EB0","formatted_address":"Betwagan Rice Terraces, Sadanga, Mountain Province, Philippines","business_status":null,"rating":4.8,"user_rating_count":4,"barangay_slug":"betwagan","barangay_name":"Betwagan"},"geometry":{"type":"Point","coordinates":[121.06862350000002,17.143897799999998]}},{"type":"Feature","properties":{"name":"EJASE CONSUMER GOODS TRADING","kind":"business","kind_label":"Business","source":"google_places","google_place_id":"ChIJqbcbwFPPjzMR65waWVQo4Ik","google_primary_type":"home_goods_store","google_primary_type_label":"Home Goods Store","google_types":["home_goods_store","point_of_interest","store","establishment"],"google_maps_uri":"https://maps.google.com/?cid=9934985120716594411&g_mp=Cilnb29nbGUubWFwcy5wbGFjZXMudjEuUGxhY2VzLlNlYXJjaE5lYXJieRACGAQgAA","google_icon_mask_base_uri":"https://maps.gstatic.com/mapfiles/place_api/icons/v2/shopping_pinlet","google_icon_background_color":"#4B96F3","formatted_address":"chagchag, Sadanga, 2617 Mountain Province, Philippines","business_status":"OPERATIONAL","rating":null,"user_rating_count":null,"barangay_slug":"betwagan","barangay_name":"Betwagan"},"geometry":{"type":"Point","coordinates":[121.0663155,17.147291199999998]}},{"type":"Feature","properties":{"name":"Hanging Bridge","kind":"business","kind_label":"Business","source":"google_places","google_place_id":"ChIJjUtT_oPFjzMRX8_irb4IdSk","google_primary_type":"bridge","google_primary_type_label":"Bridge","google_types":["bridge","transportation_service","point_of_interest","establishment"],"google_maps_uri":"https://maps.google.com/?cid=2987303542884323167&g_mp=Cidnb29nbGUubWFwcy5wbGFjZXMudjEuUGxhY2VzLlNlYXJjaFRleHQQAhgEIAA","google_icon_mask_base_uri":"https://maps.gstatic.com/mapfiles/place_api/icons/v2/generic_pinlet","google_icon_background_color":"#7B9EB0","formatted_address":"43WP+P3H, Sadanga, Mountain Province, Philippines","business_status":"OPERATIONAL","rating":5,"user_rating_count":1,"barangay_slug":"betwagan","barangay_name":"Betwagan"},"geometry":{"type":"Point","coordinates":[121.0852474,17.1468181]}},{"type":"Feature","properties":{"name":"High School Compound","kind":"business","kind_label":"Business","source":"google_places","google_place_id":"ChIJqUxiZ57PjzMREeuJYyDADlk","google_primary_type":null,"google_primary_type_label":null,"google_types":["premise","street_address"],"google_maps_uri":"https://maps.google.com/?cid=6417277764391004945&g_mp=Cidnb29nbGUubWFwcy5wbGFjZXMudjEuUGxhY2VzLlNlYXJjaFRleHQQAhgEIAA","google_icon_mask_base_uri":"https://maps.gstatic.com/mapfiles/place_api/icons/v2/generic_pinlet","google_icon_background_color":"#7B9EB0","formatted_address":"Betwagan, High School Compound, Mount Province - Tabuk - Enrile - Cagayan Rd, Betwagan, Sadanga, Lalawigang Bulubundukin, Philippines","business_status":null,"rating":null,"user_rating_count":null,"barangay_slug":"betwagan","barangay_name":"Betwagan"},"geometry":{"type":"Point","coordinates":[121.06092090000001,17.143725399999997]}},{"type":"Feature","properties":{"name":"Saclit","kind":"business","kind_label":"Business","source":"google_places","google_place_id":"ChIJm_iKWR_PjzMRMjC2yfKpU8Y","google_primary_type":"service","google_primary_type_label":"Services","google_types":["service","point_of_interest","establishment"],"google_maps_uri":"https://maps.google.com/?cid=14290952902808055858&g_mp=Cidnb29nbGUubWFwcy5wbGFjZXMudjEuUGxhY2VzLlNlYXJjaFRleHQQAhgEIAA","google_icon_mask_base_uri":"https://maps.gstatic.com/mapfiles/place_api/icons/v2/generic_pinlet","google_icon_background_color":"#7B9EB0","formatted_address":"5394+3H8, Sadanga, Mountain Province, Philippines","business_status":"OPERATIONAL","rating":null,"user_rating_count":null,"barangay_slug":"betwagan","barangay_name":"Betwagan"},"geometry":{"type":"Point","coordinates":[121.05644249999999,17.167666]}},{"type":"Feature","properties":{"name":"School Building","kind":"business","kind_label":"Business","source":"google_places","google_place_id":"ChIJAfqdaJ7PjzMRzhSUAftNNL4","google_primary_type":"premise","google_primary_type_label":"Building","google_types":["premise","street_address"],"google_maps_uri":"https://maps.google.com/?cid=13705665306453873870&g_mp=Cidnb29nbGUubWFwcy5wbGFjZXMudjEuUGxhY2VzLlNlYXJjaFRleHQQAhgEIAA","google_icon_mask_base_uri":"https://maps.gstatic.com/mapfiles/place_api/icons/v2/generic_pinlet","google_icon_background_color":"#7B9EB0","formatted_address":"School Building, High School Compound, Mount Province - Tabuk - Enrile - Cagayan Rd, Betwagan, Sadanga, Mountain Province, Philippines","business_status":null,"rating":null,"user_rating_count":null,"barangay_slug":"betwagan","barangay_name":"Betwagan"},"geometry":{"type":"Point","coordinates":[121.0609769,17.14387]}},{"type":"Feature","properties":{"name":"theartdone","kind":"business","kind_label":"Business","source":"google_places","google_place_id":"ChIJFYbe_6DPjzMR-cbkuABuYcs","google_primary_type":"service","google_primary_type_label":"Services","google_types":["service","point_of_interest","establishment"],"google_maps_uri":"https://maps.google.com/?cid=14655115611821360889&g_mp=Cidnb29nbGUubWFwcy5wbGFjZXMudjEuUGxhY2VzLlNlYXJjaFRleHQQAhgEIAA","google_icon_mask_base_uri":"https://maps.gstatic.com/mapfiles/place_api/icons/v2/generic_pinlet","google_icon_background_color":"#7B9EB0","formatted_address":"Infant Jesus Subdivision, Micah street, Sadanga, 2617 Mountain Province, Philippines","business_status":"OPERATIONAL","rating":null,"user_rating_count":null,"barangay_slug":"betwagan","barangay_name":"Betwagan"},"geometry":{"type":"Point","coordinates":[121.05644249999999,17.167666]}},{"type":"Feature","properties":{"name":"Betwagan Barangay Hall","kind":"govt","kind_label":"Government","source":"google_places","google_place_id":"ChIJAwnWSADPjzMR8BgizMWC0qM","google_primary_type":"government_office","google_primary_type_label":"Government Office","google_types":["government_office","point_of_interest","establishment"],"google_maps_uri":"https://maps.google.com/?cid=11804641359336446192&g_mp=Cilnb29nbGUubWFwcy5wbGFjZXMudjEuUGxhY2VzLlNlYXJjaE5lYXJieRACGAQgAA","google_icon_mask_base_uri":"https://maps.gstatic.com/mapfiles/place_api/icons/v2/civic-bldg_pinlet","google_icon_background_color":"#7B9EB0","formatted_address":"43XF+97W, Sadanga, Mountain Province, Philippines","business_status":"OPERATIONAL","rating":null,"user_rating_count":null,"barangay_slug":"betwagan","barangay_name":"Betwagan"},"geometry":{"type":"Point","coordinates":[121.073212,17.148618]}},{"type":"Feature","properties":{"name":"Betwagan Elementary School","kind":"school","kind_label":"School","source":"google_places","google_place_id":"ChIJ0_lQVgDPjzMRD6B8RHP2sG4","google_primary_type":"primary_school","google_primary_type_label":"Elementary School","google_types":["primary_school","school","educational_institution","point_of_interest","establishment"],"google_maps_uri":"https://maps.google.com/?cid=7976145915003838479&g_mp=Cilnb29nbGUubWFwcy5wbGFjZXMudjEuUGxhY2VzLlNlYXJjaE5lYXJieRACGAQgAA","google_icon_mask_base_uri":"https://maps.gstatic.com/mapfiles/place_api/icons/v2/school_pinlet","google_icon_background_color":"#7B9EB0","formatted_address":"Steel Bridge, Betwagan, Sadanga, Mountain Province, Philippines","business_status":"OPERATIONAL","rating":null,"user_rating_count":null,"barangay_slug":"betwagan","barangay_name":"Betwagan"},"geometry":{"type":"Point","coordinates":[121.0738123,17.1477192]}},{"type":"Feature","properties":{"name":"Chanchanneg Rice Terraces","kind":"tourism","kind_label":"Tourism","source":"google_places","google_place_id":"ChIJJz3_LQDFjzMR5T7h-8hYXBE","google_primary_type":"tourist_attraction","google_primary_type_label":"Tourist Attraction","google_types":["tourist_attraction","point_of_interest","establishment"],"google_maps_uri":"https://maps.google.com/?cid=1250972416744701669&g_mp=Cilnb29nbGUubWFwcy5wbGFjZXMudjEuUGxhY2VzLlNlYXJjaE5lYXJieRACGAQgAA","google_icon_mask_base_uri":"https://maps.gstatic.com/mapfiles/place_api/icons/v2/generic_pinlet","google_icon_background_color":"#13B5C7","formatted_address":"43WH+4W9, Sadanga, Mountain Province, Philippines","business_status":"OPERATIONAL","rating":5,"user_rating_count":1,"barangay_slug":"betwagan","barangay_name":"Betwagan"},"geometry":{"type":"Point","coordinates":[121.0798683,17.1452837]}},{"type":"Feature","properties":{"name":"Chettar Rice Terraces","kind":"tourism","kind_label":"Tourism","source":"google_places","google_place_id":"ChIJv1a_oAPPjzMRO5phTEi0UVw","google_primary_type":"tourist_attraction","google_primary_type_label":"Tourist Attraction","google_types":["tourist_attraction","point_of_interest","establishment"],"google_maps_uri":"https://maps.google.com/?cid=6652296347215043131&g_mp=Cilnb29nbGUubWFwcy5wbGFjZXMudjEuUGxhY2VzLlNlYXJjaE5lYXJieRACGAQgAA","google_icon_mask_base_uri":"https://maps.gstatic.com/mapfiles/place_api/icons/v2/generic_pinlet","google_icon_background_color":"#13B5C7","formatted_address":"532H+G7F, Sadanga, Mountain Province, Philippines","business_status":"OPERATIONAL","rating":5,"user_rating_count":1,"barangay_slug":"betwagan","barangay_name":"Betwagan"},"geometry":{"type":"Point","coordinates":[121.0781613,17.151323599999998]}},{"type":"Feature","properties":{"name":"Kanga Rice Terraces","kind":"tourism","kind_label":"Tourism","source":"google_places","google_place_id":"ChIJY_eFHe7PjzMROXDU1zxeusM","google_primary_type":"tourist_attraction","google_primary_type_label":"Tourist Attraction","google_types":["tourist_attraction","point_of_interest","establishment"],"google_maps_uri":"https://maps.google.com/?cid=14103688798476202041&g_mp=Cilnb29nbGUubWFwcy5wbGFjZXMudjEuUGxhY2VzLlNlYXJjaE5lYXJieRACGAQgAA","google_icon_mask_base_uri":"https://maps.gstatic.com/mapfiles/place_api/icons/v2/generic_pinlet","google_icon_background_color":"#13B5C7","formatted_address":"43V9+P2M, Sadanga, Mountain Province, Philippines","business_status":"OPERATIONAL","rating":5,"user_rating_count":1,"barangay_slug":"betwagan","barangay_name":"Betwagan"},"geometry":{"type":"Point","coordinates":[121.06753979999999,17.1443259]}},{"type":"Feature","properties":{"name":"Eunice","kind":"worship","kind_label":"Worship","source":"google_places","google_place_id":"ChIJm6P0IgDPjzMROz4XFaSlYHw","google_primary_type":"church","google_primary_type_label":"Church","google_types":["church","place_of_worship","association_or_organization","point_of_interest","establishment"],"google_maps_uri":"https://maps.google.com/?cid=8962345382614351419&g_mp=Cilnb29nbGUubWFwcy5wbGFjZXMudjEuUGxhY2VzLlNlYXJjaE5lYXJieRACGAQgAA","google_icon_mask_base_uri":"https://maps.gstatic.com/mapfiles/place_api/icons/v2/worship_christian_pinlet","google_icon_background_color":"#7B9EB0","formatted_address":"5394+3H8, Sadanga, Mountain Province, Philippines","business_status":"OPERATIONAL","rating":null,"user_rating_count":null,"barangay_slug":"betwagan","barangay_name":"Betwagan"},"geometry":{"type":"Point","coordinates":[121.05644249999999,17.167666]}},{"type":"Feature","properties":{"name":"Roman Catholic Church","kind":"worship","kind_label":"Worship","source":"google_places","google_place_id":"ChIJ1fa_UXnPjzMR666uwUZf5H0","google_primary_type":"church","google_primary_type_label":"Church","google_types":["church","place_of_worship","association_or_organization","point_of_interest","establishment"],"google_maps_uri":"https://maps.google.com/?cid=9071480306932821739&g_mp=Cilnb29nbGUubWFwcy5wbGFjZXMudjEuUGxhY2VzLlNlYXJjaE5lYXJieRACGAQgAA","google_icon_mask_base_uri":"https://maps.gstatic.com/mapfiles/place_api/icons/v2/worship_christian_pinlet","google_icon_background_color":"#7B9EB0","formatted_address":"43XF+97W, Sadanga, Mountain Province, Philippines","business_status":"OPERATIONAL","rating":null,"user_rating_count":null,"barangay_slug":"betwagan","barangay_name":"Betwagan"},"geometry":{"type":"Point","coordinates":[121.0731879,17.148480499999998]}},{"type":"Feature","properties":{"name":"UECFI (Centro Cristal)","kind":"worship","kind_label":"Worship","source":"google_places","google_place_id":"ChIJrYAhLwDPjzMR-pz6idQxqdo","google_primary_type":"church","google_primary_type_label":"Church","google_types":["church","place_of_worship","association_or_organization","point_of_interest","establishment"],"google_maps_uri":"https://maps.google.com/?cid=15756179560250121466&g_mp=Cilnb29nbGUubWFwcy5wbGFjZXMudjEuUGxhY2VzLlNlYXJjaE5lYXJieRACGAQgAA","google_icon_mask_base_uri":"https://maps.gstatic.com/mapfiles/place_api/icons/v2/worship_christian_pinlet","google_icon_background_color":"#7B9EB0","formatted_address":"Ap-apak, Betwagan, Sadanga, Mountain Province, Philippines","business_status":"OPERATIONAL","rating":null,"user_rating_count":null,"barangay_slug":"betwagan","barangay_name":"Betwagan"},"geometry":{"type":"Point","coordinates":[121.0734206,17.146558499999998]}},{"type":"Feature","properties":{"name":"UECFI (Centro Urim)","kind":"worship","kind_label":"Worship","source":"google_places","google_place_id":"ChIJ_cIULgDPjzMRXFuN15S4Rls","google_primary_type":"church","google_primary_type_label":"Church","google_types":["church","place_of_worship","association_or_organization","point_of_interest","establishment"],"google_maps_uri":"https://maps.google.com/?cid=6577147255232224092&g_mp=Cilnb29nbGUubWFwcy5wbGFjZXMudjEuUGxhY2VzLlNlYXJjaE5lYXJieRACGAQgAA","google_icon_mask_base_uri":"https://maps.gstatic.com/mapfiles/place_api/icons/v2/worship_christian_pinlet","google_icon_background_color":"#7B9EB0","formatted_address":"Fa-ang, Betwagan, Sadanga, Mountain Province, Philippines","business_status":"OPERATIONAL","rating":null,"user_rating_count":null,"barangay_slug":"betwagan","barangay_name":"Betwagan"},"geometry":{"type":"Point","coordinates":[121.0739923,17.1484414]}},{"type":"Feature","properties":{"name":"Demang Rice Terraces","kind":"business","kind_label":"Business","source":"google_places","google_place_id":"ChIJnTf469fPjzMRJ3jDJA7I5IU","google_primary_type":"scenic_spot","google_primary_type_label":"Scenic Spot","google_types":["scenic_spot","point_of_interest","establishment"],"google_maps_uri":"https://maps.google.com/?cid=9648056264806332455&g_mp=Cidnb29nbGUubWFwcy5wbGFjZXMudjEuUGxhY2VzLlNlYXJjaFRleHQQAhgEIAA","google_icon_mask_base_uri":"https://maps.gstatic.com/mapfiles/place_api/icons/v2/generic_pinlet","google_icon_background_color":"#7B9EB0","formatted_address":"52CF+4MW, Sadanga, Mountain Province, Philippines","business_status":"OPERATIONAL","rating":4,"user_rating_count":1,"barangay_slug":"demang","barangay_name":"Demang"},"geometry":{"type":"Point","coordinates":[121.02419230000001,17.170356299999998]}},{"type":"Feature","properties":{"name":"Demang,Elementary School, Sadanga","kind":"school","kind_label":"School","source":"google_places","google_place_id":"ChIJcXrnu-fOjzMRBAw3DuxFnvI","google_primary_type":"primary_school","google_primary_type_label":"Elementary School","google_types":["primary_school","school","educational_institution","point_of_interest","establishment"],"google_maps_uri":"https://maps.google.com/?cid=17482487683651931140&g_mp=Cilnb29nbGUubWFwcy5wbGFjZXMudjEuUGxhY2VzLlNlYXJjaE5lYXJieRACGAQgAA","google_icon_mask_base_uri":"https://maps.gstatic.com/mapfiles/place_api/icons/v2/school_pinlet","google_icon_background_color":"#7B9EB0","formatted_address":"52CF+HGH, Sadanga, Mountain Province, Philippines","business_status":"OPERATIONAL","rating":null,"user_rating_count":null,"barangay_slug":"demang","barangay_name":"Demang"},"geometry":{"type":"Point","coordinates":[121.02387009999998,17.1714385]}},{"type":"Feature","properties":{"name":"Adawshat OFW","kind":"business","kind_label":"Business","source":"google_places","google_place_id":"ChIJr0ioVQDPjzMRIkdQJjOAc8E","google_primary_type":"store","google_primary_type_label":"Store","google_types":["store","point_of_interest","establishment"],"google_maps_uri":"https://maps.google.com/?cid=13939626228816299810&g_mp=Cilnb29nbGUubWFwcy5wbGFjZXMudjEuUGxhY2VzLlNlYXJjaE5lYXJieRACGAQgAA","google_icon_mask_base_uri":"https://maps.gstatic.com/mapfiles/place_api/icons/v2/shopping_pinlet","google_icon_background_color":"#4B96F3","formatted_address":"529G+8G3, Poblacion, Sadanga, Mountain Province, Philippines","business_status":"OPERATIONAL","rating":null,"user_rating_count":null,"barangay_slug":"sadanga","barangay_name":"Poblacion"},"geometry":{"type":"Point","coordinates":[121.0262965,17.168274999999998]}},{"type":"Feature","properties":{"name":"DOLENSA","kind":"business","kind_label":"Business","source":"google_places","google_place_id":"ChIJLVQ-eE3PjzMRlolwobo6c6s","google_primary_type":"clothing_store","google_primary_type_label":"Clothing Store","google_types":["clothing_store","point_of_interest","store","establishment"],"google_maps_uri":"https://maps.google.com/?cid=12354282776054237590&g_mp=Cilnb29nbGUubWFwcy5wbGFjZXMudjEuUGxhY2VzLlNlYXJjaE5lYXJieRACGAQgAA","google_icon_mask_base_uri":"https://maps.gstatic.com/mapfiles/place_api/icons/v2/shopping_pinlet","google_icon_background_color":"#4B96F3","formatted_address":"Maba-ak, Poblacion, Sadanga, 2617 Mountain Province, Philippines","business_status":"OPERATIONAL","rating":null,"user_rating_count":null,"barangay_slug":"sadanga","barangay_name":"Poblacion"},"geometry":{"type":"Point","coordinates":[121.0260205,17.1677587]}},{"type":"Feature","properties":{"name":"Ma-atong Hot Spring","kind":"business","kind_label":"Business","source":"google_places","google_place_id":"ChIJ6bGL-d7PjzMR4Gak8HjQ8CU","google_primary_type":"spa","google_primary_type_label":"Spa","google_types":["spa","point_of_interest","establishment"],"google_maps_uri":"https://maps.google.com/?cid=2733914191665850080&g_mp=Cidnb29nbGUubWFwcy5wbGFjZXMudjEuUGxhY2VzLlNlYXJjaFRleHQQAhgEIAA","google_icon_mask_base_uri":"https://maps.gstatic.com/mapfiles/place_api/icons/v2/generic_pinlet","google_icon_background_color":"#7B9EB0","formatted_address":"529G+93J, Sadanga, Mountain Province, Philippines","business_status":"OPERATIONAL","rating":4.7,"user_rating_count":3,"barangay_slug":"sadanga","barangay_name":"Poblacion"},"geometry":{"type":"Point","coordinates":[121.02514910000001,17.168469899999998]}},{"type":"Feature","properties":{"name":"Nabenngan Bridge","kind":"business","kind_label":"Business","source":"google_places","google_place_id":"ChIJlcANhGvPjzMRabVJ4j5AxkI","google_primary_type":"bridge","google_primary_type_label":"Bridge","google_types":["bridge","transportation_service","point_of_interest","establishment"],"google_maps_uri":"https://maps.google.com/?cid=4811603890720585065&g_mp=Cidnb29nbGUubWFwcy5wbGFjZXMudjEuUGxhY2VzLlNlYXJjaFRleHQQAhgEIAA","google_icon_mask_base_uri":"https://maps.gstatic.com/mapfiles/place_api/icons/v2/generic_pinlet","google_icon_background_color":"#7B9EB0","formatted_address":"527M+XR, Sadanga, Mountain Province, Philippines","business_status":"OPERATIONAL","rating":4.7,"user_rating_count":24,"barangay_slug":"sadanga","barangay_name":"Poblacion"},"geometry":{"type":"Point","coordinates":[121.0345276,17.164999299999998]}},{"type":"Feature","properties":{"name":"Wandas storage","kind":"business","kind_label":"Business","source":"google_places","google_place_id":"ChIJ59Y9DO3PjzMR9HykOcgYdrw","google_primary_type":"steak_house","google_primary_type_label":"Steak House","google_types":["steak_house","restaurant","point_of_interest","food","establishment"],"google_maps_uri":"https://maps.google.com/?cid=13580068974621916404&g_mp=Cilnb29nbGUubWFwcy5wbGFjZXMudjEuUGxhY2VzLlNlYXJjaE5lYXJieRACGAQgAA","google_icon_mask_base_uri":"https://maps.gstatic.com/mapfiles/place_api/icons/v2/restaurant_pinlet","google_icon_background_color":"#FF9E67","formatted_address":"Poblacion, Sadanga, 2617 Mountain Province, Philippines","business_status":"OPERATIONAL","rating":null,"user_rating_count":null,"barangay_slug":"sadanga","barangay_name":"Poblacion"},"geometry":{"type":"Point","coordinates":[121.0392436,17.1758483]}},{"type":"Feature","properties":{"name":"Anabel Elementary School","kind":"govt","kind_label":"Government","source":"google_places","google_place_id":"ChIJOaAO2TjPjzMR8JQiX2y5qEQ","google_primary_type":"government_office","google_primary_type_label":"Government Office","google_types":["school","educational_institution","government_office","point_of_interest","establishment"],"google_maps_uri":"https://maps.google.com/?cid=4947408065770198256&g_mp=Cilnb29nbGUubWFwcy5wbGFjZXMudjEuUGxhY2VzLlNlYXJjaE5lYXJieRACGAQgAA","google_icon_mask_base_uri":"https://maps.gstatic.com/mapfiles/place_api/icons/v2/school_pinlet","google_icon_background_color":"#7B9EB0","formatted_address":"Mt. Province - Cagayan via Tabuk Enrile Road, 53F3+MGP, Sadanga, 2617 Mountain Province, Philippines","business_status":"CLOSED_TEMPORARILY","rating":null,"user_rating_count":null,"barangay_slug":"sadanga","barangay_name":"Poblacion"},"geometry":{"type":"Point","coordinates":[121.053822,17.17422]}},{"type":"Feature","properties":{"name":"Belwang National High School","kind":"govt","kind_label":"Government","source":"google_places","google_place_id":"ChIJOaAO2TjPjzMRzokkpuTO578","google_primary_type":"government_office","google_primary_type_label":"Government Office","google_types":["school","educational_institution","government_office","point_of_interest","establishment"],"google_maps_uri":"https://maps.google.com/?cid=13828248662299675086&g_mp=Cilnb29nbGUubWFwcy5wbGFjZXMudjEuUGxhY2VzLlNlYXJjaE5lYXJieRACGAQgAA","google_icon_mask_base_uri":"https://maps.gstatic.com/mapfiles/place_api/icons/v2/school_pinlet","google_icon_background_color":"#7B9EB0","formatted_address":"Mt. Province - Cagayan via Tabuk Enrile Road, 53F3+MGP, Sadanga, 2617 Mountain Province, Philippines","business_status":"CLOSED_TEMPORARILY","rating":null,"user_rating_count":null,"barangay_slug":"sadanga","barangay_name":"Poblacion"},"geometry":{"type":"Point","coordinates":[121.053822,17.17422]}},{"type":"Feature","properties":{"name":"Betwagan Elementary School","kind":"govt","kind_label":"Government","source":"google_places","google_place_id":"ChIJOaAO2TjPjzMRJF2mQedpNUQ","google_primary_type":"government_office","google_primary_type_label":"Government Office","google_types":["school","educational_institution","government_office","point_of_interest","establishment"],"google_maps_uri":"https://maps.google.com/?cid=4914951010304548132&g_mp=Cilnb29nbGUubWFwcy5wbGFjZXMudjEuUGxhY2VzLlNlYXJjaE5lYXJieRACGAQgAA","google_icon_mask_base_uri":"https://maps.gstatic.com/mapfiles/place_api/icons/v2/school_pinlet","google_icon_background_color":"#7B9EB0","formatted_address":"Mt. Province - Cagayan via Tabuk Enrile Road, Betwagan, 53F3+MGP, Sadanga, 2617 Mountain Province, Philippines","business_status":"CLOSED_TEMPORARILY","rating":null,"user_rating_count":null,"barangay_slug":"sadanga","barangay_name":"Poblacion"},"geometry":{"type":"Point","coordinates":[121.053822,17.17422]}},{"type":"Feature","properties":{"name":"Opucan","kind":"govt","kind_label":"Government","source":"google_places","google_place_id":"ChIJMZvqegDPjzMRPQUJFDgMW4Y","google_primary_type":"local_government_office","google_primary_type_label":"Local Government Office","google_types":["local_government_office","government_office","service","point_of_interest","establishment"],"google_maps_uri":"https://maps.google.com/?cid=9681345258956850493&g_mp=Cilnb29nbGUubWFwcy5wbGFjZXMudjEuUGxhY2VzLlNlYXJjaE5lYXJieRACGAQgAA","google_icon_mask_base_uri":"https://maps.gstatic.com/mapfiles/place_api/icons/v2/civic-bldg_pinlet","google_icon_background_color":"#7B9EB0","formatted_address":"2617 Sadanga Rd, Sadanga, Mountain Province, Philippines","business_status":"OPERATIONAL","rating":5,"user_rating_count":1,"barangay_slug":"sadanga","barangay_name":"Poblacion"},"geometry":{"type":"Point","coordinates":[121.03553129999999,17.1690485]}},{"type":"Feature","properties":{"name":"Saclit Elementary School","kind":"govt","kind_label":"Government","source":"google_places","google_place_id":"ChIJOaAO2TjPjzMRLdNALRJoaFg","google_primary_type":"government_office","google_primary_type_label":"Government Office","google_types":["school","educational_institution","government_office","point_of_interest","establishment"],"google_maps_uri":"https://maps.google.com/?cid=6370456100193489709&g_mp=Cilnb29nbGUubWFwcy5wbGFjZXMudjEuUGxhY2VzLlNlYXJjaE5lYXJieRACGAQgAA","google_icon_mask_base_uri":"https://maps.gstatic.com/mapfiles/place_api/icons/v2/school_pinlet","google_icon_background_color":"#7B9EB0","formatted_address":"53F3+MGP Cagayan via, 52, Sadanga, 2617 Mountain Province, Philippines","business_status":"CLOSED_TEMPORARILY","rating":null,"user_rating_count":null,"barangay_slug":"sadanga","barangay_name":"Poblacion"},"geometry":{"type":"Point","coordinates":[121.053822,17.17422]}},{"type":"Feature","properties":{"name":"Sadanga Municipal Hall","kind":"govt","kind_label":"Government","source":"google_places","google_place_id":"ChIJl32LxCXPjzMR1YsxEaAGriM","google_primary_type":"government_office","google_primary_type_label":"Government Office","google_types":["government_office","point_of_interest","establishment"],"google_maps_uri":"https://maps.google.com/?cid=2570999721828125653&g_mp=Cilnb29nbGUubWFwcy5wbGFjZXMudjEuUGxhY2VzLlNlYXJjaE5lYXJieRACGAQgAA","google_icon_mask_base_uri":"https://maps.gstatic.com/mapfiles/place_api/icons/v2/civic-bldg_pinlet","google_icon_background_color":"#7B9EB0","formatted_address":"529G+8J3, Sadanga Rd, Sadanga, Mountain Province, Philippines","business_status":"OPERATIONAL","rating":null,"user_rating_count":null,"barangay_slug":"sadanga","barangay_name":"Poblacion"},"geometry":{"type":"Point","coordinates":[121.0265338,17.1682713]}},{"type":"Feature","properties":{"name":"Sadanga Municipal Hall - New Building","kind":"govt","kind_label":"Government","source":"google_places","google_place_id":"ChIJdfVDe9vPjzMR0rVvTd5joYU","google_primary_type":"government_office","google_primary_type_label":"Government Office","google_types":["government_office","point_of_interest","establishment"],"google_maps_uri":"https://maps.google.com/?cid=9629087284727887314&g_mp=Cilnb29nbGUubWFwcy5wbGFjZXMudjEuUGxhY2VzLlNlYXJjaE5lYXJieRACGAQgAA","google_icon_mask_base_uri":"https://maps.gstatic.com/mapfiles/place_api/icons/v2/civic-bldg_pinlet","google_icon_background_color":"#7B9EB0","formatted_address":"52GQ+8MQ Opokan, Poblacion, Sadanga, Mountain Province, Philippines","business_status":"OPERATIONAL","rating":null,"user_rating_count":null,"barangay_slug":"sadanga","barangay_name":"Poblacion"},"geometry":{"type":"Point","coordinates":[121.0392436,17.1758483]}},{"type":"Feature","properties":{"name":"Sadanga Municipal Police Station","kind":"govt","kind_label":"Government","source":"google_places","google_place_id":"ChIJJUyMvObOjzMRWu3lAhQ3yzU","google_primary_type":"government_office","google_primary_type_label":"Government Office","google_types":["government_office","point_of_interest","establishment"],"google_maps_uri":"https://maps.google.com/?cid=3876252463369940314&g_mp=Cilnb29nbGUubWFwcy5wbGFjZXMudjEuUGxhY2VzLlNlYXJjaE5lYXJieRACGAQgAA","google_icon_mask_base_uri":"https://maps.gstatic.com/mapfiles/place_api/icons/v2/civic-bldg_pinlet","google_icon_background_color":"#7B9EB0","formatted_address":"529G+8J4, Sadanga Rd, Sadanga, 2617 Mountain Province, Philippines","business_status":"OPERATIONAL","rating":4.3,"user_rating_count":3,"barangay_slug":"sadanga","barangay_name":"Poblacion"},"geometry":{"type":"Point","coordinates":[121.026592,17.1682624]}},{"type":"Feature","properties":{"name":"Sadanga National High School","kind":"govt","kind_label":"Government","source":"google_places","google_place_id":"ChIJOaAO2TjPjzMRyH9fz2xNx88","google_primary_type":"government_office","google_primary_type_label":"Government Office","google_types":["school","educational_institution","government_office","point_of_interest","establishment"],"google_maps_uri":"https://maps.google.com/?cid=14972020615947452360&g_mp=Cilnb29nbGUubWFwcy5wbGFjZXMudjEuUGxhY2VzLlNlYXJjaE5lYXJieRACGAQgAA","google_icon_mask_base_uri":"https://maps.gstatic.com/mapfiles/place_api/icons/v2/school_pinlet","google_icon_background_color":"#7B9EB0","formatted_address":"53F3+MGP Cagayan via, 52, Sadanga, 2617 Mountain Province, Philippines","business_status":"CLOSED_TEMPORARILY","rating":null,"user_rating_count":null,"barangay_slug":"sadanga","barangay_name":"Poblacion"},"geometry":{"type":"Point","coordinates":[121.053822,17.17422]}},{"type":"Feature","properties":{"name":"GS KART","kind":"market","kind_label":"Market","source":"google_places","google_place_id":"ChIJT2Nb6ijPjzMRi8OWewlJz0Q","google_primary_type":"convenience_store","google_primary_type_label":"Convenience Store","google_types":["convenience_store","food_store","food","point_of_interest","store","establishment"],"google_maps_uri":"https://maps.google.com/?cid=4958262019835216779&g_mp=Cilnb29nbGUubWFwcy5wbGFjZXMudjEuUGxhY2VzLlNlYXJjaE5lYXJieRACGAQgAA","google_icon_mask_base_uri":"https://maps.gstatic.com/mapfiles/place_api/icons/v2/convenience_pinlet","google_icon_background_color":"#4B96F3","formatted_address":"Poblacion, Sadanga, Mountain Province, Philippines","business_status":"OPERATIONAL","rating":null,"user_rating_count":null,"barangay_slug":"sadanga","barangay_name":"Poblacion"},"geometry":{"type":"Point","coordinates":[121.026298,17.168137299999998]}},{"type":"Feature","properties":{"name":"Laydem","kind":"market","kind_label":"Market","source":"google_places","google_place_id":"ChIJ0c08VgDPjzMR0Jv5XST4iwk","google_primary_type":"coffee_shop","google_primary_type_label":"Coffee Shop","google_types":["coffee_shop","cafe","food_store","store","point_of_interest","food","establishment"],"google_maps_uri":"https://maps.google.com/?cid=687916203183283152&g_mp=Cilnb29nbGUubWFwcy5wbGFjZXMudjEuUGxhY2VzLlNlYXJjaE5lYXJieRACGAQgAA","google_icon_mask_base_uri":"https://maps.gstatic.com/mapfiles/place_api/icons/v2/cafe_pinlet","google_icon_background_color":"#FF9E67","formatted_address":"529J+JQ3, Sadanga, 2617 Mountain Province, Philippines","business_status":"OPERATIONAL","rating":null,"user_rating_count":null,"barangay_slug":"sadanga","barangay_name":"Poblacion"},"geometry":{"type":"Point","coordinates":[121.0330999,17.168583299999998]}},{"type":"Feature","properties":{"name":"Demang Primary School","kind":"school","kind_label":"School","source":"google_places","google_place_id":"ChIJtynV_eHOjzMRNo_tZ-nRCfs","google_primary_type":"primary_school","google_primary_type_label":"Primary School","google_types":["primary_school","school","educational_institution","point_of_interest","establishment"],"google_maps_uri":"https://maps.google.com/?cid=18089220178711514934&g_mp=Cilnb29nbGUubWFwcy5wbGFjZXMudjEuUGxhY2VzLlNlYXJjaE5lYXJieRACGAQgAA","google_icon_mask_base_uri":"https://maps.gstatic.com/mapfiles/place_api/icons/v2/school_pinlet","google_icon_background_color":"#7B9EB0","formatted_address":"528M+M88, Sadanga, Mountain Province, Philippines","business_status":"OPERATIONAL","rating":null,"user_rating_count":null,"barangay_slug":"sadanga","barangay_name":"Poblacion"},"geometry":{"type":"Point","coordinates":[121.03333280000001,17.166666]}},{"type":"Feature","properties":{"name":"Poblacion (Sadanga) Child Development Center 1","kind":"school","kind_label":"School","source":"google_places","google_place_id":"ChIJoXCT0ErPjzMRniMBCSdB55s","google_primary_type":"preschool","google_primary_type_label":"Preschool","google_types":["preschool","school","child_care_agency","educational_institution","service","point_of_interest","establishment"],"google_maps_uri":"https://maps.google.com/?cid=11234019431409591198&g_mp=Cilnb29nbGUubWFwcy5wbGFjZXMudjEuUGxhY2VzLlNlYXJjaE5lYXJieRACGAQgAA","google_icon_mask_base_uri":"https://maps.gstatic.com/mapfiles/place_api/icons/v2/school_pinlet","google_icon_background_color":"#7B9EB0","formatted_address":"529G+39Q, Sadanga, Mountain Province, Philippines","business_status":"OPERATIONAL","rating":null,"user_rating_count":null,"barangay_slug":"sadanga","barangay_name":"Poblacion"},"geometry":{"type":"Point","coordinates":[121.02599199999999,17.1677017]}},{"type":"Feature","properties":{"name":"Sadanga Central School","kind":"school","kind_label":"School","source":"google_places","google_place_id":"ChIJGzXsPuHOjzMRpYSs2rcRdjs","google_primary_type":"school","google_primary_type_label":"School","google_types":["school","educational_institution","point_of_interest","establishment"],"google_maps_uri":"https://maps.google.com/?cid=4284631576835032229&g_mp=Cilnb29nbGUubWFwcy5wbGFjZXMudjEuUGxhY2VzLlNlYXJjaE5lYXJieRACGAQgAA","google_icon_mask_base_uri":"https://maps.gstatic.com/mapfiles/place_api/icons/v2/school_pinlet","google_icon_background_color":"#7B9EB0","formatted_address":"Tap-ag, Poblacion, 528V+RQ4, Sadanga Rd, Sadanga, 2617 Lalawigang Bulubundukin, Philippines","business_status":"OPERATIONAL","rating":null,"user_rating_count":null,"barangay_slug":"sadanga","barangay_name":"Poblacion"},"geometry":{"type":"Point","coordinates":[121.04444509999999,17.1670154]}},{"type":"Feature","properties":{"name":"Sadanga National High School","kind":"school","kind_label":"School","source":"google_places","google_place_id":"ChIJP1iHKOLOjzMRYiVAxq3BINo","google_primary_type":"secondary_school","google_primary_type_label":"High school","google_types":["secondary_school","school","educational_institution","point_of_interest","establishment"],"google_maps_uri":"https://maps.google.com/?cid=15717775651622626658&g_mp=Cilnb29nbGUubWFwcy5wbGFjZXMudjEuUGxhY2VzLlNlYXJjaE5lYXJieRACGAQgAA","google_icon_mask_base_uri":"https://maps.gstatic.com/mapfiles/place_api/icons/v2/school_pinlet","google_icon_background_color":"#7B9EB0","formatted_address":"Sangey, Poblacion, 528J+JG4, Sadanga Rd, Sadanga, 2617 Lalawigang Bulubundukin, Philippines","business_status":"OPERATIONAL","rating":null,"user_rating_count":null,"barangay_slug":"sadanga","barangay_name":"Poblacion"},"geometry":{"type":"Point","coordinates":[121.0313344,17.166501399999998]}},{"type":"Feature","properties":{"name":"We","kind":"school","kind_label":"School","source":"google_places","google_place_id":"ChIJHb_OdwDJjzMRFz0jtbcdRiE","google_primary_type":"secondary_school","google_primary_type_label":"High school","google_types":["secondary_school","school","educational_institution","point_of_interest","establishment"],"google_maps_uri":"https://maps.google.com/?cid=2397636526476573975&g_mp=Cilnb29nbGUubWFwcy5wbGFjZXMudjEuUGxhY2VzLlNlYXJjaE5lYXJieRACGAQgAA","google_icon_mask_base_uri":"https://maps.gstatic.com/mapfiles/place_api/icons/v2/school_pinlet","google_icon_background_color":"#7B9EB0","formatted_address":"53P8+V6Q, Mount Province - Tabuk - Enrile - Cagayan Rd, Sadanga, Mountain Province, Philippines","business_status":"OPERATIONAL","rating":null,"user_rating_count":null,"barangay_slug":"sadanga","barangay_name":"Poblacion"},"geometry":{"type":"Point","coordinates":[121.0656181,17.187208899999998]}},{"type":"Feature","properties":{"name":"LAGSAK Homestay","kind":"tourism","kind_label":"Tourism","source":"google_places","google_place_id":"ChIJgX3mXQDPjzMRxx6CFVbjn08","google_primary_type":"private_guest_room","google_primary_type_label":"Homestay","google_types":["private_guest_room","lodging","point_of_interest","establishment"],"google_maps_uri":"https://maps.google.com/?cid=5737554409160842951&g_mp=Cilnb29nbGUubWFwcy5wbGFjZXMudjEuUGxhY2VzLlNlYXJjaE5lYXJieRACGAQgAA","google_icon_mask_base_uri":"https://maps.gstatic.com/mapfiles/place_api/icons/v2/hotel_pinlet","google_icon_background_color":"#909CE1","formatted_address":"529H+H7J, Poblacion, Sadanga, Mountain Province, Philippines","business_status":"OPERATIONAL","rating":5,"user_rating_count":1,"barangay_slug":"sadanga","barangay_name":"Poblacion"},"geometry":{"type":"Point","coordinates":[121.02814529999999,17.168958699999997]}},{"type":"Feature","properties":{"name":"MALIDOM Residence","kind":"tourism","kind_label":"Tourism","source":"google_places","google_place_id":"ChIJOXhhWQDPjzMRQnBpNSYYuFg","google_primary_type":"private_guest_room","google_primary_type_label":"Homestay","google_types":["private_guest_room","lodging","point_of_interest","establishment"],"google_maps_uri":"https://maps.google.com/?cid=6392886223436345410&g_mp=Cilnb29nbGUubWFwcy5wbGFjZXMudjEuUGxhY2VzLlNlYXJjaE5lYXJieRACGAQgAA","google_icon_mask_base_uri":"https://maps.gstatic.com/mapfiles/place_api/icons/v2/hotel_pinlet","google_icon_background_color":"#909CE1","formatted_address":"LIDEM, Poblacion, Sadanga, Mountain Province, Philippines","business_status":"OPERATIONAL","rating":null,"user_rating_count":null,"barangay_slug":"sadanga","barangay_name":"Poblacion"},"geometry":{"type":"Point","coordinates":[121.0441872,17.1661061]}},{"type":"Feature","properties":{"name":"Sacasacan viewpoint","kind":"tourism","kind_label":"Tourism","source":"google_places","google_place_id":"ChIJux1UOBvPjzMRBjsOGQtLGYM","google_primary_type":"tourist_attraction","google_primary_type_label":"Tourist Attraction","google_types":["tourist_attraction","point_of_interest","establishment"],"google_maps_uri":"https://maps.google.com/?cid=9446664204423412486&g_mp=Cilnb29nbGUubWFwcy5wbGFjZXMudjEuUGxhY2VzLlNlYXJjaE5lYXJieRACGAQgAA","google_icon_mask_base_uri":"https://maps.gstatic.com/mapfiles/place_api/icons/v2/generic_pinlet","google_icon_background_color":"#13B5C7","formatted_address":"527H+G32, Road, Sadanga, Mountain Province, Philippines","business_status":"OPERATIONAL","rating":5,"user_rating_count":2,"barangay_slug":"sadanga","barangay_name":"Poblacion"},"geometry":{"type":"Point","coordinates":[121.0276406,17.1637705]}},{"type":"Feature","properties":{"name":"Sadanga Hot spring","kind":"tourism","kind_label":"Tourism","source":"google_places","google_place_id":"ChIJHwoJ1krPjzMR6aOqqctCuKg","google_primary_type":"tourist_attraction","google_primary_type_label":"Tourist Attraction","google_types":["tourist_attraction","point_of_interest","establishment"],"google_maps_uri":"https://maps.google.com/?cid=12157540636578980841&g_mp=Cilnb29nbGUubWFwcy5wbGFjZXMudjEuUGxhY2VzLlNlYXJjaE5lYXJieRACGAQgAA","google_icon_mask_base_uri":"https://maps.gstatic.com/mapfiles/place_api/icons/v2/generic_pinlet","google_icon_background_color":"#13B5C7","formatted_address":"52GQ+8MQ, Poblacion, Sadanga, Mountain Province, Philippines","business_status":"OPERATIONAL","rating":null,"user_rating_count":null,"barangay_slug":"sadanga","barangay_name":"Poblacion"},"geometry":{"type":"Point","coordinates":[121.0392436,17.1758483]}},{"type":"Feature","properties":{"name":"Shoyushoyan","kind":"tourism","kind_label":"Tourism","source":"google_places","google_place_id":"ChIJTb5rYwDPjzMRHWzM1rMXBKk","google_primary_type":"hiking_area","google_primary_type_label":"Hiking Area","google_types":["hiking_area","sports_activity_location","point_of_interest","establishment"],"google_maps_uri":"https://maps.google.com/?cid=12178885353486969885&g_mp=Cilnb29nbGUubWFwcy5wbGFjZXMudjEuUGxhY2VzLlNlYXJjaE5lYXJieRACGAQgAA","google_icon_mask_base_uri":"https://maps.gstatic.com/mapfiles/place_api/icons/v2/hiking_pinlet","google_icon_background_color":"#4DB546","formatted_address":"5392+C8, Sadanga, Mountain Province, Philippines","business_status":"OPERATIONAL","rating":null,"user_rating_count":null,"barangay_slug":"sadanga","barangay_name":"Poblacion"},"geometry":{"type":"Point","coordinates":[121.0507766,17.168535]}},{"type":"Feature","properties":{"name":"Tinnay Homestay","kind":"tourism","kind_label":"Tourism","source":"google_places","google_place_id":"ChIJrzHzQADPjzMRZxoVE9zW7Ns","google_primary_type":"private_guest_room","google_primary_type_label":"Homestay","google_types":["private_guest_room","lodging","point_of_interest","establishment"],"google_maps_uri":"https://maps.google.com/?cid=15847277429511232103&g_mp=Cilnb29nbGUubWFwcy5wbGFjZXMudjEuUGxhY2VzLlNlYXJjaE5lYXJieRACGAQgAA","google_icon_mask_base_uri":"https://maps.gstatic.com/mapfiles/place_api/icons/v2/hotel_pinlet","google_icon_background_color":"#909CE1","formatted_address":"529G+93J, Sadanga, Mountain Province, Philippines","business_status":"OPERATIONAL","rating":null,"user_rating_count":null,"barangay_slug":"sadanga","barangay_name":"Poblacion"},"geometry":{"type":"Point","coordinates":[121.02514969999999,17.168461999999998]}},{"type":"Feature","properties":{"name":"Our Lady of Assumption Catholic Mission","kind":"worship","kind_label":"Worship","source":"google_places","google_place_id":"ChIJ2VmKoubOjzMRSTBMQpmwscM","google_primary_type":"church","google_primary_type_label":"Church","google_types":["church","place_of_worship","association_or_organization","point_of_interest","establishment"],"google_maps_uri":"https://maps.google.com/?cid=14101246080562507849&g_mp=Cilnb29nbGUubWFwcy5wbGFjZXMudjEuUGxhY2VzLlNlYXJjaE5lYXJieRACGAQgAA","google_icon_mask_base_uri":"https://maps.gstatic.com/mapfiles/place_api/icons/v2/worship_christian_pinlet","google_icon_background_color":"#7B9EB0","formatted_address":"Pob­lacion, Sadanga, 529G+76P, Sadanga, 2617 Mountain Province, Philippines","business_status":"OPERATIONAL","rating":null,"user_rating_count":null,"barangay_slug":"sadanga","barangay_name":"Poblacion"},"geometry":{"type":"Point","coordinates":[121.0255673,17.1682059]}},{"type":"Feature","properties":{"name":"Sadanga Bible Baptist Church","kind":"worship","kind_label":"Worship","source":"google_places","google_place_id":"ChIJN-XMFx3PjzMRjtQmEnPYLfI","google_primary_type":"church","google_primary_type_label":"Church","google_types":["church","place_of_worship","association_or_organization","point_of_interest","establishment"],"google_maps_uri":"https://maps.google.com/?cid=17450842119867913358&g_mp=Cilnb29nbGUubWFwcy5wbGFjZXMudjEuUGxhY2VzLlNlYXJjaE5lYXJieRACGAQgAA","google_icon_mask_base_uri":"https://maps.gstatic.com/mapfiles/place_api/icons/v2/worship_christian_pinlet","google_icon_background_color":"#7B9EB0","formatted_address":"529G+C84, Sadanga, 2617 Mountain Province, Philippines","business_status":"OPERATIONAL","rating":5,"user_rating_count":1,"barangay_slug":"sadanga","barangay_name":"Poblacion"},"geometry":{"type":"Point","coordinates":[121.025835,17.1685013]}},{"type":"Feature","properties":{"name":"Fokong Rice Terraces","kind":"business","kind_label":"Business","source":"google_places","google_place_id":"ChIJySLLEOPPjzMRXEPq6VUEHP4","google_primary_type":"scenic_spot","google_primary_type_label":"Scenic Spot","google_types":["scenic_spot","point_of_interest","establishment"],"google_maps_uri":"https://maps.google.com/?cid=18310514952024769372&g_mp=Cidnb29nbGUubWFwcy5wbGFjZXMudjEuUGxhY2VzLlNlYXJjaFRleHQQAhgEIAA","google_icon_mask_base_uri":"https://maps.gstatic.com/mapfiles/place_api/icons/v2/generic_pinlet","google_icon_background_color":"#7B9EB0","formatted_address":"5257+VM5, Sadanga, Mountain Province, Philippines","business_status":"OPERATIONAL","rating":null,"user_rating_count":null,"barangay_slug":"sacasacan","barangay_name":"Sacasacan"},"geometry":{"type":"Point","coordinates":[121.0142434,17.1596303]}},{"type":"Feature","properties":{"name":"Sacasacan, Sadanga, Mountain Province","kind":"business","kind_label":"Business","source":"google_places","google_place_id":"ChIJueQEDgDPjzMR7hFfaeIL_FI","google_primary_type":"association_or_organization","google_primary_type_label":"Association / Organization","google_types":["association_or_organization","point_of_interest","service","establishment"],"google_maps_uri":"https://maps.google.com/?cid=5979667472299528686&g_mp=Cidnb29nbGUubWFwcy5wbGFjZXMudjEuUGxhY2VzLlNlYXJjaFRleHQQAhgEIAA","google_icon_mask_base_uri":"https://maps.gstatic.com/mapfiles/place_api/icons/v2/generic_pinlet","google_icon_background_color":"#7B9EB0","formatted_address":"5279+M9W, Sacasacan, Sadanga, Mountain Province, Philippines","business_status":"OPERATIONAL","rating":1,"user_rating_count":1,"barangay_slug":"sacasacan","barangay_name":"Sacasacan"},"geometry":{"type":"Point","coordinates":[121.01845829999998,17.1642454]}},{"type":"Feature","properties":{"name":"Sacasacan Elementary School","kind":"school","kind_label":"School","source":"google_places","google_place_id":"ChIJozL8qwDPjzMRovkh4Hf91Z8","google_primary_type":"primary_school","google_primary_type_label":"Elementary School","google_types":["primary_school","school","educational_institution","point_of_interest","establishment"],"google_maps_uri":"https://maps.google.com/?cid=11517390313373170082&g_mp=Cilnb29nbGUubWFwcy5wbGFjZXMudjEuUGxhY2VzLlNlYXJjaE5lYXJieRACGAQgAA","google_icon_mask_base_uri":"https://maps.gstatic.com/mapfiles/place_api/icons/v2/school_pinlet","google_icon_background_color":"#7B9EB0","formatted_address":"5278+PXV, Sadanga, Mountain Province, Philippines","business_status":"OPERATIONAL","rating":null,"user_rating_count":null,"barangay_slug":"sacasacan","barangay_name":"Sacasacan"},"geometry":{"type":"Point","coordinates":[121.01743180000001,17.1643567]}},{"type":"Feature","properties":{"name":"3RM HOMESTAY","kind":"tourism","kind_label":"Tourism","source":"google_places","google_place_id":"ChIJHQABVgDPjzMROF-ltZ0nP0U","google_primary_type":"private_guest_room","google_primary_type_label":"Homestay","google_types":["private_guest_room","lodging","point_of_interest","establishment"],"google_maps_uri":"https://maps.google.com/?cid=4989750470460661560&g_mp=Cilnb29nbGUubWFwcy5wbGFjZXMudjEuUGxhY2VzLlNlYXJjaE5lYXJieRACGAQgAA","google_icon_mask_base_uri":"https://maps.gstatic.com/mapfiles/place_api/icons/v2/hotel_pinlet","google_icon_background_color":"#909CE1","formatted_address":"527F+554 Febennag Sacasacan, Sadanga, Mountain Province, Philippines","business_status":"OPERATIONAL","rating":null,"user_rating_count":null,"barangay_slug":"sacasacan","barangay_name":"Sacasacan"},"geometry":{"type":"Point","coordinates":[121.0229388,17.1628914]}},{"type":"Feature","properties":{"name":"SERKAN MAINIT, (tibs summit)","kind":"tourism","kind_label":"Tourism","source":"google_places","google_place_id":"ChIJtbrucgDNjzMRo39ZOUjhZ4c","google_primary_type":"hiking_area","google_primary_type_label":"Hiking Area","google_types":["hiking_area","sports_activity_location","point_of_interest","establishment"],"google_maps_uri":"https://maps.google.com/?cid=9757014818037530531&g_mp=Cilnb29nbGUubWFwcy5wbGFjZXMudjEuUGxhY2VzLlNlYXJjaE5lYXJieRACGAQgAA","google_icon_mask_base_uri":"https://maps.gstatic.com/mapfiles/place_api/icons/v2/hiking_pinlet","google_icon_background_color":"#4DB546","formatted_address":"5XPC+697 Tibs summit, Sacasacan, Sadanga, Mountain Province, Philippines","business_status":"OPERATIONAL","rating":null,"user_rating_count":null,"barangay_slug":"sacasacan","barangay_name":"Sacasacan"},"geometry":{"type":"Point","coordinates":[120.97092899999998,17.185529199999998]}},{"type":"Feature","properties":{"name":"AKIATE STORE","kind":"business","kind_label":"Business","source":"google_places","google_place_id":"ChIJz16BLQDJjzMRR45bRmLl7i4","google_primary_type":"store","google_primary_type_label":"Store","google_types":["store","point_of_interest","establishment"],"google_maps_uri":"https://maps.google.com/?cid=3381892580451782215&g_mp=Cilnb29nbGUubWFwcy5wbGFjZXMudjEuUGxhY2VzLlNlYXJjaE5lYXJieRACGAQgAA","google_icon_mask_base_uri":"https://maps.gstatic.com/mapfiles/place_api/icons/v2/shopping_pinlet","google_icon_background_color":"#4B96F3","formatted_address":"633G+FM2, Sadanga, Mountain Province, Philippines","business_status":"OPERATIONAL","rating":3,"user_rating_count":1,"barangay_slug":"saclit","barangay_name":"Saclit"},"geometry":{"type":"Point","coordinates":[121.07663809999998,17.2036622]}},{"type":"Feature","properties":{"name":"MAMAGA EATERY","kind":"business","kind_label":"Business","source":"google_places","google_place_id":"ChIJjTTYdV3JjzMRpo8OxWQRKM4","google_primary_type":"family_restaurant","google_primary_type_label":"Family Restaurant","google_types":["family_restaurant","restaurant","point_of_interest","food","establishment"],"google_maps_uri":"https://maps.google.com/?cid=14855142495382048678&g_mp=Cilnb29nbGUubWFwcy5wbGFjZXMudjEuUGxhY2VzLlNlYXJjaE5lYXJieRACGAQgAA","google_icon_mask_base_uri":"https://maps.gstatic.com/mapfiles/place_api/icons/v2/restaurant_pinlet","google_icon_background_color":"#FF9E67","formatted_address":"633G+CJ, Sadanga, Mountain Province, Philippines","business_status":"OPERATIONAL","rating":4.7,"user_rating_count":19,"barangay_slug":"saclit","barangay_name":"Saclit"},"geometry":{"type":"Point","coordinates":[121.07657429999999,17.203599999999998]}},{"type":"Feature","properties":{"name":"Rider's Cafe Mamaga","kind":"business","kind_label":"Business","source":"google_places","google_place_id":"ChIJxQ8uQqDIjzMREi5zkeJlhPQ","google_primary_type":"cafe","google_primary_type_label":"Cafe","google_types":["cafe","point_of_interest","food","establishment"],"google_maps_uri":"https://maps.google.com/?cid=17619319665957482002&g_mp=Cilnb29nbGUubWFwcy5wbGFjZXMudjEuUGxhY2VzLlNlYXJjaE5lYXJieRACGAQgAA","google_icon_mask_base_uri":"https://maps.gstatic.com/mapfiles/place_api/icons/v2/cafe_pinlet","google_icon_background_color":"#FF9E67","formatted_address":"Sadanga, Mountain Province, Philippines","business_status":"OPERATIONAL","rating":null,"user_rating_count":null,"barangay_slug":"saclit","barangay_name":"Saclit"},"geometry":{"type":"Point","coordinates":[121.0777835,17.204445]}},{"type":"Feature","properties":{"name":"Saclit Barangay Hall","kind":"govt","kind_label":"Government","source":"google_places","google_place_id":"ChIJx8cDaADJjzMR3pDdQSNRotU","google_primary_type":"government_office","google_primary_type_label":"Government Office","google_types":["government_office","point_of_interest","establishment"],"google_maps_uri":"https://maps.google.com/?cid=15393955688176521438&g_mp=Cilnb29nbGUubWFwcy5wbGFjZXMudjEuUGxhY2VzLlNlYXJjaE5lYXJieRACGAQgAA","google_icon_mask_base_uri":"https://maps.gstatic.com/mapfiles/place_api/icons/v2/civic-bldg_pinlet","google_icon_background_color":"#7B9EB0","formatted_address":"6387+GCM, Sadanga, Mountain Province, Philippines","business_status":"OPERATIONAL","rating":null,"user_rating_count":null,"barangay_slug":"saclit","barangay_name":"Saclit"},"geometry":{"type":"Point","coordinates":[121.0637224,17.2150692]}},{"type":"Feature","properties":{"name":"Shadrack","kind":"market","kind_label":"Market","source":"google_places","google_place_id":"ChIJHRpoIpHJjzMReyTPWEwoCq4","google_primary_type":"bakery","google_primary_type_label":"Bakery","google_types":["bakery","food_store","store","point_of_interest","food","establishment"],"google_maps_uri":"https://maps.google.com/?cid=12540880420739163259&g_mp=Cilnb29nbGUubWFwcy5wbGFjZXMudjEuUGxhY2VzLlNlYXJjaE5lYXJieRACGAQgAA","google_icon_mask_base_uri":"https://maps.gstatic.com/mapfiles/place_api/icons/v2/restaurant_pinlet","google_icon_background_color":"#FF9E67","formatted_address":"52WQ+QM5, Sadanga, 2617 Mountain Province, Philippines","business_status":"OPERATIONAL","rating":null,"user_rating_count":null,"barangay_slug":"saclit","barangay_name":"Saclit"},"geometry":{"type":"Point","coordinates":[121.0392436,17.1968982]}}]}
