{"type":"FeatureCollection","features":[{"type":"Feature","properties":{"manual_id":"manual-road-1785006818272-xfftkn","osm_way_id":"manual-road-1785006818272-xfftkn","highway":"residential","name":null,"barangay_slug":"aguid","barangay_name":"Aguid","length_m":367,"source":"manual-print"},"geometry":{"type":"LineString","coordinates":[[120.891696,17.133494],[120.891613,17.13384],[120.891763,17.134196],[120.891812,17.134601],[120.891911,17.134927],[120.89194,17.13535],[120.891905,17.135476],[120.891922,17.13596],[120.89197,17.136058],[120.89179,17.136488],[120.891653,17.13664]]}},{"type":"Feature","properties":{"manual_id":"manual-road-1785013167733-h45irw","osm_way_id":"manual-road-1785013167733-h45irw","highway":"residential","name":null,"barangay_slug":"antadao","barangay_name":"Antadao","length_m":613,"source":"manual-print"},"geometry":{"type":"LineString","coordinates":[[120.911799,17.083616],[120.911778,17.083093],[120.911993,17.082827],[120.912159,17.082498],[120.912188,17.082227],[120.912253,17.081817],[120.912462,17.08153],[120.912609,17.08145],[120.912679,17.081468],[120.912687,17.08194],[120.913063,17.082519],[120.913237,17.082605],[120.913487,17.0825],[120.913573,17.082357],[120.913728,17.0823],[120.913937,17.082328],[120.914203,17.082462],[120.914592,17.082393],[120.914785,17.082267]]}},{"type":"Feature","properties":{"manual_id":"manual-road-1785013205362-4iqn5i","osm_way_id":"manual-road-1785013205362-4iqn5i","highway":"residential","name":null,"barangay_slug":"antadao","barangay_name":"Antadao","length_m":885,"source":"manual-print"},"geometry":{"type":"LineString","coordinates":[[120.909911,17.082926],[120.910015,17.082539],[120.910429,17.081687],[120.910641,17.08141],[120.91074,17.081005],[120.910826,17.080802],[120.910973,17.080625],[120.911121,17.080277],[120.91119,17.080107],[120.911376,17.079912],[120.911435,17.079697],[120.911338,17.079464],[120.910874,17.079169],[120.91078,17.07873],[120.910753,17.078612],[120.910665,17.078586],[120.910252,17.07882],[120.909989,17.078874],[120.909787,17.078812],[120.909557,17.078661],[120.909192,17.078332],[120.908631,17.078079],[120.907966,17.077845]]}},{"type":"Feature","properties":{"manual_id":"manual-road-1785286350383-bzhmg3","osm_way_id":"manual-road-1785286350383-bzhmg3","highway":"residential","name":null,"barangay_slug":"patay","barangay_name":"Patay","length_m":343,"source":"manual-print"},"geometry":{"type":"LineString","coordinates":[[120.901802,17.084868],[120.901982,17.084481],[120.902049,17.084304],[120.902084,17.084247],[120.902312,17.084017],[120.902376,17.083878],[120.902393,17.083625],[120.902312,17.083194],[120.902489,17.082892],[120.9025,17.082423],[120.902465,17.082284],[120.902323,17.082028]]}},{"type":"Feature","properties":{"manual_id":"manual-road-1785287679900-1b1y4r","osm_way_id":"manual-road-1785287679900-1b1y4r","highway":"residential","name":null,"barangay_slug":"patay","barangay_name":"Patay","length_m":347,"source":"manual-print"},"geometry":{"type":"LineString","coordinates":[[120.903645,17.08828],[120.903313,17.08838],[120.903015,17.088298],[120.90257,17.088134],[120.902309,17.088119],[120.901776,17.087972],[120.90103,17.087585],[120.900628,17.087368]]}},{"type":"Feature","properties":{"manual_id":"manual-road-1785287776135-s44map","osm_way_id":"manual-road-1785287776135-s44map","highway":"residential","name":null,"barangay_slug":"patay","barangay_name":"Patay","length_m":510,"source":"manual-print"},"geometry":{"type":"LineString","coordinates":[[120.896948,17.082538],[120.896894,17.082704],[120.896918,17.082976],[120.896819,17.083232],[120.897036,17.083409],[120.897661,17.083153],[120.897701,17.083222],[120.89761,17.083309],[120.897605,17.083483],[120.897366,17.083722],[120.897422,17.083893],[120.897581,17.084757],[120.897551,17.085041],[120.898222,17.085669]]}},{"type":"Feature","properties":{"manual_id":"manual-road-1785289402191-nkkvzk","osm_way_id":"manual-road-1785289402191-nkkvzk","highway":"residential","name":null,"barangay_slug":"dagdag","barangay_name":"Dagdag","length_m":237,"source":"manual-print"},"geometry":{"type":"LineString","coordinates":[[120.899303,17.081845],[120.899281,17.081512],[120.899128,17.08123],[120.89901,17.081117],[120.899013,17.080979],[120.899249,17.080571],[120.899439,17.079882]]}},{"type":"Feature","properties":{"manual_id":"manual-road-1785297074396-9z1xld","osm_way_id":"manual-road-1785297074396-9z1xld","highway":"residential","name":null,"barangay_slug":"tetep-an-sur","barangay_name":"Tetep-an Sur","length_m":137,"source":"manual-print"},"geometry":{"type":"LineString","coordinates":[[120.927241,17.091529],[120.92701,17.091757],[120.926836,17.091854],[120.926795,17.091987],[120.926905,17.092203],[120.926624,17.092415]]}}]}
